{
  "type" : "FeatureCollection",
  "crs" : {
    "type" : "name",
    "properties" : {
      "name" : "EPSG:32640"
    }
  },
  "features" : [{"type":"Feature","id":1,"geometry":{"type":"Point","coordinates":[188528.92100000009,1883215.2885999996]},"properties":{"OBJECTID":1,"Asset_ID":"ATM1","Name":"Bank Dhofar ATM - Ishteqrar Hypermarket","District_ID":"Salalah al Jadida","Gov_ID":"2","Wlyt_ID":"Salalah","Road_ID":"104306","Latitude":17.01207269,"Longitude":54.07468428,"GlobalID":"{6DC684C7-FFFC-4818-AEEC-A0BE92ABCE55}"}},{"type":"Feature","id":2,"geometry":{"type":"Point","coordinates":[189602.26599999983,1883267.7283999994]},"properties":{"OBJECTID":2,"Asset_ID":"ATM2","Name":"National Bank of Oman (NBO)","District_ID":"Salalah al Gharbiyya","Gov_ID":"2","Wlyt_ID":"Salalah","Road_ID":"103812","Latitude":17.012691889999999,"Longitude":54.084757789999998,"GlobalID":"{1B94F5FE-F9A1-4A9A-B17B-67CE33F6C89B}"}},{"type":"Feature","id":3,"geometry":{"type":"Point","coordinates":[186933.52770000044,1882417.273]},"properties":{"OBJECTID":3,"Asset_ID":"ATM3","Name":"Bank Dhofar ATM - Salalah SQH","District_ID":"al Wadi","Gov_ID":"2","Wlyt_ID":"Salalah","Road_ID":"105375","Latitude":17.004661500000001,"Longitude":54.059832800000002,"GlobalID":"{79F8A210-15D3-49D4-8952-97E7A8FA8497}"}},{"type":"Feature","id":4,"geometry":{"type":"Point","coordinates":[189542.25160000008,1884372.9896000009]},"properties":{"OBJECTID":4,"Asset_ID":"ATM4","Name":" Bank Muscat ATM","District_ID":"Salalah al Jadida","Gov_ID":"2","Wlyt_ID":"Salalah","Road_ID":"104294","Latitude":17.022643680000002,"Longitude":54.084050419999997,"GlobalID":"{782B041D-401D-4006-82B9-75F3A7F9AB3A}"}},{"type":"Feature","id":5,"geometry":{"type":"Point","coordinates":[189547.47119999956,1884345.7117999997]},"properties":{"OBJECTID":5,"Asset_ID":"ATM5","Name":"Oman Arab bank ATM","District_ID":"Salalah al Jadida","Gov_ID":"2","Wlyt_ID":"Salalah","Road_ID":"104389","Latitude":17.022417050000001,"Longitude":54.084100020000001,"GlobalID":"{DC69F206-8D2C-4D93-A251-155C829E2527}"}},{"type":"Feature","id":6,"geometry":{"type":"Point","coordinates":[189685.32890000008,1883328.0450999998]},"properties":{"OBJECTID":6,"Asset_ID":"ATM6","Name":"Bank Muscat ATM","District_ID":"Salalah al Jadida","Gov_ID":"2","Wlyt_ID":"Salalah","Road_ID":"104189","Latitude":17.01321879,"Longitude":54.085538100000001,"GlobalID":"{BE991002-B941-4D14-8E46-9C8E794D8447}"}},{"type":"Feature","id":7,"geometry":{"type":"Point","coordinates":[189890.08849999961,1883488.3709999993]},"properties":{"OBJECTID":7,"Asset_ID":"ATM7","Name":"National Bank of Oman (NBO)","District_ID":"Salalah al Jadida","Gov_ID":"2","Wlyt_ID":"Salalah","Road_ID":"104204","Latitude":17.014714829999999,"Longitude":54.087430869999999,"GlobalID":"{0FBE94CB-4758-422F-A3D9-0BFBF9F885B4}"}},{"type":"Feature","id":8,"geometry":{"type":"Point","coordinates":[188505.73680000007,1882984.3363000005]},"properties":{"OBJECTID":8,"Asset_ID":"ATM8","Name":"Bank sohar ATM","District_ID":"Salalah al Jadida","Gov_ID":"2","Wlyt_ID":"Salalah","Road_ID":"104318","Latitude":17.00998972,"Longitude":54.07451717,"GlobalID":"{D5ED5027-A614-4340-8AD7-BA227BDB98F8}"}},{"type":"Feature","id":9,"geometry":{"type":"Point","coordinates":[187500.12629999965,1882627.9213999994]},"properties":{"OBJECTID":9,"Asset_ID":"ATM9","Name":"Bank Muscat ATM","District_ID":"al Wadi","Gov_ID":"2","Wlyt_ID":"Salalah","Road_ID":"105462","Latitude":17.006640959999999,"Longitude":54.065141509999997,"GlobalID":"{C2BD445F-7914-4E72-B51F-2FCBD03BFC5E}"}},{"type":"Feature","id":10,"geometry":{"type":"Point","coordinates":[186843.92540000007,1882813.1002999991]},"properties":{"OBJECTID":10,"Asset_ID":"ATM10","Name":"Bank Sohar ATM","District_ID":"al Wadi","Gov_ID":"2","Wlyt_ID":"Salalah","Road_ID":"105338","Latitude":17.008186240000001,"Longitude":54.058949849999998,"GlobalID":"{6FDD6B8D-8636-4D89-9020-1D248F5BE96A}"}},{"type":"Feature","id":11,"geometry":{"type":"Point","coordinates":[197671.36849999987,1883852.7921999991]},"properties":{"OBJECTID":11,"Asset_ID":"ATM11","Name":"Bank Dhofar ATM","District_ID":"Dahariz al Janubiyya","Gov_ID":"2","Wlyt_ID":"Salalah","Road_ID":"100040","Latitude":17.019064799999999,"Longitude":54.160398579999999,"GlobalID":"{4DDEFBBB-C500-4F37-B512-CEE24DACD471}"}},{"type":"Feature","id":12,"geometry":{"type":"Point","coordinates":[198142.50690000039,1885638.3721999992]},"properties":{"OBJECTID":12,"Asset_ID":"ATM12","Name":"Bank Dhofar FFM - Salalah Grand Mall","District_ID":"Dahariz al Shamaliyya","Gov_ID":"2","Wlyt_ID":"Salalah","Road_ID":"100124","Latitude":17.035199240000001,"Longitude":54.164581429999998,"GlobalID":"{E2B9BDE8-18A1-41D8-9C3C-E16AF3F1061C}"}},{"type":"Feature","id":13,"geometry":{"type":"Point","coordinates":[198014.95069999993,1885649.6051000003]},"properties":{"OBJECTID":13,"Asset_ID":"ATM13","Name":"National Bank of Oman (NBO)","District_ID":"Dahariz al Shamaliyya","Gov_ID":"2","Wlyt_ID":"Salalah","Road_ID":"100124","Latitude":17.035283939999999,"Longitude":54.163382810000002,"GlobalID":"{77834719-BE81-46A6-A4A9-EB17E9DF2AF8}"}},{"type":"Feature","id":14,"geometry":{"type":"Point","coordinates":[198031.00960000046,1885587.2831999995]},"properties":{"OBJECTID":14,"Asset_ID":"ATM14","Name":"Bank Muscat ATM","District_ID":"Dahariz al Shamaliyya","Gov_ID":"2","Wlyt_ID":"Salalah","Road_ID":"100014","Latitude":17.034723379999999,"Longitude":54.16354201,"GlobalID":"{F6AE80D5-81D5-4CAF-A23F-159293FF8074}"}},{"type":"Feature","id":15,"geometry":{"type":"Point","coordinates":[198842.48070000019,1884537.9276000001]},"properties":{"OBJECTID":15,"Asset_ID":"ATM15","Name":"National Bank of Oman (NBO)","District_ID":"Dahariz al Shamaliyya","Gov_ID":"2","Wlyt_ID":"Salalah","Road_ID":"100001","Latitude":17.025355529999999,"Longitude":54.171300070000001,"GlobalID":"{529C832A-7B1C-4902-B6FD-A14C2317887C}"}},{"type":"Feature","id":16,"geometry":{"type":"Point","coordinates":[197588.55319999997,1884586.5204000007]},"properties":{"OBJECTID":16,"Asset_ID":"ATM16","Name":"Bank Muscat Dahariz","District_ID":"Dahariz al Shamaliyya","Gov_ID":"2","Wlyt_ID":"Salalah","Road_ID":"100082","Latitude":17.025630119999999,"Longitude":54.159526120000002,"GlobalID":"{9BD2B499-DA07-4A42-8531-15E376997800}"}},{"type":"Feature","id":17,"geometry":{"type":"Point","coordinates":[196358.00690000039,1885662.5515999999]},"properties":{"OBJECTID":17,"Asset_ID":"ATM17","Name":"Bank Muscat ATM","District_ID":"Dahariz al Shamaliyya","Gov_ID":"2","Wlyt_ID":"Salalah","Road_ID":"100124","Latitude":17.035183079999999,"Longitude":54.14783096,"GlobalID":"{BEABEE42-8609-46B5-843E-FC0C50299CE2}"}},{"type":"Feature","id":18,"geometry":{"type":"Point","coordinates":[196161.08739999961,1885759.0298999995]},"properties":{"OBJECTID":18,"Asset_ID":"ATM18","Name":"Dhofar Islamic ATM","District_ID":"al Sada al Janubiyya","Gov_ID":"2","Wlyt_ID":"Salalah","Road_ID":"100263","Latitude":17.03602815,"Longitude":54.145969700000002,"GlobalID":"{21A9A0AF-B338-4E1F-85A1-DA91453CF35F}"}},{"type":"Feature","id":19,"geometry":{"type":"Point","coordinates":[198273.37700000033,1885792.3126999997]},"properties":{"OBJECTID":19,"Asset_ID":"ATM19","Name":"Bank Sohar ATM","District_ID":"al Sada al Janubiyya","Gov_ID":"2","Wlyt_ID":"Salalah","Road_ID":"100353","Latitude":17.036606219999999,"Longitude":54.165788679999999,"GlobalID":"{2350DB46-F98A-41F0-AF65-06ACA8339E8E}"}},{"type":"Feature","id":20,"geometry":{"type":"Point","coordinates":[197671.36849999987,1883852.7921999991]},"properties":{"OBJECTID":20,"Asset_ID":"ATM20","Name":"Bank Dhofar ATM","District_ID":"Dahariz al Janubiyya","Gov_ID":"2","Wlyt_ID":"Salalah","Road_ID":"100040","Latitude":17.019064799999999,"Longitude":54.160398579999999,"GlobalID":"{A5283A86-A622-4B94-8CED-064C500C5C1E}"}},{"type":"Feature","id":21,"geometry":{"type":"Point","coordinates":[189542.68570000026,1884369.7447999995]},"properties":{"OBJECTID":21,"Asset_ID":"ATM21","Name":"Bank Sohar ATM","District_ID":"Salalah al Jadida","Gov_ID":"Dhofar Governorate","Wlyt_ID":"Salalah","Road_ID":"104189","Latitude":17.022600789999998,"Longitude":54.084076039999999,"GlobalID":"{DCF4120A-E101-4773-AE70-97A632AD6DA6}"}},{"type":"Feature","id":22,"geometry":{"type":"Point","coordinates":[184794.4411000004,1882323.9943000004]},"properties":{"OBJECTID":22,"Asset_ID":"ATM22","Name":"Dhofar bank ATM","District_ID":"21","Gov_ID":"2","Wlyt_ID":"Salalah","Road_ID":"105391","Latitude":17.003491919999998,"Longitude":54.039789859999999,"GlobalID":"{A0BF2BEB-451E-41E9-B644-9397247B543E}"}},{"type":"Feature","id":23,"geometry":{"type":"Point","coordinates":[184750.74210000038,1882536.8871999998]},"properties":{"OBJECTID":23,"Asset_ID":"ATM23","Name":"Bank Muscat ATM","District_ID":"20","Gov_ID":"2","Wlyt_ID":"Salalah","Road_ID":"105567","Latitude":17.00540093,"Longitude":54.039355700000002,"GlobalID":"{7E1D1CB1-4781-44D2-B432-E3B33A1A6B70}"}},{"type":"Feature","id":24,"geometry":{"type":"Point","coordinates":[184660.75229999982,1882315.1689999998]},"properties":{"OBJECTID":24,"Asset_ID":"ATM24","Name":"Bank Sohar ATM","District_ID":"20","Gov_ID":"2","Wlyt_ID":"Salalah","Road_ID":"105550","Latitude":17.003394,"Longitude":54.038536809999997,"GlobalID":"{24CBBFCB-6C97-4FAE-BCF5-D6E841570859}"}},{"type":"Feature","id":25,"geometry":{"type":"Point","coordinates":[186430.25930000003,1882453.4724000003]},"properties":{"OBJECTID":25,"Asset_ID":"ATM25","Name":"National Bank of Oman ATM","District_ID":"13","Gov_ID":"2","Wlyt_ID":"Salalah","Road_ID":"100002","Latitude":17.004883530000001,"Longitude":54.055119349999998,"GlobalID":"{EF6E8E98-06CB-4F9B-ACB8-F49224F4B896}"}},{"type":"Feature","id":26,"geometry":{"type":"Point","coordinates":[185216.61880000029,1882851.7323000003]},"properties":{"OBJECTID":26,"Asset_ID":"ATM26","Name":"National Bank of Oman ATM","District_ID":"21","Gov_ID":"2","Wlyt_ID":"Salalah","Road_ID":"105482","Latitude":17.008306529999999,"Longitude":54.043666930000001,"GlobalID":"{DA44032F-337A-4B74-957D-E96BD574F08A}"}},{"type":"Feature","id":27,"geometry":{"type":"Point","coordinates":[183768.61919999961,1885254.4760999996]},"properties":{"OBJECTID":27,"Asset_ID":"ATM27","Name":"Oman Arab bank ATM","District_ID":"12","Gov_ID":"2","Wlyt_ID":"Salalah","Road_ID":"105644","Latitude":17.029806059999999,"Longitude":54.029747890000003,"GlobalID":"{A623E026-944F-4924-BA13-F391BFA74819}"}},{"type":"Feature","id":28,"geometry":{"type":"Point","coordinates":[197346.14850000013,1891033.2576000001]},"properties":{"OBJECTID":28,"Asset_ID":"ATM28","Name":"Bank Muscat ATM","District_ID":"24","Gov_ID":"2","Wlyt_ID":"Salalah","Road_ID":"100003","Latitude":17.08380146,"Longitude":54.156369959999999,"GlobalID":"{8DDB2E3C-522B-4307-95D3-80F10400B83A}"}},{"type":"Feature","id":29,"geometry":{"type":"Point","coordinates":[196155.15050000045,1892032.6381000001]},"properties":{"OBJECTID":29,"Asset_ID":"ATM29","Name":"Bank Muscat ATM","District_ID":"24","Gov_ID":"2","Wlyt_ID":"Salalah","Road_ID":"100530","Latitude":17.09266684,"Longitude":54.145052380000003,"GlobalID":"{2D02E6CA-EB8F-4A0B-8052-91ADD5F69831}"}},{"type":"Feature","id":30,"geometry":{"type":"Point","coordinates":[196228.83920000028,1891696.9236999992]},"properties":{"OBJECTID":30,"Asset_ID":"ATM30","Name":"Bank Dhofar ATM - Dhofar Univ","District_ID":"24","Gov_ID":"2","Wlyt_ID":"Salalah","Road_ID":"100530","Latitude":17.089645699999998,"Longitude":54.145790320000003,"GlobalID":"{7ED79333-FE00-4CB0-940C-F3382FC2E632}"}},{"type":"Feature","id":31,"geometry":{"type":"Point","coordinates":[198535.49899999984,1892892.8768000007]},"properties":{"OBJECTID":31,"Asset_ID":"ATM31","Name":"Bank Muscat ATM","District_ID":"24","Gov_ID":"2","Wlyt_ID":"Salalah","Road_ID":"102658","Latitude":17.10074715,"Longitude":54.167280849999997,"GlobalID":"{CB44BC0F-A733-43DE-8860-8A468AFC051B}"}},{"type":"Feature","id":32,"geometry":{"type":"Point","coordinates":[182805.81769999955,1882885.9383000005]},"properties":{"OBJECTID":32,"Asset_ID":"ATM32","Name":"Dhofar bank ATM","District_ID":"24","Gov_ID":"2","Wlyt_ID":"Salalah","Road_ID":"105791","Latitude":17.008292409999999,"Longitude":54.02105203,"GlobalID":"{FB00E16E-93DC-49A0-A2BF-B061B95CA18C}"}},{"type":"Feature","id":33,"geometry":{"type":"Point","coordinates":[182904.21219999995,1882936.8584000003]},"properties":{"OBJECTID":33,"Asset_ID":"ATM33","Name":"Oman Arab Bank ATM","District_ID":"24","Gov_ID":"2","Wlyt_ID":"Salalah","Road_ID":"105730","Latitude":17.0087656,"Longitude":54.021967930000002,"GlobalID":"{7DEAD453-7DF0-4CA4-B2C1-5212BE40DC2E}"}},{"type":"Feature","id":34,"geometry":{"type":"Point","coordinates":[183152.20849999972,1883059.0858999994]},"properties":{"OBJECTID":34,"Asset_ID":"ATM34","Name":"Bank Sohar ATM","District_ID":"24","Gov_ID":"2","Wlyt_ID":"Salalah","Road_ID":"105730","Latitude":17.00990303,"Longitude":54.024277290000001,"GlobalID":"{4910B2BE-8297-4E28-B36B-CD60FB918F2D}"}}]
}