{
  "type" : "FeatureCollection",
  "crs" : {
    "type" : "name",
    "properties" : {
      "name" : "EPSG:32640"
    }
  },
  "features" : [{"type":"Feature","id":1,"geometry":{"type":"Point","coordinates":[203990.24569999985,1894175.3690000009]},"properties":{"OBJECTID":1,"Asset_ID":"BKE1","Name":"مخبز رزات\r\n","District_ID":" ","Gov_ID":"Dhofar Governorate","Wlyt_ID":"Salalah","Road_ID":"102034","Latitude":17.11303654,"Longitude":54.218320040000002,"GlobalID":"{3FC3C1A5-C3AD-4824-9919-9BE816AC435B}"}},{"type":"Feature","id":2,"geometry":{"type":"Point","coordinates":[187699.91820000019,1890483.6780999992]},"properties":{"OBJECTID":2,"Asset_ID":"BKE2","Name":"Crave","District_ID":" ","Gov_ID":"Dhofar Governorate","Wlyt_ID":"Salalah","Road_ID":"105111","Latitude":17.07754911,"Longitude":54.065900190000001,"GlobalID":"{16AF08A7-3F22-4A5E-A764-0EC69021D668}"}},{"type":"Feature","id":3,"geometry":{"type":"Point","coordinates":[182472.73919999972,1885522.0756999999]},"properties":{"OBJECTID":3,"Asset_ID":"BKE3","Name":"Al jazeera bakery awqad","District_ID":"Auqad al Shamaliyya Extension","Gov_ID":"Dhofar Governorate","Wlyt_ID":"Salalah","Road_ID":"104830","Latitude":17.032043600000002,"Longitude":54.017549799999998,"GlobalID":"{1A0DCD6A-5F65-40E3-84D0-FEE0D5670D79}"}},{"type":"Feature","id":4,"geometry":{"type":"Point","coordinates":[183011.34499999974,1887336.8724000007]},"properties":{"OBJECTID":4,"Asset_ID":"BKE4","Name":"مخبز اتين","District_ID":" ","Gov_ID":"Dhofar Governorate","Wlyt_ID":"Salalah","Road_ID":"104611","Latitude":17.048500350000001,"Longitude":54.022344220000001,"GlobalID":"{A55666D7-4178-4D7B-A21D-C9214B187ECD}"}},{"type":"Feature","id":5,"geometry":{"type":"Point","coordinates":[198602.23539999966,1896503.2009999994]},"properties":{"OBJECTID":5,"Asset_ID":"BKE5","Name":"صنع الخبز و منتجاته","District_ID":" ","Gov_ID":"Dhofar Governorate","Wlyt_ID":"Salalah","Road_ID":"101870","Latitude":17.133351149999999,"Longitude":54.167413779999997,"GlobalID":"{C8FDC67C-B711-4093-8604-FA8D6C99C8B2}"}},{"type":"Feature","id":6,"geometry":{"type":"Point","coordinates":[184257.55810000002,1886322.8546999991]},"properties":{"OBJECTID":6,"Asset_ID":"BKE6","Name":"مخبز شركة ابراج","District_ID":"Auqad al Shamaliyya Extension","Gov_ID":"Dhofar Governorate","Wlyt_ID":"Salalah","Road_ID":"104752","Latitude":17.039517700000001,"Longitude":54.034183689999999,"GlobalID":"{79F89F7A-3EA0-4432-86D4-B0B7FA03A023}"}},{"type":"Feature","id":7,"geometry":{"type":"Point","coordinates":[193439.50119999982,1892487.1764000002]},"properties":{"OBJECTID":7,"Asset_ID":"BKE7","Name":"مخبز","District_ID":" ","Gov_ID":"Dhofar Governorate","Wlyt_ID":"Salalah","Road_ID":"102172","Latitude":17.096409430000001,"Longitude":54.119496210000001,"GlobalID":"{52E205FF-D039-4395-AAC2-C2A687A15FA3}"}},{"type":"Feature","id":8,"geometry":{"type":"Point","coordinates":[201287.65259999968,1893557.9877000004]},"properties":{"OBJECTID":8,"Asset_ID":"BKE8","Name":"مخبز الجزيرة الحديثة","District_ID":" ","Gov_ID":"Dhofar Governorate","Wlyt_ID":"Salalah","Road_ID":"102005","Latitude":17.107112019999999,"Longitude":54.19302879,"GlobalID":"{BE468CA8-54FB-4A78-A4BF-59D6204E6ACC}"}},{"type":"Feature","id":9,"geometry":{"type":"Point","coordinates":[196790.78309999965,1892772.3752999995]},"properties":{"OBJECTID":9,"Asset_ID":"BKE9","Name":"صنع الخبز و منتجاته","District_ID":" ","Gov_ID":"Dhofar Governorate","Wlyt_ID":"Salalah","Road_ID":"101857","Latitude":17.09942938,"Longitude":54.150917849999999,"GlobalID":"{78252DEF-F025-4F20-9016-DC0C8EF03379}"}},{"type":"Feature","id":10,"geometry":{"type":"Point","coordinates":[186784.58249999955,1887321.7545999996]},"properties":{"OBJECTID":10,"Asset_ID":"BKE10","Name":"مخبز","District_ID":" ","Gov_ID":"Dhofar Governorate","Wlyt_ID":"Salalah","Road_ID":"105040","Latitude":17.048880260000001,"Longitude":54.057756320000003,"GlobalID":"{41481035-BF98-4BB9-A113-BFB6132665AF}"}},{"type":"Feature","id":11,"geometry":{"type":"Point","coordinates":[201177.79559999984,1893484.2537999991]},"properties":{"OBJECTID":11,"Asset_ID":"BKE11","Name":"مخبز الأحقاف الألي","District_ID":" ","Gov_ID":"Dhofar Governorate","Wlyt_ID":"Salalah","Road_ID":"102005","Latitude":17.106432009999999,"Longitude":54.192007359999998,"GlobalID":"{EAF59B77-5731-480B-8F8E-C5DF5D9AF513}"}},{"type":"Feature","id":12,"geometry":{"type":"Point","coordinates":[197719.65780000016,1883985.5866999999]},"properties":{"OBJECTID":12,"Asset_ID":"BKE12","Name":"مخبز وحلويات شعاع الشمس\r\n","District_ID":"Dahariz al Shamaliyya","Gov_ID":"Dhofar Governorate","Wlyt_ID":"Salalah","Road_ID":"100002","Latitude":17.020221859999999,"Longitude":54.160838320000003,"GlobalID":"{7058A94E-AEF8-4885-93C3-7370C2736387}"}},{"type":"Feature","id":13,"geometry":{"type":"Point","coordinates":[197792.50690000039,1884026.9615000002]},"properties":{"OBJECTID":13,"Asset_ID":"BKE13","Name":"حلويات طالب","District_ID":"Dahariz al Shamaliyya","Gov_ID":"Dhofar Governorate","Wlyt_ID":"Salalah","Road_ID":"100002","Latitude":17.020604949999999,"Longitude":54.161516310000003,"GlobalID":"{3D4AAA85-6BFB-4CD1-A0B5-F1988EB117CB}"}},{"type":"Feature","id":14,"geometry":{"type":"Point","coordinates":[197889.58990000002,1884022.2329999991]},"properties":{"OBJECTID":14,"Asset_ID":"BKE14","Name":"مخبز عمان الحديث\r\n","District_ID":"Dahariz al Shamaliyya","Gov_ID":"Dhofar Governorate","Wlyt_ID":"Salalah","Road_ID":"100002","Latitude":17.020574979999999,"Longitude":54.162427989999998,"GlobalID":"{45144E68-41E6-416A-9A3D-EF3EB8FC9B7B}"}},{"type":"Feature","id":15,"geometry":{"type":"Point","coordinates":[197946.18460000027,1884100.2539000008]},"properties":{"OBJECTID":15,"Asset_ID":"BKE15","Name":"بيع منتجات المخابز و الحلويات السكرية","District_ID":"Dahariz al Shamaliyya","Gov_ID":"Dhofar Governorate","Wlyt_ID":"Salalah","Road_ID":"100058","Latitude":17.021286799999999,"Longitude":54.162948460000003,"GlobalID":"{B970B236-9E1C-46A8-882B-52B34D084C59}"}},{"type":"Feature","id":16,"geometry":{"type":"Point","coordinates":[198110.05829999968,1884179.7525999993]},"properties":{"OBJECTID":16,"Asset_ID":"BKE16","Name":"مخبز الريف","District_ID":"Dahariz al Shamaliyya","Gov_ID":"Dhofar Governorate","Wlyt_ID":"Salalah","Road_ID":"100002","Latitude":17.022026,"Longitude":54.164475469999999,"GlobalID":"{96D68997-7663-4BEF-8531-6099C0575D77}"}},{"type":"Feature","id":17,"geometry":{"type":"Point","coordinates":[198096.16820000019,1884176.2061999999]},"properties":{"OBJECTID":17,"Asset_ID":"BKE17","Name":"مخبز الشروق","District_ID":"Dahariz al Shamaliyya","Gov_ID":"Dhofar Governorate","Wlyt_ID":"Salalah","Road_ID":"100002","Latitude":17.02199216,"Longitude":54.164345599999997,"GlobalID":"{89EA06E2-8F75-4178-82B9-C45FEEE67820}"}},{"type":"Feature","id":18,"geometry":{"type":"Point","coordinates":[189906.79420000035,1883836.9146999996]},"properties":{"OBJECTID":18,"Asset_ID":"BKE18","Name":"مخبز","District_ID":"Salalah al Jadida","Gov_ID":"Dhofar Governorate","Wlyt_ID":"Salalah","Road_ID":"104187","Latitude":17.01784254,"Longitude":54.087545050000003,"GlobalID":"{8B2F7499-0C12-469B-8CCC-92895718F3DB}"}},{"type":"Feature","id":19,"geometry":{"type":"Point","coordinates":[189640.06599999964,1883793.0889999997]},"properties":{"OBJECTID":19,"Asset_ID":"BKE19","Name":"Kul Waashkur","District_ID":"Salalah al Jadida","Gov_ID":"Dhofar Governorate","Wlyt_ID":"Salalah","Road_ID":"104187","Latitude":17.01744566,"Longitude":54.085042860000001,"GlobalID":"{8328497D-3509-4B07-A8ED-8F37232671E5}"}},{"type":"Feature","id":20,"geometry":{"type":"Point","coordinates":[189532.06280000042,1883822.2026000004]},"properties":{"OBJECTID":20,"Asset_ID":"BKE20","Name":" مخبز عمان الحديث","District_ID":"Salalah al Jadida","Gov_ID":"Dhofar Governorate","Wlyt_ID":"Salalah","Road_ID":"104187","Latitude":17.017659309999999,"Longitude":54.08403088,"GlobalID":"{CD347F65-5435-40F7-8F8E-CBAFB2014D47}"}},{"type":"Feature","id":21,"geometry":{"type":"Point","coordinates":[189442.87619999982,1883814.8881000001]},"properties":{"OBJECTID":21,"Asset_ID":"BKE21","Name":"مخبز","District_ID":"Salalah al Jadida","Gov_ID":"Dhofar Governorate","Wlyt_ID":"Salalah","Road_ID":"104187","Latitude":17.017581280000002,"Longitude":54.083195029999999,"GlobalID":"{3715CD82-EEEF-4E5B-B0A8-3C15DF2E80C6}"}},{"type":"Feature","id":22,"geometry":{"type":"Point","coordinates":[188984.30379999988,1883701.1970000006]},"properties":{"OBJECTID":22,"Asset_ID":"BKE23","Name":"مخبز الأحقاف الالي\r\n","District_ID":"Salalah al Jadida","Gov_ID":"Dhofar Governorate","Wlyt_ID":"Salalah","Road_ID":"104187","Latitude":17.016493130000001,"Longitude":54.078908040000002,"GlobalID":"{8F671D82-8836-4489-B0F3-1BCC162E7096}"}},{"type":"Feature","id":23,"geometry":{"type":"Point","coordinates":[189570.81190000009,1884139.5196000002]},"properties":{"OBJECTID":23,"Asset_ID":"BKE24","Name":"مخبز الشياح","District_ID":"Salalah al Jadida","Gov_ID":"Dhofar Governorate","Wlyt_ID":"Salalah","Road_ID":"104189","Latitude":17.020529190000001,"Longitude":54.08435008,"GlobalID":"{F42A451F-338C-4E9F-86D0-7235AD331EB3}"}},{"type":"Feature","id":24,"geometry":{"type":"Point","coordinates":[189165.37200000044,1883792.0238000005]},"properties":{"OBJECTID":24,"Asset_ID":"BKE25","Name":"National Bakery\r\n","District_ID":"Salalah al Jadida","Gov_ID":"Dhofar Governorate","Wlyt_ID":"Salalah","Road_ID":"104210","Latitude":17.017337489999999,"Longitude":54.080594329999997,"GlobalID":"{36B2FCE1-5285-4071-8B33-3D6EA52DDE76}"}},{"type":"Feature","id":25,"geometry":{"type":"Point","coordinates":[189240.89719999954,1883419.9900000002]},"properties":{"OBJECTID":25,"Asset_ID":"BKE26","Name":"حلويات بلاد الشام","District_ID":"Salalah al Jadida","Gov_ID":"Dhofar Governorate","Wlyt_ID":"Salalah","Road_ID":"104210","Latitude":17.013989039999998,"Longitude":54.081355090000002,"GlobalID":"{FF3682CE-E57D-4C6A-B920-809BC43416F5}"}},{"type":"Feature","id":26,"geometry":{"type":"Point","coordinates":[189873.35919999983,1883416.2994999997]},"properties":{"OBJECTID":26,"Asset_ID":"BKE27","Name":"مخبز التساعد","District_ID":"Salalah al Jadida","Gov_ID":"Dhofar Governorate","Wlyt_ID":"Salalah","Road_ID":"104201","Latitude":17.014040810000001,"Longitude":54.087290090000003,"GlobalID":"{8BB438C9-1F60-4A8B-9587-9935AA82C639}"}},{"type":"Feature","id":27,"geometry":{"type":"Point","coordinates":[189693.67210000008,1883486.7761000004]},"properties":{"OBJECTID":27,"Asset_ID":"BKE29","Name":"حلويات أفندينا","District_ID":"Salalah al Jadida","Gov_ID":"Dhofar Governorate","Wlyt_ID":"Salalah","Road_ID":"104189","Latitude":17.014652900000002,"Longitude":54.085594200000003,"GlobalID":"{B0E56416-EA56-40D3-A4D8-D44D99678F21}"}},{"type":"Feature","id":28,"geometry":{"type":"Point","coordinates":[189741.59020000044,1883473.0006000008]},"properties":{"OBJECTID":28,"Asset_ID":"BKE28","Name":"مخبز","District_ID":"Salalah al Jadida","Gov_ID":"Dhofar Governorate","Wlyt_ID":"Salalah","Road_ID":"104190","Latitude":17.014550270000001,"Longitude":54.08604313,"GlobalID":"{94741C07-8673-41FE-94A2-4BCBF0C12035}"}},{"type":"Feature","id":29,"geometry":{"type":"Point","coordinates":[189772.83949999977,1883481.1029000003]},"properties":{"OBJECTID":29,"Asset_ID":"BKE29","Name":"مخبز ابو مازن","District_ID":"Salalah al Jadida","Gov_ID":"Dhofar Governorate","Wlyt_ID":"Salalah","Road_ID":"104190","Latitude":17.01463064,"Longitude":54.086331979999997,"GlobalID":"{3AC2A1DE-1EEF-4D25-B519-512CCD08A980}"}},{"type":"Feature","id":30,"geometry":{"type":"Point","coordinates":[188341.36400000006,1883006.3702000007]},"properties":{"OBJECTID":30,"Asset_ID":"BKE32","Name":"مخبز","District_ID":"al Wadi","Gov_ID":"Dhofar Governorate","Wlyt_ID":"Salalah","Road_ID":"100583","Latitude":17.01013369,"Longitude":54.072972749999998,"GlobalID":"{92882BC9-6D70-4925-8048-EE6658A4C0F6}"}},{"type":"Feature","id":31,"geometry":{"type":"Point","coordinates":[188678.06240000017,1884164.1954999994]},"properties":{"OBJECTID":31,"Asset_ID":"BKE33","Name":"خان الحلويات اللبنانية","District_ID":"Salalah al Jadida","Gov_ID":"Dhofar Governorate","Wlyt_ID":"Salalah","Road_ID":"104188","Latitude":17.02063163,"Longitude":54.075969569999998,"GlobalID":"{02885A4D-69E2-4799-8FAA-09AE26F5D95F}"}},{"type":"Feature","id":32,"geometry":{"type":"Point","coordinates":[186829.31520000007,1882579.7405999992]},"properties":{"OBJECTID":32,"Asset_ID":"BKE35","Name":"حلويات طالب","District_ID":"al Wadi","Gov_ID":"Dhofar Governorate","Wlyt_ID":"Salalah","Road_ID":"105338","Latitude":17.00607759,"Longitude":54.058845669999997,"GlobalID":"{0115B310-6F14-47B1-9E91-34BFB60A1D1E}"}},{"type":"Feature","id":33,"geometry":{"type":"Point","coordinates":[187741.68070000038,1884233.4750999995]},"properties":{"OBJECTID":33,"Asset_ID":"BKE36","Name":"Teeba Konafa","District_ID":"al Wadi","Gov_ID":"Dhofar Governorate","Wlyt_ID":"Salalah","Road_ID":"104340","Latitude":17.02113048,"Longitude":54.067173410000002,"GlobalID":"{F4420EE3-FF94-4932-A941-F1B0C6692063}"}},{"type":"Feature","id":34,"geometry":{"type":"Point","coordinates":[189794.28330000024,1883579.2458999995]},"properties":{"OBJECTID":34,"Asset_ID":"BKE37","Name":"مخبز الشياح","District_ID":"Salalah al Jadida","Gov_ID":"Dhofar Governorate","Wlyt_ID":"Salalah","Road_ID":"104205","Latitude":17.015501230000002,"Longitude":54.086525330000001,"GlobalID":"{1C5A8342-C79C-42DB-940A-4420C4A82A2F}"}},{"type":"Feature","id":35,"geometry":{"type":"Point","coordinates":[187610.50339999981,1883755.4840999991]},"properties":{"OBJECTID":35,"Asset_ID":"BKE38","Name":"مخبز","District_ID":"al Wadi","Gov_ID":"Dhofar Governorate","Wlyt_ID":"Salalah","Road_ID":"104343","Latitude":17.0167976,"Longitude":54.066009809999997,"GlobalID":"{7396D966-8ED7-450C-A973-0663349190F4}"}},{"type":"Feature","id":36,"geometry":{"type":"Point","coordinates":[198927.01819999982,1884813.4485999998]},"properties":{"OBJECTID":36,"Asset_ID":"BKE39","Name":"Olea","District_ID":"Dahariz al Shamaliyya","Gov_ID":"Dhofar Governorate","Wlyt_ID":"Salalah","Road_ID":"100124","Latitude":17.027854099999999,"Longitude":54.172056009999999,"GlobalID":"{A3A43346-E0DA-4969-AA0B-F47050000DA1}"}},{"type":"Feature","id":37,"geometry":{"type":"Point","coordinates":[197726.5987999998,1885704.4934999999]},"properties":{"OBJECTID":37,"Asset_ID":"BKE40","Name":"مخبز","District_ID":"Dahariz al Shamaliyya","Gov_ID":"Dhofar Governorate","Wlyt_ID":"Salalah","Road_ID":"100124","Latitude":17.035741689999998,"Longitude":54.160669179999999,"GlobalID":"{1BBF8865-8726-44EC-88E4-D3F86073EF5F}"}},{"type":"Feature","id":38,"geometry":{"type":"Point","coordinates":[197379.44730000012,1884579.7902000006]},"properties":{"OBJECTID":38,"Asset_ID":"BKE41","Name":"Halazone Sweets And Pastries","District_ID":"Dahariz al Shamaliyya","Gov_ID":"Dhofar Governorate","Wlyt_ID":"Salalah","Road_ID":"100081","Latitude":17.025541919999998,"Longitude":54.157564710000003,"GlobalID":"{685AC99A-1589-4B4C-AB83-A76847159766}"}},{"type":"Feature","id":39,"geometry":{"type":"Point","coordinates":[197419.20480000041,1884564.3795999996]},"properties":{"OBJECTID":39,"Asset_ID":"BKE39","Name":"Halazone Sweets And Pastries","District_ID":"Dahariz al Shamaliyya","Gov_ID":"2","Wlyt_ID":"Salalah","Road_ID":"100098","Latitude":17.025423310000001,"Longitude":54.157938090000002,"GlobalID":"{4DDF8B36-DE80-4FBE-8B2D-2C6E4C0FEF3C}"}},{"type":"Feature","id":40,"geometry":{"type":"Point","coordinates":[188227.97180000041,1882467.9456999991]},"properties":{"OBJECTID":40,"Asset_ID":"BKE40","Name":"مخبز وحلويات أمجاد الشام","District_ID":"Salalah al Gharbiyya","Gov_ID":"2","Wlyt_ID":"Salalah","Road_ID":"103741","Latitude":17.005257650000001,"Longitude":54.071984389999997,"GlobalID":"{12560448-C1B1-4F8E-9181-9B3188171177}"}},{"type":"Feature","id":41,"geometry":{"type":"Point","coordinates":[189980.59489999991,1883387.3999000005]},"properties":{"OBJECTID":41,"Asset_ID":"BKE41","Name":"فطاير الامارات","District_ID":"Salalah al Gharbiyya","Gov_ID":"2","Wlyt_ID":"Salalah","Road_ID":"103812","Latitude":17.013802770000002,"Longitude":54.088298250000001,"GlobalID":"{AECCB79D-D3C9-42D2-B7AD-2F567A7ABC89}"}},{"type":"Feature","id":42,"geometry":{"type":"Point","coordinates":[193430.65720000025,1884151.8900000006]},"properties":{"OBJECTID":42,"Asset_ID":"BKE42","Name":"مخبز النجم الجديد","District_ID":"al Huseela","Gov_ID":"2","Wlyt_ID":"Salalah","Road_ID":"103824","Latitude":17.021177210000001,"Longitude":54.120563369999999,"GlobalID":"{AA11186B-8792-4FCF-8435-B2A316F337B9}"}},{"type":"Feature","id":43,"geometry":{"type":"Point","coordinates":[193531.33509999979,1883746.4625000004]},"properties":{"OBJECTID":43,"Asset_ID":"BKE43","Name":"مخبز مروج الريف","District_ID":"al Huseela","Gov_ID":"2","Wlyt_ID":"Salalah","Road_ID":"103824","Latitude":17.017527179999998,"Longitude":54.121562679999997,"GlobalID":"{89DDC272-7E8D-40E0-98AB-139868EB448A}"}},{"type":"Feature","id":44,"geometry":{"type":"Point","coordinates":[196144.31460000016,1892043.8333000001]},"properties":{"OBJECTID":44,"Asset_ID":"BKE44","Name":"فطائر الجزيرة","District_ID":"Salalah Wellfield","Gov_ID":"2","Wlyt_ID":"Salalah","Road_ID":"100530","Latitude":17.092766480000002,"Longitude":54.14494912,"GlobalID":"{026C4F05-FFC1-469B-8159-A089C7A0CF4F}"}},{"type":"Feature","id":45,"geometry":{"type":"Point","coordinates":[197644.73929999955,1890366.6495999992]},"properties":{"OBJECTID":45,"Asset_ID":"BKE45","Name":"مخابز الجزيرة","District_ID":"al Sada al Shamaliyya","Gov_ID":"2","Wlyt_ID":"Salalah","Road_ID":"102472","Latitude":17.077822430000001,"Longitude":54.159264110000002,"GlobalID":"{593D3C39-0497-44B0-86D0-8EA17722F4CF}"}},{"type":"Feature","id":46,"geometry":{"type":"Point","coordinates":[197644.91550000012,1890295.4525000006]},"properties":{"OBJECTID":46,"Asset_ID":"BKE46","Name":"ركن الخباز الحديث","District_ID":"al Sada al Shamaliyya","Gov_ID":"2","Wlyt_ID":"Salalah","Road_ID":"102603","Latitude":17.07717967,"Longitude":54.1592755,"GlobalID":"{28CCD043-92D7-4CF8-8E3B-E74D1736EEF9}"}},{"type":"Feature","id":47,"geometry":{"type":"Point","coordinates":[197809.53320000041,1891208.4214999992]},"properties":{"OBJECTID":47,"Asset_ID":"BKE47","Name":"المخبز التركي","District_ID":"al Sada al Shamaliyya","Gov_ID":"2","Wlyt_ID":"Salalah","Road_ID":"102559","Latitude":17.085443890000001,"Longitude":54.160695910000001,"GlobalID":"{F3711FE0-57E4-49A2-951F-89E96F27B940}"}},{"type":"Feature","id":48,"geometry":{"type":"Point","coordinates":[197822.0242999997,1891213.2960999999]},"properties":{"OBJECTID":48,"Asset_ID":"BKE48","Name":"فطاير خط الشام","District_ID":"al Sada al Shamaliyya","Gov_ID":"2","Wlyt_ID":"Salalah","Road_ID":"102559","Latitude":17.085489540000001,"Longitude":54.160812499999999,"GlobalID":"{81D28271-6BA4-41F7-B3B4-2F43F6024F09}"}},{"type":"Feature","id":49,"geometry":{"type":"Point","coordinates":[183974.2452999996,1882102.4454999994]},"properties":{"OBJECTID":49,"Asset_ID":"BKE49","Name":"PURPLE SWEET - حلويات ارجوان","District_ID":"Auqad al Shamaliyya","Gov_ID":"2","Wlyt_ID":"Salalah","Road_ID":"105566","Latitude":17.00137981,"Longitude":54.032126120000001,"GlobalID":"{DD28FC85-6A35-4C67-BFC3-EE0BD19CF579}"}},{"type":"Feature","id":50,"geometry":{"type":"Point","coordinates":[183030.3339999998,1882994.6975999996]},"properties":{"OBJECTID":50,"Asset_ID":"BKE50","Name":"مخبز كارونا","District_ID":"Auqad al Shamaliyya","Gov_ID":"2","Wlyt_ID":"Salalah","Road_ID":"105730","Latitude":17.009305049999998,"Longitude":54.023142999999997,"GlobalID":"{54A27AFB-C8CE-4758-A859-C6F820C78EAD}"}},{"type":"Feature","id":51,"geometry":{"type":"Point","coordinates":[182619.93159999978,1883075.2479999997]},"properties":{"OBJECTID":51,"Asset_ID":"BKE51","Name":"فطاير الجزيرة","District_ID":"Auqad al Shamaliyya","Gov_ID":"2","Wlyt_ID":"Salalah","Road_ID":"103824","Latitude":17.009975799999999,"Longitude":54.019280940000002,"GlobalID":"{65651916-CC08-4242-9BDA-353967CDF478}"}},{"type":"Feature","id":52,"geometry":{"type":"Point","coordinates":[182463.32419999968,1883253.1513999999]},"properties":{"OBJECTID":52,"Asset_ID":"BKE52","Name":"فطاير الخليج","District_ID":"Auqad al Shamaliyya","Gov_ID":"2","Wlyt_ID":"Salalah","Road_ID":"105777","Latitude":17.011560240000001,"Longitude":54.017786139999998,"GlobalID":"{A65F5AEE-3A2D-44E6-B601-FA538F8E3C8F}"}},{"type":"Feature","id":53,"geometry":{"type":"Point","coordinates":[182433.41050000023,1883282.4286000002]},"properties":{"OBJECTID":53,"Asset_ID":"BKE53","Name":"حلويات طالب","District_ID":"Auqad al Shamaliyya","Gov_ID":"2","Wlyt_ID":"Salalah","Road_ID":"105818","Latitude":17.011820409999999,"Longitude":54.017501289999998,"GlobalID":"{2DD68C2A-B766-47E1-B920-E05D62CF609A}"}},{"type":"Feature","id":54,"geometry":{"type":"Point","coordinates":[182444.98139999993,1883314.3533999994]},"properties":{"OBJECTID":54,"Asset_ID":"BKE54","Name":"تجارة حلويات و منتجات المخابز","District_ID":"Auqad al Shamaliyya","Gov_ID":"2","Wlyt_ID":"Salalah","Road_ID":"105818","Latitude":17.012110199999999,"Longitude":54.017605289999999,"GlobalID":"{640822D6-8AAE-4A29-BA3D-53663F772B4C}"}},{"type":"Feature","id":55,"geometry":{"type":"Point","coordinates":[182450.27670000028,1883324.5368000008]},"properties":{"OBJECTID":55,"Asset_ID":"BKE55","Name":"حلويات فاروق","District_ID":"Auqad al Shamaliyya","Gov_ID":"2","Wlyt_ID":"Salalah","Road_ID":"105818","Latitude":17.012202850000001,"Longitude":54.017653520000003,"GlobalID":"{D8D8BBD1-F49D-4B10-B795-C99BBFD0288B}"}},{"type":"Feature","id":56,"geometry":{"type":"Point","coordinates":[182467.99579999968,1883331.6651000008]},"properties":{"OBJECTID":56,"Asset_ID":"BKE56","Name":"مخبز الريف","District_ID":"Auqad al Shamaliyya","Gov_ID":"2","Wlyt_ID":"Salalah","Road_ID":"105818","Latitude":17.01226964,"Longitude":54.017818750000004,"GlobalID":"{D5557DB2-44AC-4FEF-88AA-3BC7E6E21396}"}},{"type":"Feature","id":57,"geometry":{"type":"Point","coordinates":[181284.14699999988,1882778.5721000005]},"properties":{"OBJECTID":57,"Asset_ID":"BKE57","Name":"مخابز أتين العامرة","District_ID":"Auqad al Shamaliyya","Gov_ID":"2","Wlyt_ID":"Salalah","Road_ID":"105819","Latitude":17.0071136,"Longitude":54.006790729999999,"GlobalID":"{1C640EAB-A63D-42F9-AC05-A58906D8B063}"}}]
}