{
  "type" : "FeatureCollection",
  "crs" : {
    "type" : "name",
    "properties" : {
      "name" : "EPSG:32640"
    }
  },
  "features" : [{"type":"Feature","id":10,"geometry":{"type":"Point","coordinates":[200613.34489999991,1894185.7392999995]},"properties":{"OBJECTID":10,"Asset_ID":"BRB10","Name":"قص وتصفيف الشعر والحلاقة للرجال","District_ID":null,"Gov_ID":"2","Wlyt_ID":"Salalah","Road_ID":"101869","Latitude":17.112691770000001,"Longitude":54.18661273,"GlobalID":"{6640E593-B85A-412B-A80F-6A05AC4AB09A}"}},{"type":"Feature","id":11,"geometry":{"type":"Point","coordinates":[203846.01219999976,1893806.0103999991]},"properties":{"OBJECTID":11,"Asset_ID":"BRB11","Name":"قص وتصفيف الشعر والحلاقة للرجال","District_ID":null,"Gov_ID":"2","Wlyt_ID":"Salalah","Road_ID":"103672","Latitude":17.10968308,"Longitude":54.217015410000002,"GlobalID":"{39611B24-0BE8-4918-A156-5D5AE08FA176}"}},{"type":"Feature","id":12,"geometry":{"type":"Point","coordinates":[198602.6501000002,1896510.7423999999]},"properties":{"OBJECTID":12,"Asset_ID":"BRB12","Name":"قص وتصفيف الشعر والحلاقة","District_ID":null,"Gov_ID":"2","Wlyt_ID":"Salalah","Road_ID":"101870","Latitude":17.133419289999999,"Longitude":54.167416639999999,"GlobalID":"{67129D64-4699-49DC-A859-F5FBA4FBB38C}"}},{"type":"Feature","id":13,"geometry":{"type":"Point","coordinates":[198700.62189999968,1896503.3202999998]},"properties":{"OBJECTID":13,"Asset_ID":"BRB13","Name":"قص وتصفيف الشعر والحلاقة","District_ID":null,"Gov_ID":"2","Wlyt_ID":"Salalah","Road_ID":"101892","Latitude":17.133365170000001,"Longitude":54.168337600000001,"GlobalID":"{20317D4F-8ACE-4A28-8FDB-988A244C87B8}"}},{"type":"Feature","id":14,"geometry":{"type":"Point","coordinates":[196787.57490000036,1892776.2938000001]},"properties":{"OBJECTID":14,"Asset_ID":"BRB14","Name":"قص وتصفيف الشعر والحلاقة للرجال","District_ID":null,"Gov_ID":"2","Wlyt_ID":"Salalah","Road_ID":"101857","Latitude":17.099464340000001,"Longitude":54.150887189999999,"GlobalID":"{F3AC8A22-9DF3-45EE-A682-61C98D6C3C34}"}},{"type":"Feature","id":15,"geometry":{"type":"Point","coordinates":[196017.16069999989,1892480.3992999997]},"properties":{"OBJECTID":15,"Asset_ID":"BRB15","Name":"قص وتصفيف الشعر والحلاقة للرجال","District_ID":null,"Gov_ID":"2","Wlyt_ID":"Salalah","Road_ID":"102220","Latitude":17.09669104,"Longitude":54.143695340000001,"GlobalID":"{565971BA-D701-4A92-AC96-392B64AB6565}"}},{"type":"Feature","id":16,"geometry":{"type":"Point","coordinates":[188383.79310000036,1890972.4046999998]},"properties":{"OBJECTID":16,"Asset_ID":"BRB16","Name":"قص وتصفيف الشعر والحلاقة للرجال والاطفال","District_ID":null,"Gov_ID":"2","Wlyt_ID":"Salalah","Road_ID":"102206","Latitude":17.08205397,"Longitude":54.072250259999997,"GlobalID":"{DB251DFE-B497-4484-8209-AE761990198E}"}},{"type":"Feature","id":17,"geometry":{"type":"Point","coordinates":[187195.4879999999,1890490.6571999993]},"properties":{"OBJECTID":17,"Asset_ID":"BRB17","Name":"قص وتصفيف الشعر والحلاقة للرجال","District_ID":null,"Gov_ID":"2","Wlyt_ID":"Salalah","Road_ID":"104611","Latitude":17.077543510000002,"Longitude":54.061164550000001,"GlobalID":"{F7236BE4-E302-49D4-B717-0C7758440160}"}},{"type":"Feature","id":18,"geometry":{"type":"Point","coordinates":[185934.38659999985,1889319.1380000003]},"properties":{"OBJECTID":18,"Asset_ID":"BRB18","Name":"قص وتصفيف الشعر والحلاقة للرجال","District_ID":null,"Gov_ID":"2","Wlyt_ID":"Salalah","Road_ID":"104611","Latitude":17.066795719999998,"Longitude":54.049494150000001,"GlobalID":"{60C1B9CE-8339-41F2-BB13-1E61496F2C56}"}},{"type":"Feature","id":19,"geometry":{"type":"Point","coordinates":[182972.26680000033,1887251.5051000006]},"properties":{"OBJECTID":19,"Asset_ID":"BRB19","Name":"قص وتصفيف الشعر والحلاقة للرجال","District_ID":null,"Gov_ID":"2","Wlyt_ID":"Salalah","Road_ID":"104611","Latitude":17.047724339999998,"Longitude":54.021989720000001,"GlobalID":"{35CBA15B-F850-4394-BAD8-C7E1B37500B8}"}},{"type":"Feature","id":20,"geometry":{"type":"Point","coordinates":[197857.41079999972,1884062.3681000005]},"properties":{"OBJECTID":20,"Asset_ID":"BRB20","Name":"قص وتصفيف الشعر والحلاقة للرجال","District_ID":"Dahariz al Shamaliyya","Gov_ID":"2","Wlyt_ID":"Salalah","Road_ID":"100002","Latitude":17.020933119999999,"Longitude":54.162120559999998,"GlobalID":"{E456E82B-A699-46D9-952F-B1ECD0B1A6EC}"}},{"type":"Feature","id":21,"geometry":{"type":"Point","coordinates":[197464.14900000021,1883013.5539999995]},"properties":{"OBJECTID":21,"Asset_ID":"BRB21","Name":"قص وتصفيف الشعر والحلاقة للرجال","District_ID":"Dahariz al Janubiyya","Gov_ID":"2","Wlyt_ID":"Salalah","Road_ID":"100013","Latitude":17.01144738,"Longitude":54.158569270000001,"GlobalID":"{3BD87E1E-0320-49A8-A245-9D379EBEAAEC}"}},{"type":"Feature","id":22,"geometry":{"type":"Point","coordinates":[197719.4796000002,1883874.1219999995]},"properties":{"OBJECTID":22,"Asset_ID":"BRB22","Name":"قص وتصفيف الشعر والحلاقة للرجال","District_ID":"Dahariz al Janubiyya","Gov_ID":"2","Wlyt_ID":"Salalah","Road_ID":"100002","Latitude":17.01923369,"Longitude":54.160845219999999,"GlobalID":"{8EAEB397-9E6C-4EA8-BB29-CFBA66091974}"}},{"type":"Feature","id":23,"geometry":{"type":"Point","coordinates":[197753.71410000045,1883994.8206999991]},"properties":{"OBJECTID":23,"Asset_ID":"BRB23","Name":"قص وتصفيف الشعر والحلاقة للرجال","District_ID":"Dahariz al Shamaliyya","Gov_ID":"2","Wlyt_ID":"Salalah","Road_ID":"100002","Latitude":17.020309690000001,"Longitude":54.161156650000002,"GlobalID":"{0D582142-114A-4416-95F3-BF2C8D77F348}"}},{"type":"Feature","id":24,"geometry":{"type":"Point","coordinates":[197735.63949999958,1883992.3419000003]},"properties":{"OBJECTID":24,"Asset_ID":"BRB24","Name":"قص وتصفيف الشعر والحلاقة للرجال","District_ID":"Dahariz al Shamaliyya","Gov_ID":"2","Wlyt_ID":"Salalah","Road_ID":"100002","Latitude":17.02028494,"Longitude":54.160987380000002,"GlobalID":"{BAFC8845-BDD2-43D3-9AF5-02C27235FF6C}"}},{"type":"Feature","id":25,"geometry":{"type":"Point","coordinates":[198082.44440000039,1884107.8935000002]},"properties":{"OBJECTID":25,"Asset_ID":"BRB25","Name":"قص وتصفيف الشعر والحلاقة للرجال","District_ID":"Dahariz al Shamaliyya","Gov_ID":"2","Wlyt_ID":"Salalah","Road_ID":"100002","Latitude":17.021389849999998,"Longitude":54.164224509999997,"GlobalID":"{CB148097-68F2-4204-A37E-7509E727927C}"}},{"type":"Feature","id":26,"geometry":{"type":"Point","coordinates":[198047.29409999959,1884167.5606999993]},"properties":{"OBJECTID":26,"Asset_ID":"BRB26","Name":"قص وتصفيف الشعر والحلاقة للرجال","District_ID":"Dahariz al Shamaliyya","Gov_ID":"2","Wlyt_ID":"Salalah","Road_ID":"100060","Latitude":17.021907710000001,"Longitude":54.163888129999997,"GlobalID":"{4E80CEF9-9433-4342-B359-568CFDC0A5AB}"}},{"type":"Feature","id":27,"geometry":{"type":"Point","coordinates":[198127.44209999964,1884199.2343000006]},"properties":{"OBJECTID":27,"Asset_ID":"BRB27","Name":"قص وتصفيف الشعر والحلاقة للرجال","District_ID":"Dahariz al Shamaliyya","Gov_ID":"2","Wlyt_ID":"Salalah","Road_ID":"100002","Latitude":17.022204160000001,"Longitude":54.164635949999997,"GlobalID":"{91E8E25F-C594-4D4E-AB4B-F3B78F113093}"}},{"type":"Feature","id":28,"geometry":{"type":"Point","coordinates":[198149.20050000027,1884207.7723999992]},"properties":{"OBJECTID":28,"Asset_ID":"BRB28","Name":"قص وتصفيف الشعر والحلاقة للرجال","District_ID":"Dahariz al Shamaliyya","Gov_ID":"2","Wlyt_ID":"Salalah","Road_ID":"100002","Latitude":17.0222841,"Longitude":54.164838969999998,"GlobalID":"{3DC7C4CB-25EC-4682-8FDC-964A64F9B5E2}"}},{"type":"Feature","id":29,"geometry":{"type":"Point","coordinates":[198216.6791000003,1884236.9671999998]},"properties":{"OBJECTID":29,"Asset_ID":"BRB29","Name":"قص وتصفيف الشعر والحلاقة للرجال","District_ID":"Dahariz al Shamaliyya","Gov_ID":"2","Wlyt_ID":"Salalah","Road_ID":"100002","Latitude":17.022556510000001,"Longitude":54.165468240000003,"GlobalID":"{F551F744-D9EB-461A-BDDB-DB3A2D1A2BFA}"}},{"type":"Feature","id":30,"geometry":{"type":"Point","coordinates":[198246.1492999997,1884250.8760000002]},"properties":{"OBJECTID":30,"Asset_ID":"BRB30","Name":"قص وتصفيف الشعر والحلاقة للرجال","District_ID":"Dahariz al Shamaliyya","Gov_ID":"2","Wlyt_ID":"Salalah","Road_ID":"100002","Latitude":17.022685939999999,"Longitude":54.165742899999998,"GlobalID":"{84CDD0B9-C270-44E9-8156-B543E406FC98}"}},{"type":"Feature","id":31,"geometry":{"type":"Point","coordinates":[198302.61099999957,1884276.9035]},"properties":{"OBJECTID":31,"Asset_ID":"BRB31","Name":"حلاقة","District_ID":"Dahariz al Shamaliyya","Gov_ID":"2","Wlyt_ID":"Salalah","Road_ID":"100010","Latitude":17.022928319999998,"Longitude":54.166269210000003,"GlobalID":"{BB48A2E8-E638-494A-BD01-1C5AAA9EA5F2}"}},{"type":"Feature","id":32,"geometry":{"type":"Point","coordinates":[189769.74870000035,1883321.7415999994]},"properties":{"OBJECTID":32,"Asset_ID":"BRB32","Name":"قص وتصفيف الشعر والحلاقة للرجال","District_ID":"Salalah al Gharbiyya","Gov_ID":"2","Wlyt_ID":"Salalah","Road_ID":"103812","Latitude":17.01319788,"Longitude":54.086325989999999,"GlobalID":"{F45BFDBB-7B97-4C59-AAB8-53F2133D1C95}"}},{"type":"Feature","id":33,"geometry":{"type":"Point","coordinates":[189978.78089999966,1883422.3399]},"properties":{"OBJECTID":33,"Asset_ID":"BRB33","Name":"حلاقة","District_ID":"Salalah al Jadida","Gov_ID":"2","Wlyt_ID":"Salalah","Road_ID":"103812","Latitude":17.014109510000001,"Longitude":54.088278430000003,"GlobalID":"{F0039FC7-6F13-4F58-808A-F5F6706F12EF}"}},{"type":"Feature","id":34,"geometry":{"type":"Point","coordinates":[189615.48110000044,1883316.6033999994]},"properties":{"OBJECTID":34,"Asset_ID":"BRB34","Name":"BARBER GOLDMAN","District_ID":"Salalah al Jadida","Gov_ID":"2","Wlyt_ID":"Salalah","Road_ID":"103812","Latitude":17.013106109999999,"Longitude":54.08488431,"GlobalID":"{AFAC6688-B65F-4544-81B7-23C5324B6E9D}"}},{"type":"Feature","id":35,"geometry":{"type":"Point","coordinates":[189255.05480000004,1883151.6045999993]},"properties":{"OBJECTID":35,"Asset_ID":"BRB35","Name":"قص وتصفيف الشعر والحلاقة للرجال","District_ID":"Salalah al Gharbiyya","Gov_ID":"2","Wlyt_ID":"Salalah","Road_ID":"104465","Latitude":17.011587800000001,"Longitude":54.08152003,"GlobalID":"{F8438D86-BE8A-490C-B6FB-1CFD69CFB955}"}},{"type":"Feature","id":36,"geometry":{"type":"Point","coordinates":[189259.44429999962,1883152.1209999993]},"properties":{"OBJECTID":36,"Asset_ID":"BRB36","Name":"قص وتصفيف الشعر والحلاقة للرجال","District_ID":"Salalah al Gharbiyya","Gov_ID":"2","Wlyt_ID":"Salalah","Road_ID":"104465","Latitude":17.011593049999998,"Longitude":54.081561139999998,"GlobalID":"{64C47D4F-944E-40B4-AE89-293FDAEBE996}"}},{"type":"Feature","id":37,"geometry":{"type":"Point","coordinates":[189263.31749999989,1883152.7664999999]},"properties":{"OBJECTID":37,"Asset_ID":"BRB37","Name":"قص وتصفيف الشعر والحلاقة للرجال","District_ID":"Salalah al Gharbiyya","Gov_ID":"2","Wlyt_ID":"Salalah","Road_ID":"104465","Latitude":17.011599400000001,"Longitude":54.0815974,"GlobalID":"{019B5A2A-BA1C-4A92-AB00-E59E38F2A2FA}"}},{"type":"Feature","id":38,"geometry":{"type":"Point","coordinates":[189268.22339999955,1883153.9284000006]},"properties":{"OBJECTID":38,"Asset_ID":"BRB38","Name":"قص وتصفيف الشعر والحلاقة للرجال","District_ID":"Salalah al Gharbiyya","Gov_ID":"2","Wlyt_ID":"Salalah","Road_ID":"104465","Latitude":17.01161055,"Longitude":54.08164326,"GlobalID":"{C21BD3E0-CD0F-470D-8A6D-6CD9160DD003}"}},{"type":"Feature","id":39,"geometry":{"type":"Point","coordinates":[189705.85419999994,1883409.3004000001]},"properties":{"OBJECTID":39,"Asset_ID":"BRB39","Name":"قص وتصفيف الشعر والحلاقة للرجال","District_ID":"Salalah al Jadida","Gov_ID":"2","Wlyt_ID":"Salalah","Road_ID":"104189","Latitude":17.013955110000001,"Longitude":54.085719339999997,"GlobalID":"{0D93A7E2-3B46-4CFE-8080-ABB0D8BA43D6}"}},{"type":"Feature","id":40,"geometry":{"type":"Point","coordinates":[189698.10790000018,1883461.7168000005]},"properties":{"OBJECTID":40,"Asset_ID":"BRB40","Name":"قص وتصفيف الشعر والحلاقة للرجال","District_ID":"Salalah al Jadida","Gov_ID":"2","Wlyt_ID":"Salalah","Road_ID":"104189","Latitude":17.014427269999999,"Longitude":54.085639329999999,"GlobalID":"{3AB2E1D9-9FA9-4952-8326-3D2FB50263EE}"}},{"type":"Feature","id":41,"geometry":{"type":"Point","coordinates":[189691.13630000036,1883494.2511]},"properties":{"OBJECTID":41,"Asset_ID":"BRB41","Name":"قص وتصفيف الشعر والحلاقة للرجال","District_ID":"Salalah al Jadida","Gov_ID":"2","Wlyt_ID":"Salalah","Road_ID":"104189","Latitude":17.014720050000001,"Longitude":54.085569360000001,"GlobalID":"{F1A7F5B0-FB81-470F-9C7A-305F7B1F0128}"}},{"type":"Feature","id":42,"geometry":{"type":"Point","coordinates":[189608.83220000006,1883781.0565000009]},"properties":{"OBJECTID":42,"Asset_ID":"BRB42","Name":"قص وتصفيف الشعر والحلاقة للرجال","District_ID":"Salalah al Jadida","Gov_ID":"2","Wlyt_ID":"Salalah","Road_ID":"104189","Latitude":17.017298190000002,"Longitude":54.084756980000002,"GlobalID":"{4661B046-FE4B-4D4A-9006-ED5236A9CCC1}"}},{"type":"Feature","id":43,"geometry":{"type":"Point","coordinates":[189381.99579999968,1883808.1684000008]},"properties":{"OBJECTID":43,"Asset_ID":"BRB43","Name":"قص وتصفيف الشعر والحلاقة للرجال","District_ID":"Salalah al Jadida","Gov_ID":"2","Wlyt_ID":"Salalah","Road_ID":"104187","Latitude":17.017512419999999,"Longitude":54.082624709999997,"GlobalID":"{9D94806B-0B20-4488-9F84-522B7D443970}"}},{"type":"Feature","id":44,"geometry":{"type":"Point","coordinates":[189394.13159999996,1883773.8267000001]},"properties":{"OBJECTID":44,"Asset_ID":"BRB44","Name":"قص وتصفيف الشعر والحلاقة للرجال","District_ID":"Salalah al Jadida","Gov_ID":"2","Wlyt_ID":"Salalah","Road_ID":"104187","Latitude":17.017204020000001,"Longitude":54.082743389999997,"GlobalID":"{6AA59B44-A894-431E-89C4-1D9B90393249}"}},{"type":"Feature","id":45,"geometry":{"type":"Point","coordinates":[189270.90149999969,1883794.8706999999]},"properties":{"OBJECTID":45,"Asset_ID":"BRB45","Name":"قص وتصفيف الشعر والحلاقة للرجال","District_ID":"Salalah al Jadida","Gov_ID":"2","Wlyt_ID":"Salalah","Road_ID":"104187","Latitude":17.017377410000002,"Longitude":54.081584139999997,"GlobalID":"{AA038718-40E9-46D9-9F52-6CCF097A13F6}"}},{"type":"Feature","id":46,"geometry":{"type":"Point","coordinates":[189249.08279999997,1883758.5277999993]},"properties":{"OBJECTID":46,"Asset_ID":"BRB46","Name":"قص وتصفيف الشعر والحلاقة للرجال","District_ID":"Salalah al Jadida","Gov_ID":"2","Wlyt_ID":"Salalah","Road_ID":"104187","Latitude":17.017046369999999,"Longitude":54.081384499999999,"GlobalID":"{5A12058D-789E-4D03-AE15-C7BF906BC8AF}"}},{"type":"Feature","id":47,"geometry":{"type":"Point","coordinates":[189221.19629999995,1883756.3330000006]},"properties":{"OBJECTID":47,"Asset_ID":"BRB47","Name":"قص وتصفيف الشعر والحلاقة للرجال","District_ID":"Salalah al Jadida","Gov_ID":"2","Wlyt_ID":"Salalah","Road_ID":"104187","Latitude":17.017022799999999,"Longitude":54.081123140000003,"GlobalID":"{398BD046-694C-4EDA-BB94-4F6445D1B77F}"}},{"type":"Feature","id":48,"geometry":{"type":"Point","coordinates":[189199.37760000024,1883754.7838000003]},"properties":{"OBJECTID":48,"Asset_ID":"BRB48","Name":"قص وتصفيف الشعر والحلاقة للرجال","District_ID":"Salalah al Jadida","Gov_ID":"2","Wlyt_ID":"Salalah","Road_ID":"104187","Latitude":17.017005879999999,"Longitude":54.080918629999999,"GlobalID":"{18455C8A-AAF1-47BC-AF8E-9E15B1FC6AB1}"}},{"type":"Feature","id":49,"geometry":{"type":"Point","coordinates":[189137.79480000027,1883739.2912000008]},"properties":{"OBJECTID":49,"Asset_ID":"BRB49","Name":"Magic Touch Barber","District_ID":"Salalah al Jadida","Gov_ID":"2","Wlyt_ID":"Salalah","Road_ID":"104187","Latitude":17.016857720000001,"Longitude":54.080342950000002,"GlobalID":"{BCBB5207-74B1-44DF-A0A4-FD0556510E81}"}},{"type":"Feature","id":50,"geometry":{"type":"Point","coordinates":[189140.24780000001,1883732.3195999991]},"properties":{"OBJECTID":50,"Asset_ID":"BRB50","Name":"ابن دهيش للحلاقة","District_ID":"Salalah al Jadida","Gov_ID":"2","Wlyt_ID":"Salalah","Road_ID":"104210","Latitude":17.01679511,"Longitude":54.080366939999998,"GlobalID":"{F7DA25A3-FE63-4D77-B495-FB502DBEBEBD}"}},{"type":"Feature","id":51,"geometry":{"type":"Point","coordinates":[189179.10819999967,1883566.6786000002]},"properties":{"OBJECTID":51,"Asset_ID":"BRB51","Name":"قص وتصفيف الشعر والحلاقة للرجال","District_ID":"Salalah al Jadida","Gov_ID":"2","Wlyt_ID":"Salalah","Road_ID":"104415","Latitude":17.01530498,"Longitude":54.080754769999999,"GlobalID":"{343C1353-4F56-490D-AB0B-3BF3AE0F774A}"}},{"type":"Feature","id":52,"geometry":{"type":"Point","coordinates":[189216.48400000017,1883523.8159999996]},"properties":{"OBJECTID":52,"Asset_ID":"BRB52","Name":"قص وتصفيف الشعر والحلاقة للرجال","District_ID":"Salalah al Jadida","Gov_ID":"2","Wlyt_ID":"Salalah","Road_ID":"104210","Latitude":17.014923060000001,"Longitude":54.081111479999997,"GlobalID":"{ABADB34F-1B35-4659-8B5C-22406F96F247}"}},{"type":"Feature","id":53,"geometry":{"type":"Point","coordinates":[189202.66980000027,1883459.1347000003]},"properties":{"OBJECTID":53,"Asset_ID":"BRB53","Name":"حلاقة","District_ID":"Salalah al Jadida","Gov_ID":"2","Wlyt_ID":"Salalah","Road_ID":"104210","Latitude":17.014337279999999,"Longitude":54.080990909999997,"GlobalID":"{E034A353-4B48-4461-A1DF-0CDE56DCB6D6}"}},{"type":"Feature","id":54,"geometry":{"type":"Point","coordinates":[189237.39890000038,1883428.2141999993]},"properties":{"OBJECTID":54,"Asset_ID":"BRB54","Name":"قص وتصفيف الشعر والحلاقة للرجال","District_ID":"Salalah al Jadida","Gov_ID":"2","Wlyt_ID":"Salalah","Road_ID":"104210","Latitude":17.014062809999999,"Longitude":54.081321109999998,"GlobalID":"{131B9AC9-24C5-4628-96A6-D4AA95912A2D}"}},{"type":"Feature","id":55,"geometry":{"type":"Point","coordinates":[189209.96439999994,1883424.7191000003]},"properties":{"OBJECTID":55,"Asset_ID":"BRB55","Name":"حلاقة","District_ID":"Salalah al Jadida","Gov_ID":"2","Wlyt_ID":"Salalah","Road_ID":"104210","Latitude":17.014028939999999,"Longitude":54.081073240000002,"GlobalID":"{8D22AAB6-A4CB-4352-8D06-22B2426A0EAC}"}},{"type":"Feature","id":56,"geometry":{"type":"Point","coordinates":[189230.55630000029,1883338.9385000002]},"properties":{"OBJECTID":56,"Asset_ID":"BRB56","Name":"قص وتصفيف الشعر والحلاقة للرجال","District_ID":"Salalah al Jadida","Gov_ID":"2","Wlyt_ID":"Salalah","Road_ID":"104210","Latitude":17.01325593,"Longitude":54.081269399999996,"GlobalID":"{6B6D46A8-8FE3-4E85-BAEC-061D0C8CE219}"}},{"type":"Feature","id":57,"geometry":{"type":"Point","coordinates":[189243.14400000032,1883283.4235999994]},"properties":{"OBJECTID":57,"Asset_ID":"BRB57","Name":"المقص الرائع للحلاقة","District_ID":"Salalah al Jadida","Gov_ID":"2","Wlyt_ID":"Salalah","Road_ID":"104210","Latitude":17.012756450000001,"Longitude":54.081395280000002,"GlobalID":"{95F200D7-592F-4439-AA5F-E23FC8380267}"}},{"type":"Feature","id":58,"geometry":{"type":"Point","coordinates":[189244.11230000015,1883281.5515999999]},"properties":{"OBJECTID":58,"Asset_ID":"BRB58","Name":"قص وتصفيف الشعر والحلاقة للرجال","District_ID":"Salalah al Jadida","Gov_ID":"2","Wlyt_ID":"Salalah","Road_ID":"104210","Latitude":17.012739679999999,"Longitude":54.081404630000002,"GlobalID":"{74539023-0453-4751-8DE4-32C9C4930E71}"}},{"type":"Feature","id":59,"geometry":{"type":"Point","coordinates":[190175.20079999976,1883767.5368000008]},"properties":{"OBJECTID":59,"Asset_ID":"BRB59","Name":"قص وتصفيف الشعر والحلاقة للرجال","District_ID":"Salalah al Jadida","Gov_ID":"2","Wlyt_ID":"Salalah","Road_ID":"104187","Latitude":17.017275860000002,"Longitude":54.090074870000002,"GlobalID":"{07BCC1CB-7526-48EE-906C-62DCE27E3B31}"}},{"type":"Feature","id":60,"geometry":{"type":"Point","coordinates":[190093.66720000003,1883781.0761999991]},"properties":{"OBJECTID":60,"Asset_ID":"BRB60","Name":"قص وتصفيف الشعر والحلاقة للرجال","District_ID":"Salalah al Jadida","Gov_ID":"2","Wlyt_ID":"Salalah","Road_ID":"104187","Latitude":17.01738963,"Longitude":54.089308520000003,"GlobalID":"{B389A7D1-0928-452A-815A-1C3FB775C496}"}},{"type":"Feature","id":61,"geometry":{"type":"Point","coordinates":[189781.50939999986,1883809.9112999998]},"properties":{"OBJECTID":61,"Asset_ID":"BRB61","Name":"قص وتصفيف الشعر والحلاقة للرجال","District_ID":"Salalah al Jadida","Gov_ID":"2","Wlyt_ID":"Salalah","Road_ID":"104187","Latitude":17.017581910000001,"Longitude":54.08637323,"GlobalID":"{BD437158-2410-4DC2-8968-FF78A36D15CF}"}},{"type":"Feature","id":62,"geometry":{"type":"Point","coordinates":[189581.26840000041,1884012.3469999991]},"properties":{"OBJECTID":62,"Asset_ID":"BRB62","Name":"قص وتصفيف الشعر والحلاقة للرجال","District_ID":"Salalah al Jadida","Gov_ID":"2","Wlyt_ID":"Salalah","Road_ID":"104189","Latitude":17.019382520000001,"Longitude":54.084465989999998,"GlobalID":"{3E0F37BC-10BF-4EE4-9E23-A4DE81A76AEB}"}},{"type":"Feature","id":63,"geometry":{"type":"Point","coordinates":[189577.00800000038,1884073.1552000009]},"properties":{"OBJECTID":63,"Asset_ID":"BRB63","Name":"قص وتصفيف الشعر والحلاقة للرجال","District_ID":"Salalah al Jadida","Gov_ID":"2","Wlyt_ID":"Salalah","Road_ID":"104189","Latitude":17.019930899999999,"Longitude":54.084417510000002,"GlobalID":"{95BDD1D8-94D2-4EAA-A47A-7087A639A1C7}"}},{"type":"Feature","id":64,"geometry":{"type":"Point","coordinates":[189574.42590000015,1884091.2298000008]},"properties":{"OBJECTID":64,"Asset_ID":"BRB64","Name":"قص وتصفيف الشعر والحلاقة للرجال","District_ID":"Salalah al Jadida","Gov_ID":"2","Wlyt_ID":"Salalah","Road_ID":"104189","Latitude":17.020093729999999,"Longitude":54.084390749999997,"GlobalID":"{8ADF1635-1F43-4B79-A959-9B7C3A0136C1}"}},{"type":"Feature","id":65,"geometry":{"type":"Point","coordinates":[189604.76539999992,1884116.0178999994]},"properties":{"OBJECTID":65,"Asset_ID":"BRB65","Name":"ابن دهيش للحلاقة","District_ID":"Salalah al Jadida","Gov_ID":"2","Wlyt_ID":"Salalah","Road_ID":"104189","Latitude":17.020321589999998,"Longitude":54.084671970000002,"GlobalID":"{35C78AAC-B52B-48C5-B811-A95BF6F5671C}"}},{"type":"Feature","id":66,"geometry":{"type":"Point","coordinates":[189602.8674999997,1884138.1479000002]},"properties":{"OBJECTID":66,"Asset_ID":"BRB66","Name":"قص وتصفيف الشعر والحلاقة للرجال","District_ID":"Salalah al Jadida","Gov_ID":"2","Wlyt_ID":"Salalah","Road_ID":"104189","Latitude":17.02053927,"Longitude":54.084649210000002,"GlobalID":"{CA6CB077-933D-4FAA-B10D-167EE30930B0}"}},{"type":"Feature","id":67,"geometry":{"type":"Point","coordinates":[189566.93790000025,1884164.6901999991]},"properties":{"OBJECTID":67,"Asset_ID":"BRB67","Name":"قص وتصفيف الشعر والحلاقة للرجال","District_ID":"Salalah al Jadida","Gov_ID":"2","Wlyt_ID":"Salalah","Road_ID":"104189","Latitude":17.020755909999998,"Longitude":54.084310209999998,"GlobalID":"{6F879250-B66B-444C-985F-5D56D61D632E}"}},{"type":"Feature","id":68,"geometry":{"type":"Point","coordinates":[189565.75059999991,1884180.9163000006]},"properties":{"OBJECTID":68,"Asset_ID":"BRB68","Name":"قص وتصفيف الشعر والحلاقة للرجال","District_ID":"Salalah al Jadida","Gov_ID":"2","Wlyt_ID":"Salalah","Road_ID":"104189","Latitude":17.020873550000001,"Longitude":54.084303540000001,"GlobalID":"{BA30592C-2A11-44EF-A488-14BEFA215EAB}"}},{"type":"Feature","id":69,"geometry":{"type":"Point","coordinates":[189126.96850000042,1883813.5815999992]},"properties":{"OBJECTID":69,"Asset_ID":"BRB69","Name":"قص وتصفيف الشعر والحلاقة للرجال","District_ID":"Salalah al Jadida","Gov_ID":"2","Wlyt_ID":"Salalah","Road_ID":"104210","Latitude":17.017526929999999,"Longitude":54.080230960000002,"GlobalID":"{0007F61D-7215-42CC-8AF5-9A9AAEAEF87C}"}},{"type":"Feature","id":70,"geometry":{"type":"Point","coordinates":[189157.95349999983,1883843.9765000008]},"properties":{"OBJECTID":70,"Asset_ID":"BRB70","Name":"الزول للحلاقة","District_ID":"Salalah al Jadida","Gov_ID":"2","Wlyt_ID":"Salalah","Road_ID":"104210","Latitude":17.017805500000001,"Longitude":54.080517440000001,"GlobalID":"{02ABE6B7-9C86-4036-BF96-33473BB10AF3}"}},{"type":"Feature","id":71,"geometry":{"type":"Point","coordinates":[189157.80599999987,1883849.5833000001]},"properties":{"OBJECTID":71,"Asset_ID":"BRB71","Name":"قص وتصفيف الشعر والحلاقة للرجال","District_ID":"Salalah al Jadida","Gov_ID":"2","Wlyt_ID":"Salalah","Road_ID":"104210","Latitude":17.017856099999999,"Longitude":54.080515269999999,"GlobalID":"{5CA5B1F6-9FB6-441C-9F4C-6111E831F48C}"}},{"type":"Feature","id":72,"geometry":{"type":"Point","coordinates":[189122.83710000012,1883870.2400000002]},"properties":{"OBJECTID":72,"Asset_ID":"BRB72","Name":"قص وتصفيف الشعر والحلاقة للرجال","District_ID":"Salalah al Jadida","Gov_ID":"2","Wlyt_ID":"Salalah","Road_ID":"104210","Latitude":17.018037870000001,"Longitude":54.080184260000003,"GlobalID":"{E0E672CD-E902-4017-8F8B-A729FBFAA5E2}"}},{"type":"Feature","id":73,"geometry":{"type":"Point","coordinates":[189154.4123999998,1883901.6677000001]},"properties":{"OBJECTID":73,"Asset_ID":"BRB73","Name":"قص وتصفيف الشعر والحلاقة للرجال","District_ID":"Salalah al Jadida","Gov_ID":"2","Wlyt_ID":"Salalah","Road_ID":"104210","Latitude":17.01832585,"Longitude":54.080476140000002,"GlobalID":"{E0864A57-BED6-4AAD-89AB-EC8E3C5534CE}"}},{"type":"Feature","id":74,"geometry":{"type":"Point","coordinates":[189154.1911000004,1883905.2826000005]},"properties":{"OBJECTID":74,"Asset_ID":"BRB74","Name":"قص وتصفيف الشعر والحلاقة للرجال","District_ID":"Salalah al Jadida","Gov_ID":"2","Wlyt_ID":"Salalah","Road_ID":"104210","Latitude":17.018358450000001,"Longitude":54.080473550000001,"GlobalID":"{E3210325-B877-4FCC-AA55-535270997303}"}},{"type":"Feature","id":75,"geometry":{"type":"Point","coordinates":[189107.71349999961,1884012.4760999996]},"properties":{"OBJECTID":75,"Asset_ID":"BRB75","Name":"قص وتصفيف الشعر والحلاقة للرجال","District_ID":"Salalah al Jadida","Gov_ID":"2","Wlyt_ID":"Salalah","Road_ID":"104210","Latitude":17.019319899999999,"Longitude":54.080022419999999,"GlobalID":"{92B46D1C-06EC-4DB9-A96D-9140B206A576}"}},{"type":"Feature","id":76,"geometry":{"type":"Point","coordinates":[189098.4179999996,1884104.3984999992]},"properties":{"OBJECTID":76,"Asset_ID":"BRB76","Name":"قص وتصفيف الشعر والحلاقة للرجال","District_ID":"Salalah al Jadida","Gov_ID":"2","Wlyt_ID":"Salalah","Road_ID":"104210","Latitude":17.020148500000001,"Longitude":54.079922320000001,"GlobalID":"{27C4FEAF-49DC-4D6C-A76F-FCBEA2C320C7}"}},{"type":"Feature","id":77,"geometry":{"type":"Point","coordinates":[189128.51769999973,1884149.2530000005]},"properties":{"OBJECTID":77,"Asset_ID":"BRB77","Name":"قص وتصفيف الشعر والحلاقة للرجال","District_ID":"Salalah al Jadida","Gov_ID":"2","Wlyt_ID":"Salalah","Road_ID":"104210","Latitude":17.020557490000002,"Longitude":54.080198469999999,"GlobalID":"{AA66E386-0C8A-4D2B-9A36-418ECB1114AA}"}},{"type":"Feature","id":78,"geometry":{"type":"Point","coordinates":[189088.67980000004,1884193.6649999991]},"properties":{"OBJECTID":78,"Asset_ID":"BRB78","Name":"قص وتصفيف الشعر والحلاقة للرجال","District_ID":"Salalah al Jadida","Gov_ID":"2","Wlyt_ID":"Salalah","Road_ID":"104210","Latitude":17.02095306,"Longitude":54.079818439999997,"GlobalID":"{1D7D4C40-9DCC-4AF3-B3EC-3759A5CB3080}"}},{"type":"Feature","id":79,"geometry":{"type":"Point","coordinates":[189128.06180000026,1883736.1451999992]},"properties":{"OBJECTID":79,"Asset_ID":"BRB79","Name":"قص وتصفيف الشعر والحلاقة للرجال","District_ID":"Salalah al Jadida","Gov_ID":"2","Wlyt_ID":"Salalah","Road_ID":"104187","Latitude":17.016846359999999,"Longitude":54.080247749999998,"GlobalID":"{E7B04B91-1C04-46A8-AF8D-2DC87B41A1EB}"}},{"type":"Feature","id":80,"geometry":{"type":"Point","coordinates":[189072.82519999985,1883767.5393000003]},"properties":{"OBJECTID":80,"Asset_ID":"BRB80","Name":"قص وتصفيف الشعر والحلاقة للرجال","District_ID":"Salalah al Jadida","Gov_ID":"2","Wlyt_ID":"Salalah","Road_ID":"104187","Latitude":17.017126600000001,"Longitude":54.079722719999999,"GlobalID":"{0BE44ECD-BE6C-4B20-9C7E-2A3210015F29}"}},{"type":"Feature","id":81,"geometry":{"type":"Point","coordinates":[189080.20260000043,1883769.9000000004]},"properties":{"OBJECTID":81,"Asset_ID":"BRB81","Name":"قص وتصفيف الشعر والحلاقة للرجال","District_ID":"Salalah al Jadida","Gov_ID":"2","Wlyt_ID":"Salalah","Road_ID":"104187","Latitude":17.017148899999999,"Longitude":54.079791610000001,"GlobalID":"{2B4156CC-9762-4170-8250-718DF663C1E5}"}},{"type":"Feature","id":82,"geometry":{"type":"Point","coordinates":[188906.90079999994,1883748.8081]},"properties":{"OBJECTID":82,"Asset_ID":"BRB82","Name":"قص وتصفيف الشعر والحلاقة للرجال","District_ID":"Salalah al Jadida","Gov_ID":"2","Wlyt_ID":"Salalah","Road_ID":"104246","Latitude":17.016912510000001,"Longitude":54.078175080000001,"GlobalID":"{E9383010-B7DD-489B-B012-FF6F062D564C}"}},{"type":"Feature","id":83,"geometry":{"type":"Point","coordinates":[188726.15460000001,1884162.3848000001]},"properties":{"OBJECTID":83,"Asset_ID":"BRB83","Name":"قص وتصفيف الشعر والحلاقة للرجال","District_ID":"Salalah al Jadida","Gov_ID":"2","Wlyt_ID":"Salalah","Road_ID":"104294","Latitude":17.020621770000002,"Longitude":54.076421089999997,"GlobalID":"{33D3E2AD-2DFF-44A7-91BE-C56ACD2D37E8}"}},{"type":"Feature","id":84,"geometry":{"type":"Point","coordinates":[188885.35879999958,1883990.6391000003]},"properties":{"OBJECTID":84,"Asset_ID":"BRB84","Name":"قص وتصفيف الشعر والحلاقة للرجال","District_ID":"Salalah al Jadida","Gov_ID":"2","Wlyt_ID":"Salalah","Road_ID":"104294","Latitude":17.019092780000001,"Longitude":54.077939049999998,"GlobalID":"{B12A3790-9CAD-4C52-8837-FEEB55F59C94}"}},{"type":"Feature","id":85,"geometry":{"type":"Point","coordinates":[188932.13150000013,1883851.6489000004]},"properties":{"OBJECTID":85,"Asset_ID":"BRB85","Name":"قص وتصفيف الشعر والحلاقة للرجال","District_ID":"Salalah al Jadida","Gov_ID":"2","Wlyt_ID":"Salalah","Road_ID":"104294","Latitude":17.017844329999999,"Longitude":54.078397410000001,"GlobalID":"{EDDF38FE-700C-46C7-9317-6CD0E4F739B8}"}},{"type":"Feature","id":86,"geometry":{"type":"Point","coordinates":[188932.05769999977,1883607.1621000003]},"properties":{"OBJECTID":86,"Asset_ID":"BRB86","Name":"قص وتصفيف الشعر والحلاقة للرجال","District_ID":"Salalah al Jadida","Gov_ID":"2","Wlyt_ID":"Salalah","Road_ID":"104246","Latitude":17.015637160000001,"Longitude":54.07843098,"GlobalID":"{EC08F307-650D-4AF4-BEAC-A6AAF0553B1F}"}},{"type":"Feature","id":87,"geometry":{"type":"Point","coordinates":[188934.56599999964,1883597.6453000009]},"properties":{"OBJECTID":87,"Asset_ID":"BRB87","Name":"قص وتصفيف الشعر والحلاقة للرجال","District_ID":"Salalah al Jadida","Gov_ID":"2","Wlyt_ID":"Salalah","Road_ID":"104246","Latitude":17.01555158,"Longitude":54.078455849999997,"GlobalID":"{AF6FA28F-B154-4D5C-A3AD-12F77BE9DCF8}"}},{"type":"Feature","id":88,"geometry":{"type":"Point","coordinates":[188971.15789999999,1883574.3326999992]},"properties":{"OBJECTID":88,"Asset_ID":"BRB88","Name":"البروق للحلاقة","District_ID":"Salalah al Jadida","Gov_ID":"2","Wlyt_ID":"Salalah","Road_ID":"104246","Latitude":17.015346059999999,"Longitude":54.078802469999999,"GlobalID":"{5F9E6388-4B15-44AC-BD47-664F451D08C6}"}},{"type":"Feature","id":89,"geometry":{"type":"Point","coordinates":[188977.79760000017,1883546.8149999995]},"properties":{"OBJECTID":89,"Asset_ID":"BRB89","Name":"قص وتصفيف الشعر والحلاقة للرجال","District_ID":"Salalah al Jadida","Gov_ID":"2","Wlyt_ID":"Salalah","Road_ID":"104246","Latitude":17.015098529999999,"Longitude":54.078868630000002,"GlobalID":"{B680949D-1CDA-4CB2-AD00-073D8BB47F52}"}},{"type":"Feature","id":90,"geometry":{"type":"Point","coordinates":[188072.51750000007,1882736.9245999996]},"properties":{"OBJECTID":90,"Asset_ID":"BRB90","Name":"قص وتصفيف الشعر والحلاقة للرجال","District_ID":"Salalah al Gharbiyya","Gov_ID":"2","Wlyt_ID":"Salalah","Road_ID":"103824","Latitude":17.007664900000002,"Longitude":54.070488050000002,"GlobalID":"{8F78EE2A-4117-4827-948F-A74214C3A63C}"}},{"type":"Feature","id":91,"geometry":{"type":"Point","coordinates":[187278.47009999957,1882521.9104999993]},"properties":{"OBJECTID":91,"Asset_ID":"BRB91","Name":"قص وتصفيف الشعر والحلاقة للرجال","District_ID":"al Wadi","Gov_ID":"2","Wlyt_ID":"Salalah","Road_ID":"103812","Latitude":17.005616409999998,"Longitude":54.063068029999997,"GlobalID":"{9D032F60-6DCE-4E81-84FB-409333FA9E04}"}},{"type":"Feature","id":92,"geometry":{"type":"Point","coordinates":[187262.86689999979,1882552.2869000006]},"properties":{"OBJECTID":92,"Asset_ID":"BRB92","Name":"قص وتصفيف الشعر والحلاقة للرجال","District_ID":"al Wadi","Gov_ID":"2","Wlyt_ID":"Salalah","Road_ID":"103812","Latitude":17.005888519999999,"Longitude":54.06291736,"GlobalID":"{62089DAA-E604-4EA3-BA92-9E648F7B13C1}"}},{"type":"Feature","id":93,"geometry":{"type":"Point","coordinates":[186870.46329999994,1882655.0354999993]},"properties":{"OBJECTID":93,"Asset_ID":"BRB93","Name":"قص وتصفيف الشعر والحلاقة للرجال","District_ID":"al Wadi","Gov_ID":"2","Wlyt_ID":"Salalah","Road_ID":"105467","Latitude":17.006762899999998,"Longitude":54.059221129999997,"GlobalID":"{854148C8-33E2-4D53-A712-430132ECFC8F}"}},{"type":"Feature","id":94,"geometry":{"type":"Point","coordinates":[186824.73259999976,1882753.2193999998]},"properties":{"OBJECTID":94,"Asset_ID":"BRB94","Name":"قص وتصفيف الشعر والحلاقة للرجال","District_ID":"al Wadi","Gov_ID":"2","Wlyt_ID":"Salalah","Road_ID":"105338","Latitude":17.007643059999999,"Longitude":54.05877821,"GlobalID":"{5E65F00B-372A-4442-9B0E-426B637D284C}"}},{"type":"Feature","id":95,"geometry":{"type":"Point","coordinates":[186843.3236999996,1882761.9340000004]},"properties":{"OBJECTID":95,"Asset_ID":"BRB95","Name":"قص وتصفيف الشعر والحلاقة للرجال","District_ID":"al Wadi","Gov_ID":"2","Wlyt_ID":"Salalah","Road_ID":"105338","Latitude":17.007724249999999,"Longitude":54.05895142,"GlobalID":"{C156BD99-F17B-4EC2-A792-E485823D7B7E}"}},{"type":"Feature","id":96,"geometry":{"type":"Point","coordinates":[186917.0652999999,1883709.4127999991]},"properties":{"OBJECTID":96,"Asset_ID":"BRB96","Name":"قص وتصفيف الشعر والحلاقة للرجال","District_ID":"al Wadi","Gov_ID":"2","Wlyt_ID":"Salalah","Road_ID":"104340","Latitude":17.016287680000001,"Longitude":54.05950971,"GlobalID":"{D0B6734D-B844-4CD7-831B-8746C78B9CF4}"}},{"type":"Feature","id":97,"geometry":{"type":"Point","coordinates":[186935.24139999971,1883650.1538999993]},"properties":{"OBJECTID":97,"Asset_ID":"BRB97","Name":"قص وتصفيف الشعر والحلاقة للرجال","District_ID":"al Wadi","Gov_ID":"2","Wlyt_ID":"Salalah","Road_ID":"104340","Latitude":17.01575519,"Longitude":54.059688610000002,"GlobalID":"{EFBAAC8A-BA7C-4167-8DDE-AED14C8CA818}"}},{"type":"Feature","id":98,"geometry":{"type":"Point","coordinates":[187571.65230000019,1884154.5186999999]},"properties":{"OBJECTID":98,"Asset_ID":"BRB98","Name":"قص وتصفيف الشعر والحلاقة للرجال","District_ID":"al Wadi","Gov_ID":"2","Wlyt_ID":"Salalah","Road_ID":"104340","Latitude":17.020394670000002,"Longitude":54.065589090000003,"GlobalID":"{E501734B-6F5B-4199-9CD0-2934D55EF4B6}"}},{"type":"Feature","id":99,"geometry":{"type":"Point","coordinates":[187691.49810000043,1884212.4081999995]},"properties":{"OBJECTID":99,"Asset_ID":"BRB99","Name":"قص وتصفيف الشعر والحلاقة للرجال","District_ID":"al Wadi","Gov_ID":"2","Wlyt_ID":"Salalah","Road_ID":"104340","Latitude":17.020933500000002,"Longitude":54.066705489999997,"GlobalID":"{1E715E80-281E-4143-B4F5-073761B836AE}"}},{"type":"Feature","id":100,"geometry":{"type":"Point","coordinates":[188338.94749999978,1883132.0533000007]},"properties":{"OBJECTID":100,"Asset_ID":"BRB100","Name":"قص وتصفيف الشعر والحلاقة للرجال","District_ID":"al Wadi","Gov_ID":"2","Wlyt_ID":"Salalah","Road_ID":"100583","Latitude":17.01126799,"Longitude":54.072932440000002,"GlobalID":"{27220B0B-7676-4882-9EDC-1172602F0F6A}"}},{"type":"Feature","id":101,"geometry":{"type":"Point","coordinates":[188339.77740000002,1883038.4341000002]},"properties":{"OBJECTID":101,"Asset_ID":"BRB101","Name":"قص وتصفيف الشعر والحلاقة للرجال","District_ID":"al Wadi","Gov_ID":"2","Wlyt_ID":"Salalah","Road_ID":"100583","Latitude":17.010422940000002,"Longitude":54.07295337,"GlobalID":"{6AF290D7-01C1-4AB1-AD18-7C19A2EEBE0A}"}},{"type":"Feature","id":102,"geometry":{"type":"Point","coordinates":[188339.77740000002,1883042.5009000003]},"properties":{"OBJECTID":102,"Asset_ID":"BRB102","Name":"قص وتصفيف الشعر والحلاقة للرجال","District_ID":"al Wadi","Gov_ID":"2","Wlyt_ID":"Salalah","Road_ID":"100583","Latitude":17.010459650000001,"Longitude":54.072952790000002,"GlobalID":"{88962D45-A021-48C8-9612-19485C3D4999}"}},{"type":"Feature","id":103,"geometry":{"type":"Point","coordinates":[187521.3694000002,1883689.4992999993]},"properties":{"OBJECTID":103,"Asset_ID":"BRB103","Name":"قص وتصفيف الشعر والحلاقة للرجال","District_ID":"al Wadi","Gov_ID":"2","Wlyt_ID":"Salalah","Road_ID":"104343","Latitude":17.016207260000002,"Longitude":54.065173010000002,"GlobalID":"{5A1CFC82-8900-457E-B7E5-643C28D9D956}"}},{"type":"Feature","id":104,"geometry":{"type":"Point","coordinates":[187677.86340000015,1883782.1413000003]},"properties":{"OBJECTID":104,"Asset_ID":"BRB104","Name":"قص وتصفيف الشعر والحلاقة للرجال","District_ID":"al Wadi","Gov_ID":"2","Wlyt_ID":"Salalah","Road_ID":"104343","Latitude":17.0170514,"Longitude":54.066646830000003,"GlobalID":"{7F7B357D-4F0F-4486-9E5E-867954302B10}"}},{"type":"Feature","id":105,"geometry":{"type":"Point","coordinates":[187677.3228000002,1883738.3039999995]},"properties":{"OBJECTID":105,"Asset_ID":"BRB105","Name":"قص وتصفيف الشعر والحلاقة للرجال","District_ID":"al Wadi","Gov_ID":"2","Wlyt_ID":"Salalah","Road_ID":"104343","Latitude":17.016683919999998,"Longitude":54.06662919,"GlobalID":"{25617739-AFFE-44CE-97D7-1E48FD9325AF}"}},{"type":"Feature","id":106,"geometry":{"type":"Point","coordinates":[187785.20019999985,1883808.7171]},"properties":{"OBJECTID":106,"Asset_ID":"BRB106","Name":"قص وتصفيف الشعر والحلاقة للرجال","District_ID":"al Wadi","Gov_ID":"2","Wlyt_ID":"Salalah","Road_ID":"104343","Latitude":17.017301809999999,"Longitude":54.067641520000002,"GlobalID":"{4C2C33FE-2316-40FB-AAC4-BF251FF39BA4}"}},{"type":"Feature","id":107,"geometry":{"type":"Point","coordinates":[187798.73419999983,1883776.1840000004]},"properties":{"OBJECTID":107,"Asset_ID":"BRB107","Name":"قص وتصفيف الشعر والحلاقة للرجال","District_ID":"al Wadi","Gov_ID":"2","Wlyt_ID":"Salalah","Road_ID":"104343","Latitude":17.017024129999999,"Longitude":54.067769699999999,"GlobalID":"{4C02A1BC-354D-48B4-A6B4-EF53BFB6CE72}"}},{"type":"Feature","id":108,"geometry":{"type":"Point","coordinates":[197822.94790000003,1885812.9800000004]},"properties":{"OBJECTID":108,"Asset_ID":"BRB108","Name":"النخبة للحلاقة","District_ID":"al Sada al Janubiyya","Gov_ID":"2","Wlyt_ID":"Salalah","Road_ID":"100353","Latitude":17.036733779999999,"Longitude":54.161558620000001,"GlobalID":"{063A96E4-7FF9-46B4-B9B6-21B9B1666B65}"}},{"type":"Feature","id":109,"geometry":{"type":"Point","coordinates":[197769.83059999999,1885703.2043999992]},"properties":{"OBJECTID":109,"Asset_ID":"BRB109","Name":"دار النخبة للحلاقة","District_ID":"Dahariz al Shamaliyya","Gov_ID":"2","Wlyt_ID":"Salalah","Road_ID":"100124","Latitude":17.035735720000002,"Longitude":54.161075080000003,"GlobalID":"{55045252-B4CE-4929-9A76-E7CD145CF391}"}},{"type":"Feature","id":110,"geometry":{"type":"Point","coordinates":[198873.80850000028,1884698.4452]},"properties":{"OBJECTID":110,"Asset_ID":"BRB110","Name":"قص وتصفيف الشعر والحلاقة للرجال","District_ID":"Dahariz al Shamaliyya","Gov_ID":"2","Wlyt_ID":"Salalah","Road_ID":"100124","Latitude":17.026819790000001,"Longitude":54.17157211,"GlobalID":"{69BEE586-4F03-4E5A-A89A-39103C0A04A7}"}},{"type":"Feature","id":111,"geometry":{"type":"Point","coordinates":[199053.81699999981,1885064.7892000005]},"properties":{"OBJECTID":111,"Asset_ID":"BRB111","Name":"صالون وسبا للرجال _وسامتك-","District_ID":"Dahariz al Shamaliyya","Gov_ID":"2","Wlyt_ID":"Salalah","Road_ID":"100139","Latitude":17.030139869999999,"Longitude":54.173211850000001,"GlobalID":"{265CA76D-E7AD-4564-ACBD-D6D8949F560E}"}},{"type":"Feature","id":112,"geometry":{"type":"Point","coordinates":[197660.6370000001,1884581.0944999997]},"properties":{"OBJECTID":112,"Asset_ID":"BRB112","Name":"قص وتصفيف الشعر والحلاقة للرجال","District_ID":"Dahariz al Shamaliyya","Gov_ID":"2","Wlyt_ID":"Salalah","Road_ID":"100008","Latitude":17.02559059,"Longitude":54.16020331,"GlobalID":"{9CCB86B1-9C90-483F-B2E8-273B2E9EA991}"}},{"type":"Feature","id":113,"geometry":{"type":"Point","coordinates":[190102.71870000008,1883425.3455999997]},"properties":{"OBJECTID":113,"Asset_ID":"BRB113","Name":"صالون رونق الشام","District_ID":"Salalah al Gharbiyya","Gov_ID":"2","Wlyt_ID":"Salalah","Road_ID":"103812","Latitude":17.0141533,"Longitude":54.089440949999997,"GlobalID":"{3A23A343-DD16-40DC-AF70-CEA89338D7F8}"}},{"type":"Feature","id":114,"geometry":{"type":"Point","coordinates":[189756.91199999955,1883315.7971000001]},"properties":{"OBJECTID":114,"Asset_ID":"BRB114","Name":"حلاق بيت الأناقة","District_ID":"Salalah al Gharbiyya","Gov_ID":"2","Wlyt_ID":"Salalah","Road_ID":"103812","Latitude":17.01314249,"Longitude":54.086206369999999,"GlobalID":"{99EE4886-2B13-4D4A-B4F9-ED17DE899B2D}"}},{"type":"Feature","id":115,"geometry":{"type":"Point","coordinates":[189200.37679999974,1883138.7131999992]},"properties":{"OBJECTID":115,"Asset_ID":"BRB115","Name":"حلاق","District_ID":"Salalah al Gharbiyya","Gov_ID":"2","Wlyt_ID":"Salalah","Road_ID":"103812","Latitude":17.01144429,"Longitude":54.081014250000003,"GlobalID":"{AE69E8E2-5544-4CC3-965F-6683EBBDBB26}"}},{"type":"Feature","id":116,"geometry":{"type":"Point","coordinates":[189196.71420000028,1883138.4843000006]},"properties":{"OBJECTID":116,"Asset_ID":"BRB116","Name":"حلاق","District_ID":"Salalah al Gharbiyya","Gov_ID":"2","Wlyt_ID":"Salalah","Road_ID":"103812","Latitude":17.011441730000001,"Longitude":54.080979919999997,"GlobalID":"{4C509F67-14B3-438D-86D7-BB78D9ED43FD}"}},{"type":"Feature","id":117,"geometry":{"type":"Point","coordinates":[188257.16189999972,1882769.2841999996]},"properties":{"OBJECTID":117,"Asset_ID":"BRB117","Name":"حلاق","District_ID":"Salalah al Gharbiyya","Gov_ID":"2","Wlyt_ID":"Salalah","Road_ID":"103824","Latitude":17.00798198,"Longitude":54.072215980000003,"GlobalID":"{B29456E9-DB38-4F1A-A96F-20A197F61E58}"}},{"type":"Feature","id":118,"geometry":{"type":"Point","coordinates":[188049.91750000045,1882729.9640999995]},"properties":{"OBJECTID":118,"Asset_ID":"BRB118","Name":"حلاق","District_ID":"Salalah al Gharbiyya","Gov_ID":"2","Wlyt_ID":"Salalah","Road_ID":"103824","Latitude":17.00759901,"Longitude":54.070276980000003,"GlobalID":"{2A6941F9-AE2D-4911-8880-26DAE55F6016}"}},{"type":"Feature","id":119,"geometry":{"type":"Point","coordinates":[188046.26080000028,1882729.5889999997]},"properties":{"OBJECTID":119,"Asset_ID":"BRB119","Name":"حلاق بهجة الجنوب","District_ID":"Salalah al Gharbiyya","Gov_ID":"2","Wlyt_ID":"Salalah","Road_ID":"103824","Latitude":17.007595129999999,"Longitude":54.070242720000003,"GlobalID":"{969730B1-2C0E-403A-BA9D-B452B0D6F767}"}},{"type":"Feature","id":120,"geometry":{"type":"Point","coordinates":[187905.34219999984,1882586.2032999992]},"properties":{"OBJECTID":120,"Asset_ID":"BRB120","Name":"قص و تصفيف الشعر و الحلاقة للرجال","District_ID":"Salalah al Gharbiyya","Gov_ID":"2","Wlyt_ID":"Salalah","Road_ID":"104447","Latitude":17.006281649999998,"Longitude":54.068940670000003,"GlobalID":"{AE487A5C-D5BC-4A62-8F8F-D4D3C1847DE1}"}},{"type":"Feature","id":121,"geometry":{"type":"Point","coordinates":[190422.49560000002,1882889.8597999997]},"properties":{"OBJECTID":121,"Asset_ID":"BRB121","Name":"قص و تصفيف الشعر","District_ID":"Salalah al Wousta","Gov_ID":"2","Wlyt_ID":"Salalah","Road_ID":"103741","Latitude":17.009361949999999,"Longitude":54.092516140000001,"GlobalID":"{3641347C-87D8-49B4-983F-F06DE7FE5192}"}},{"type":"Feature","id":122,"geometry":{"type":"Point","coordinates":[190014.71360000037,1882812.0789000001]},"properties":{"OBJECTID":122,"Asset_ID":"BRB122","Name":"حلاقة وقص الشعر للرجال","District_ID":"Salalah al Gharbiyya","Gov_ID":"2","Wlyt_ID":"Salalah","Road_ID":"103741","Latitude":17.008605020000001,"Longitude":54.088700789999997,"GlobalID":"{51AF3976-117C-49C3-979A-7C37E99723AB}"}},{"type":"Feature","id":123,"geometry":{"type":"Point","coordinates":[189637.36880000029,1883049.4376999997]},"properties":{"OBJECTID":123,"Asset_ID":"BRB123","Name":"قص و تصفيف الشعر للرجال","District_ID":"Salalah al Gharbiyya","Gov_ID":"2","Wlyt_ID":"Salalah","Road_ID":"103741","Latitude":17.010697140000001,"Longitude":54.085127030000002,"GlobalID":"{6206DC60-A0A3-4B37-B9D8-5AA8C8909DD3}"}},{"type":"Feature","id":124,"geometry":{"type":"Point","coordinates":[197517.87559999991,1884106.7797999997]},"properties":{"OBJECTID":124,"Asset_ID":"BRB124","Name":"قص و تصفيف الشعر","District_ID":"Dahariz al Shamaliyya","Gov_ID":"2","Wlyt_ID":"Salalah","Road_ID":"103741","Latitude":17.021289580000001,"Longitude":54.158928260000003,"GlobalID":"{5FC4726F-5DEB-4049-93C8-9C221E4D9F66}"}},{"type":"Feature","id":125,"geometry":{"type":"Point","coordinates":[198169.61639999971,1884152.9187000003]},"properties":{"OBJECTID":125,"Asset_ID":"BRB125","Name":"قص و تصفيف الشعر","District_ID":"Dahariz al Shamaliyya","Gov_ID":"2","Wlyt_ID":"Salalah","Road_ID":"103741","Latitude":17.02180233,"Longitude":54.165036559999997,"GlobalID":"{A37D9BDB-9369-4F5F-B335-66B5BF1F7FE5}"}},{"type":"Feature","id":126,"geometry":{"type":"Point","coordinates":[197645.91029999964,1884027.2102000006]},"properties":{"OBJECTID":126,"Asset_ID":"BRB126","Name":"قص تصفيف و حلاقة الشعر","District_ID":"Dahariz al Shamaliyya","Gov_ID":"2","Wlyt_ID":"Salalah","Road_ID":"103741","Latitude":17.020587989999999,"Longitude":54.160140599999998,"GlobalID":"{B3B0F239-D824-42E8-9F45-9470AF0B8D2A}"}},{"type":"Feature","id":127,"geometry":{"type":"Point","coordinates":[197368.28220000025,1883927.3309000004]},"properties":{"OBJECTID":127,"Asset_ID":"BRB127","Name":"قص و تصفيف الشعر ","District_ID":"Dahariz al Shamaliyya","Gov_ID":"2","Wlyt_ID":"Salalah","Road_ID":"103741","Latitude":17.019648279999998,"Longitude":54.157540099999999,"GlobalID":"{AB84AA60-CD6C-47F7-9969-5A9671A87DD7}"}},{"type":"Feature","id":128,"geometry":{"type":"Point","coordinates":[197365.67509999964,1883990.7073999997]},"properties":{"OBJECTID":128,"Asset_ID":"BRB128","Name":"حلاقة و تصفيف الشعر للرجال","District_ID":"Dahariz al Shamaliyya","Gov_ID":"2","Wlyt_ID":"Salalah","Road_ID":"100011","Latitude":17.020207379999999,"Longitude":54.15751779,"GlobalID":"{266860A9-CAC2-4861-86D0-C81F91A85CAA}"}},{"type":"Feature","id":129,"geometry":{"type":"Point","coordinates":[197273.63410000037,1884169.7564000003]},"properties":{"OBJECTID":129,"Asset_ID":"BRB129","Name":"حلاق","District_ID":"Dahariz al Shamaliyya","Gov_ID":"2","Wlyt_ID":"Salalah","Road_ID":"100007","Latitude":17.021823210000001,"Longitude":54.156608579999997,"GlobalID":"{9B80E46A-B5CE-49B0-984B-C89C40351349}"}},{"type":"Feature","id":130,"geometry":{"type":"Point","coordinates":[197415.32199999969,1884177.5298999995]},"properties":{"OBJECTID":130,"Asset_ID":"BRB130","Name":"حلاقة و تصفيف الشعر","District_ID":"Dahariz al Shamaliyya","Gov_ID":"2","Wlyt_ID":"Salalah","Road_ID":"100010","Latitude":17.021941569999999,"Longitude":54.1579537,"GlobalID":"{B505CADD-D854-41A4-959A-07C130D67E3D}"}},{"type":"Feature","id":131,"geometry":{"type":"Point","coordinates":[197466.75040000025,1884171.6030999999]},"properties":{"OBJECTID":131,"Asset_ID":"BRB131","Name":"قص و تصفيف الشعر للرجال","District_ID":"Dahariz al Shamaliyya","Gov_ID":"2","Wlyt_ID":"Salalah","Road_ID":"100010","Latitude":17.021894809999999,"Longitude":54.158437120000002,"GlobalID":"{DBF13BB5-BC7C-433B-A68B-67FAC6E226FC}"}},{"type":"Feature","id":132,"geometry":{"type":"Point","coordinates":[197313.2862999998,1884046.3155000005]},"properties":{"OBJECTID":132,"Asset_ID":"BRB132","Name":"قص و تصفيف الشعر للرجال","District_ID":"Dahariz al Shamaliyya","Gov_ID":"2","Wlyt_ID":"Salalah","Road_ID":"100007","Latitude":17.020695759999999,"Longitude":54.157014199999999,"GlobalID":"{24228001-62B5-4D2C-9E72-038809A63CD9}"}},{"type":"Feature","id":133,"geometry":{"type":"Point","coordinates":[197380.64740000013,1883887.2683000006]},"properties":{"OBJECTID":133,"Asset_ID":"BRB133","Name":"قص وتصفيف الشعر والحلاقة للرجال","District_ID":"Dahariz al Shamaliyya","Gov_ID":"2","Wlyt_ID":"Salalah","Road_ID":"100007","Latitude":17.019289749999999,"Longitude":54.157670430000003,"GlobalID":"{9F1E2E2D-5763-41A2-A6E7-08898ADEB80B}"}},{"type":"Feature","id":134,"geometry":{"type":"Point","coordinates":[197345.9924999997,1883906.4930000007]},"properties":{"OBJECTID":134,"Asset_ID":"BRB134","Name":"قص وتصفيف الشعر والحلاقة للرجال","District_ID":"Dahariz al Shamaliyya","Gov_ID":"2","Wlyt_ID":"Salalah","Road_ID":"100007","Latitude":17.01946804,"Longitude":54.15736167,"GlobalID":"{6EC8873A-3FBE-47C6-96EA-9B808ADC61F6}"}},{"type":"Feature","id":135,"geometry":{"type":"Point","coordinates":[197284.75449999981,1884028.2950999998]},"properties":{"OBJECTID":135,"Asset_ID":"BRB135","Name":"قص وتصفيف الشعر والحلاقة للرجال","District_ID":"Dahariz al Shamaliyya","Gov_ID":"2","Wlyt_ID":"Salalah","Road_ID":"100007","Latitude":17.020557100000001,"Longitude":54.156759440000002,"GlobalID":"{A45EE104-8438-4D68-A4AC-10E7A9F3D547}"}},{"type":"Feature","id":136,"geometry":{"type":"Point","coordinates":[197557.71920000017,1884191.3213999998]},"properties":{"OBJECTID":136,"Asset_ID":"BRB136","Name":"قص وتصفيف الشعر والحلاقة للرجال","District_ID":"Dahariz al Shamaliyya","Gov_ID":"2","Wlyt_ID":"Salalah","Road_ID":"100010","Latitude":17.022077750000001,"Longitude":54.15928624,"GlobalID":"{8C269BA6-EAFA-459D-8F05-619D08B84BE1}"}},{"type":"Feature","id":137,"geometry":{"type":"Point","coordinates":[197691.78760000039,1884238.0460999999]},"properties":{"OBJECTID":137,"Asset_ID":"BRB137","Name":"قص وتصفيف الشعر والحلاقة للرجال","District_ID":"Dahariz al Shamaliyya","Gov_ID":"2","Wlyt_ID":"Salalah","Road_ID":"100010","Latitude":17.022473980000001,"Longitude":54.160546250000003,"GlobalID":"{28D2A1C5-4B4A-4B79-AF98-3F7DCA5DA3E9}"}},{"type":"Feature","id":138,"geometry":{"type":"Point","coordinates":[197490.32359999977,1884209.5183000006]},"properties":{"OBJECTID":138,"Asset_ID":"BRB138","Name":"قص وتصفيف الشعر والحلاقة للرجال","District_ID":"Dahariz al Shamaliyya","Gov_ID":"2","Wlyt_ID":"Salalah","Road_ID":"100010","Latitude":17.022204899999998,"Longitude":54.158655830000001,"GlobalID":"{02F088FC-48E6-478C-B782-386A113EC56A}"}},{"type":"Feature","id":139,"geometry":{"type":"Point","coordinates":[184474.43589999992,1885711.3135000002]},"properties":{"OBJECTID":139,"Asset_ID":"BRB139","Name":"قص و تصفيف الشعر","District_ID":"New Industrial Area","Gov_ID":"2","Wlyt_ID":"Salalah","Road_ID":"105278","Latitude":17.034026820000001,"Longitude":54.036305919999997,"GlobalID":"{C895470F-8135-4D78-871F-4DFE2D5479F3}"}},{"type":"Feature","id":140,"geometry":{"type":"Point","coordinates":[185273.96520000044,1885590.5763000008]},"properties":{"OBJECTID":140,"Asset_ID":"BRB140","Name":"قص و تصفيف الشعر","District_ID":"New Industrial Area","Gov_ID":"2","Wlyt_ID":"Salalah","Road_ID":"105195","Latitude":17.033046200000001,"Longitude":54.043825660000003,"GlobalID":"{ECFB5D5F-CA21-4A70-96CC-C6E4A69FB2B8}"}},{"type":"Feature","id":141,"geometry":{"type":"Point","coordinates":[185327.51229999959,1885480.6336000003]},"properties":{"OBJECTID":141,"Asset_ID":"BRB141","Name":"قص و تصفيف الشعر","District_ID":"New Industrial Area","Gov_ID":"2","Wlyt_ID":"Salalah","Road_ID":"105195","Latitude":17.03206101,"Longitude":54.044343730000001,"GlobalID":"{2E7E13BC-F3BC-4C0A-9DE9-BA3FD7EB9C48}"}},{"type":"Feature","id":142,"geometry":{"type":"Point","coordinates":[184571.60699999984,1885583.2186999992]},"properties":{"OBJECTID":142,"Asset_ID":"BRB142","Name":"قص و تصفيف الشعر","District_ID":"New Industrial Area","Gov_ID":"2","Wlyt_ID":"Salalah","Road_ID":"105234","Latitude":17.032883760000001,"Longitude":54.037235969999998,"GlobalID":"{9D734C8A-DC41-483C-830B-1EBF32EA490F}"}},{"type":"Feature","id":143,"geometry":{"type":"Point","coordinates":[184955.29050000012,1885545.5767999999]},"properties":{"OBJECTID":143,"Asset_ID":"BRB143","Name":"قص و تصفيف الشعر","District_ID":"New Industrial Area","Gov_ID":"2","Wlyt_ID":"Salalah","Road_ID":"105254","Latitude":17.032596430000002,"Longitude":54.040841690000001,"GlobalID":"{2DB9F7E5-E330-42F3-87E5-3BAA62E875F1}"}},{"type":"Feature","id":144,"geometry":{"type":"Point","coordinates":[193032.97350000031,1884215.1765999999]},"properties":{"OBJECTID":144,"Asset_ID":"BRB144","Name":"قص و تصفيف الشعر","District_ID":"al Huseela","Gov_ID":"2","Wlyt_ID":"Salalah","Road_ID":"103816","Latitude":17.02167562,"Longitude":54.116827219999998,"GlobalID":"{8BBC9EA7-E6D4-415E-A296-1A3831230470}"}},{"type":"Feature","id":145,"geometry":{"type":"Point","coordinates":[193074.6584999999,1884134.7246000003]},"properties":{"OBJECTID":145,"Asset_ID":"BRB145","Name":"قص و تصفيف الشعر","District_ID":"al Huseela","Gov_ID":"2","Wlyt_ID":"Salalah","Road_ID":"103981","Latitude":17.020954840000002,"Longitude":54.117229510000001,"GlobalID":"{2C978EF4-0D4A-4999-B65F-5AD00B535B25}"}},{"type":"Feature","id":146,"geometry":{"type":"Point","coordinates":[193534.43510000035,1883749.6423000004]},"properties":{"OBJECTID":146,"Asset_ID":"BRB146","Name":"قص و تصفيف الشعر","District_ID":"al Huseela","Gov_ID":"2","Wlyt_ID":"Salalah","Road_ID":"105234","Latitude":17.01753944,"Longitude":54.121597139999999,"GlobalID":"{52F8B4C1-54FD-4E16-8242-CF8BB68747E0}"}},{"type":"Feature","id":147,"geometry":{"type":"Point","coordinates":[193974.29839999974,1883871.8748000003]},"properties":{"OBJECTID":147,"Asset_ID":"BRB147","Name":"حلاق","District_ID":"al Huseela","Gov_ID":"2","Wlyt_ID":"Salalah","Road_ID":"103824","Latitude":17.018701360000001,"Longitude":54.125707810000002,"GlobalID":"{E97F0B90-1FAE-4F34-8EE4-DEB5DF539947}"}},{"type":"Feature","id":148,"geometry":{"type":"Point","coordinates":[193597.39680000022,1884111.7805000003]},"properties":{"OBJECTID":148,"Asset_ID":"BRB148","Name":"حلاق","District_ID":"al Huseela","Gov_ID":"2","Wlyt_ID":"Salalah","Road_ID":"103867","Latitude":17.020817210000001,"Longitude":54.122137950000003,"GlobalID":"{A1A56242-0B72-4A61-89DF-D1469B2B42F3}"}},{"type":"Feature","id":149,"geometry":{"type":"Point","coordinates":[196108.36359999981,1892043.3046000004]},"properties":{"OBJECTID":149,"Asset_ID":"BRB149","Name":"قص وتصفيف الشعر والحلاقة للرجال","District_ID":"Salalah Wellfield","Gov_ID":"2","Wlyt_ID":"Salalah","Road_ID":"100530","Latitude":17.092756949999998,"Longitude":54.144611699999999,"GlobalID":"{35753CAB-DC67-4F85-9322-AAC4F5DB5987}"}},{"type":"Feature","id":150,"geometry":{"type":"Point","coordinates":[197289.10659999959,1891961.0050000008]},"properties":{"OBJECTID":150,"Asset_ID":"BRB150","Name":"حلاق ","District_ID":"al Sada al Shamaliyya","Gov_ID":"2","Wlyt_ID":"Salalah","Road_ID":"102547","Latitude":17.092169899999998,"Longitude":54.155707360000001,"GlobalID":"{7F98D35D-59CC-49D2-8F32-BF4547AB4785}"}},{"type":"Feature","id":151,"geometry":{"type":"Point","coordinates":[197716.96549999993,1890419.1239]},"properties":{"OBJECTID":151,"Asset_ID":"BRB151","Name":"حلاق ","District_ID":"al Sada al Shamaliyya","Gov_ID":"2","Wlyt_ID":"Salalah","Road_ID":"102647","Latitude":17.078305690000001,"Longitude":54.159934919999998,"GlobalID":"{9656665A-EC6D-4A5D-B9C3-BD201741F5EE}"}},{"type":"Feature","id":152,"geometry":{"type":"Point","coordinates":[197709.07039999962,1890415.4019000009]},"properties":{"OBJECTID":152,"Asset_ID":"BRB152","Name":"حلاق ","District_ID":"al Sada al Shamaliyya","Gov_ID":"2","Wlyt_ID":"Salalah","Road_ID":"102647","Latitude":17.078271050000001,"Longitude":54.159861319999997,"GlobalID":"{6F5131F3-5860-4E0F-B40E-C8AD8A9B7C38}"}},{"type":"Feature","id":153,"geometry":{"type":"Point","coordinates":[197620.75339999981,1890376.5850000009]},"properties":{"OBJECTID":153,"Asset_ID":"BRB153","Name":"حلاق ","District_ID":"al Sada al Shamaliyya","Gov_ID":"2","Wlyt_ID":"Salalah","Road_ID":"102603","Latitude":17.07790898,"Longitude":54.159037599999998,"GlobalID":"{339B5C58-4BD2-4D9F-A95D-698DBADA041E}"}},{"type":"Feature","id":154,"geometry":{"type":"Point","coordinates":[197641.90330000035,1890365.1655000001]},"properties":{"OBJECTID":154,"Asset_ID":"BRB154","Name":"حلاق ","District_ID":"al Sada al Shamaliyya","Gov_ID":"2","Wlyt_ID":"Salalah","Road_ID":"102472","Latitude":17.077808659999999,"Longitude":54.159237689999998,"GlobalID":"{67333488-8A1D-4C44-A333-57DD8EFCC123}"}},{"type":"Feature","id":155,"geometry":{"type":"Point","coordinates":[197681.74770000018,1890383.9200999998]},"properties":{"OBJECTID":155,"Asset_ID":"BRB155","Name":"حلاق ","District_ID":"al Sada al Shamaliyya","Gov_ID":"2","Wlyt_ID":"Salalah","Road_ID":"102472","Latitude":17.07798322,"Longitude":54.159609150000001,"GlobalID":"{80B74A50-9CB9-4BBA-BAB9-B6B22AC24EB2}"}},{"type":"Feature","id":156,"geometry":{"type":"Point","coordinates":[197688.26819999982,1890361.7150999997]},"properties":{"OBJECTID":156,"Asset_ID":"BRB156","Name":"حلاق ","District_ID":"al Sada al Shamaliyya","Gov_ID":"2","Wlyt_ID":"Salalah","Road_ID":"102472","Latitude":17.077783610000001,"Longitude":54.159673390000002,"GlobalID":"{145FA068-19D8-47DB-BC16-199FA918EFE9}"}},{"type":"Feature","id":157,"geometry":{"type":"Point","coordinates":[197711.66449999996,1890396.6791999992]},"properties":{"OBJECTID":157,"Asset_ID":"BRB157","Name":"حلاق ","District_ID":"al Sada al Shamaliyya","Gov_ID":"2","Wlyt_ID":"Salalah","Road_ID":"102472","Latitude":17.078102350000002,"Longitude":54.15988823,"GlobalID":"{631B87B2-C8CC-4001-B4EC-24C1C52B8F0E}"}},{"type":"Feature","id":158,"geometry":{"type":"Point","coordinates":[197728.97740000021,1890367.5307]},"properties":{"OBJECTID":158,"Asset_ID":"BRB158","Name":"قص وتصفيف الشعر والحلاقة للرجال","District_ID":"al Sada al Shamaliyya","Gov_ID":"2","Wlyt_ID":"Salalah","Road_ID":"102471","Latitude":17.077841469999999,"Longitude":54.160054729999999,"GlobalID":"{D18A565E-4CBB-4423-8EF0-B424E6757524}"}},{"type":"Feature","id":159,"geometry":{"type":"Point","coordinates":[197053.66289999988,1890854.8074999992]},"properties":{"OBJECTID":159,"Asset_ID":"BRB159","Name":"قص وتصفيف الشعر والحلاقة للرجال","District_ID":"al Sada al Shamaliyya","Gov_ID":"2","Wlyt_ID":"Salalah","Road_ID":"102601","Latitude":17.082151809999999,"Longitude":54.15364881,"GlobalID":"{36E67A95-BB7A-4BEA-A863-EE1AC5BF3784}"}},{"type":"Feature","id":160,"geometry":{"type":"Point","coordinates":[197072.69579999987,1890775.3276000004]},"properties":{"OBJECTID":160,"Asset_ID":"BRB160","Name":"حلاق","District_ID":"al Sada al Shamaliyya","Gov_ID":"2","Wlyt_ID":"Salalah","Road_ID":"102616","Latitude":17.081436750000002,"Longitude":54.153838370000003,"GlobalID":"{FBAD9B1D-611D-4A49-B83A-C25AE2257490}"}},{"type":"Feature","id":161,"geometry":{"type":"Point","coordinates":[197081.15479999967,1890773.9177999999]},"properties":{"OBJECTID":161,"Asset_ID":"BRB161","Name":"حلاق","District_ID":"al Sada al Shamaliyya","Gov_ID":"2","Wlyt_ID":"Salalah","Road_ID":"102616","Latitude":17.08142514,"Longitude":54.153917960000001,"GlobalID":"{56E7B8B9-4B46-4F96-BA6D-7A6DB455E730}"}},{"type":"Feature","id":162,"geometry":{"type":"Point","coordinates":[196565.89049999975,1889615.2587000001]},"properties":{"OBJECTID":162,"Asset_ID":"BRB162","Name":"حلاق","District_ID":"al Sada al Shamaliyya","Gov_ID":"2","Wlyt_ID":"Salalah","Road_ID":"102500","Latitude":17.070896510000001,"Longitude":54.14924018,"GlobalID":"{6FE7EDE6-8774-4BD2-8680-E0EDC23DA66A}"}},{"type":"Feature","id":163,"geometry":{"type":"Point","coordinates":[196566.16579999961,1889627.0991999991]},"properties":{"OBJECTID":163,"Asset_ID":"BRB163","Name":"حلاق","District_ID":"al Sada al Shamaliyya","Gov_ID":"2","Wlyt_ID":"Salalah","Road_ID":"102500","Latitude":17.071003449999999,"Longitude":54.149241140000001,"GlobalID":"{468BDF73-7DCE-4BFC-A7F2-8D7A1A0CD062}"}},{"type":"Feature","id":164,"geometry":{"type":"Point","coordinates":[197333.58019999973,1891944.8874999993]},"properties":{"OBJECTID":164,"Asset_ID":"BRB164","Name":"قص وتصفيف الشعر والحلاقة للرجال","District_ID":"al Sada al Shamaliyya","Gov_ID":"2","Wlyt_ID":"Salalah","Road_ID":"102558","Latitude":17.092030250000001,"Longitude":54.156127069999997,"GlobalID":"{27609BF6-1EC2-4A96-8DBF-E47E1A7C8E71}"}},{"type":"Feature","id":165,"geometry":{"type":"Point","coordinates":[197295.87370000035,1891978.0565000009]},"properties":{"OBJECTID":165,"Asset_ID":"BRB165","Name":"حلاق","District_ID":"al Sada al Shamaliyya","Gov_ID":"2","Wlyt_ID":"Salalah","Road_ID":"102558","Latitude":17.092324730000001,"Longitude":54.155768549999998,"GlobalID":"{ED182F5C-AB09-44EB-AB21-0818E5BCF4A8}"}},{"type":"Feature","id":166,"geometry":{"type":"Point","coordinates":[197705.20370000042,1891195.6504999995]},"properties":{"OBJECTID":166,"Asset_ID":"BRB166","Name":"حلاق","District_ID":"al Sada al Shamaliyya","Gov_ID":"2","Wlyt_ID":"Salalah","Road_ID":"102558","Latitude":17.08531486,"Longitude":54.15971828,"GlobalID":"{DF7877AD-43E3-4FF7-84D2-69E92F00CDF2}"}},{"type":"Feature","id":167,"geometry":{"type":"Point","coordinates":[197839.99940000009,1891217.5614]},"properties":{"OBJECTID":167,"Asset_ID":"BRB167","Name":"حلاق","District_ID":"al Sada al Shamaliyya","Gov_ID":"2","Wlyt_ID":"Salalah","Road_ID":"102559","Latitude":17.085530420000001,"Longitude":54.16098066,"GlobalID":"{A555FE28-A9D7-4AEC-91FB-904179878625}"}},{"type":"Feature","id":168,"geometry":{"type":"Point","coordinates":[198747.32139999978,1892845.6188999992]},"properties":{"OBJECTID":168,"Asset_ID":"BRB168","Name":"حلاق","District_ID":"Sahalnout al Shamaliyya","Gov_ID":"2","Wlyt_ID":"Salalah","Road_ID":"102656","Latitude":17.1003483,"Longitude":54.169275919999997,"GlobalID":"{D50B3F65-CE7B-41B8-9A74-1FA3679DB87D}"}},{"type":"Feature","id":169,"geometry":{"type":"Point","coordinates":[182918.77759999968,1882941.2085999995]},"properties":{"OBJECTID":169,"Asset_ID":"BRB169","Name":"حلاق","District_ID":"Auqad al Shamaliyya","Gov_ID":"2","Wlyt_ID":"Salalah","Road_ID":"105730","Latitude":17.008806870000001,"Longitude":54.022103970000003,"GlobalID":"{22C3E897-14C2-4784-A39C-13DD8BA118D4}"}},{"type":"Feature","id":170,"geometry":{"type":"Point","coordinates":[182776.63580000028,1882931.4155000001]},"properties":{"OBJECTID":170,"Asset_ID":"BRB170","Name":"حلاق","District_ID":"Auqad al Shamaliyya","Gov_ID":"2","Wlyt_ID":"Salalah","Road_ID":"105791","Latitude":17.008698930000001,"Longitude":54.020771740000001,"GlobalID":"{0ABC078C-1C69-4CCF-9429-EFD57C14EFE5}"}},{"type":"Feature","id":171,"geometry":{"type":"Point","coordinates":[182762.67929999996,1882981.6016000006]},"properties":{"OBJECTID":171,"Asset_ID":"BRB171","Name":"حلاق","District_ID":"Auqad al Shamaliyya","Gov_ID":"2","Wlyt_ID":"Salalah","Road_ID":"105791","Latitude":17.00915006,"Longitude":54.020633629999999,"GlobalID":"{D201DE05-06DF-4C9D-90E4-CAF964B014AF}"}},{"type":"Feature","id":172,"geometry":{"type":"Point","coordinates":[182782.36980000045,1883008.0943]},"properties":{"OBJECTID":172,"Asset_ID":"BRB172","Name":"حلاق","District_ID":"Auqad al Shamaliyya","Gov_ID":"2","Wlyt_ID":"Salalah","Road_ID":"105926","Latitude":17.009391919999999,"Longitude":54.020814590000001,"GlobalID":"{617E363C-3852-49A2-8000-FAA3F7D9B7A5}"}},{"type":"Feature","id":173,"geometry":{"type":"Point","coordinates":[182798.30119999964,1882988.4037999995]},"properties":{"OBJECTID":173,"Asset_ID":"BRB173","Name":"حلاق","District_ID":"Auqad al Shamaliyya","Gov_ID":"2","Wlyt_ID":"Salalah","Road_ID":"105926","Latitude":17.00921636,"Longitude":54.020966880000003,"GlobalID":"{95AB9A30-6573-4A96-BDBD-A2734C1E2527}"}},{"type":"Feature","id":174,"geometry":{"type":"Point","coordinates":[183035.60390000045,1882997.6762000006]},"properties":{"OBJECTID":174,"Asset_ID":"BRB174","Name":"حلاق","District_ID":"Auqad al Shamaliyya","Gov_ID":"2","Wlyt_ID":"Salalah","Road_ID":"102656","Latitude":17.009332659999998,"Longitude":54.023192020000003,"GlobalID":"{42B272CB-C572-4578-B1B6-5B411215E001}"}},{"type":"Feature","id":175,"geometry":{"type":"Point","coordinates":[182616.46920000017,1883079.9322999995]},"properties":{"OBJECTID":175,"Asset_ID":"BRB175","Name":"حلاق","District_ID":"Auqad al Shamaliyya","Gov_ID":"2","Wlyt_ID":"Salalah","Road_ID":"102656","Latitude":17.010017609999998,"Longitude":54.019247780000001,"GlobalID":"{04A03E19-E247-460A-9F99-033EA0D990DE}"}},{"type":"Feature","id":176,"geometry":{"type":"Point","coordinates":[182605.18609999958,1883091.3540000003]},"properties":{"OBJECTID":176,"Asset_ID":"BRB176","Name":"حلاق","District_ID":"Auqad al Shamaliyya","Gov_ID":"2","Wlyt_ID":"Salalah","Road_ID":"105777","Latitude":17.010119169999999,"Longitude":54.019140290000003,"GlobalID":"{79D6A9C2-359F-4BB7-97C3-36C2628F2443}"}},{"type":"Feature","id":177,"geometry":{"type":"Point","coordinates":[182444.23029999994,1883270.6539999992]},"properties":{"OBJECTID":177,"Asset_ID":"BRB177","Name":"حلاق","District_ID":"Auqad al Shamaliyya","Gov_ID":"2","Wlyt_ID":"Salalah","Road_ID":"105777","Latitude":17.01171561,"Longitude":54.017604489999997,"GlobalID":"{FF571509-215D-4806-AD59-B1EC97E9FBD6}"}},{"type":"Feature","id":178,"geometry":{"type":"Point","coordinates":[182486.7006000001,1883346.5735999998]},"properties":{"OBJECTID":178,"Asset_ID":"BRB178","Name":"حلاق","District_ID":"Auqad al Shamaliyya","Gov_ID":"2","Wlyt_ID":"Salalah","Road_ID":"105818","Latitude":17.012406800000001,"Longitude":54.017992110000002,"GlobalID":"{0B4257F6-AE06-4ECA-ADC6-5ABFC4554C3F}"}},{"type":"Feature","id":179,"geometry":{"type":"Point","coordinates":[183769.82180000003,1882988.1340999994]},"properties":{"OBJECTID":179,"Asset_ID":"BRB179","Name":"حلاق","District_ID":"Auqad al Shamaliyya","Gov_ID":"2","Wlyt_ID":"Salalah","Road_ID":"105596","Latitude":17.009347229999999,"Longitude":54.030082120000003,"GlobalID":"{1AF90DEB-13CE-4F1F-BC29-3F687628280B}"}},{"type":"Feature","id":180,"geometry":{"type":"Point","coordinates":[181356.48709999956,1882816.1495999992]},"properties":{"OBJECTID":180,"Asset_ID":"BRB180","Name":"حلاق","District_ID":"Auqad al Shamaliyya","Gov_ID":"2","Wlyt_ID":"Salalah","Road_ID":"105819","Latitude":17.007462799999999,"Longitude":54.007464050000003,"GlobalID":"{1C33C8AA-8839-40CF-A5B2-16526DC894D5}"}},{"type":"Feature","id":181,"geometry":{"type":"Point","coordinates":[181342.03419999965,1882809.3924000002]},"properties":{"OBJECTID":181,"Asset_ID":"BRB181","Name":"حلاق","District_ID":"Auqad al Shamaliyya","Gov_ID":"2","Wlyt_ID":"Salalah","Road_ID":"105819","Latitude":17.007399809999999,"Longitude":54.007329419999998,"GlobalID":"{7F29D009-A3FF-445F-A0A6-AB893185215E}"}},{"type":"Feature","id":182,"geometry":{"type":"Point","coordinates":[181263.16509999987,1882789.1443000007]},"properties":{"OBJECTID":182,"Asset_ID":"BRB182","Name":"حلاق","District_ID":"Auqad al Shamaliyya","Gov_ID":"2","Wlyt_ID":"Salalah","Road_ID":"105917","Latitude":17.007206140000001,"Longitude":54.006592359999999,"GlobalID":"{5D9BF61D-C846-48DE-8456-F10245AA6E77}"}},{"type":"Feature","id":183,"geometry":{"type":"Point","coordinates":[181255.8331000004,1882803.2217999995]},"properties":{"OBJECTID":183,"Asset_ID":"BRB183","Name":"حلاق","District_ID":"Auqad al Shamaliyya","Gov_ID":"2","Wlyt_ID":"Salalah","Road_ID":"105917","Latitude":17.0073322,"Longitude":54.006521550000002,"GlobalID":"{0F6E6DB0-F67B-4C2D-BA28-D47EAAD2E9A4}"}},{"type":"Feature","id":184,"geometry":{"type":"Point","coordinates":[183907.67929999996,1882108.7324999999]},"properties":{"OBJECTID":184,"Asset_ID":"BRB184","Name":"حلاق","District_ID":"Auqad al Shamaliyya","Gov_ID":"2","Wlyt_ID":"Salalah","Road_ID":"105566","Latitude":17.001427450000001,"Longitude":54.031500700000002,"GlobalID":"{FA2524CA-AEB3-4C51-9891-7887CA47A38C}"}},{"type":"Feature","id":185,"geometry":{"type":"Point","coordinates":[181745.79729999974,1883093.5073000006]},"properties":{"OBJECTID":185,"Asset_ID":"BRB185","Name":"حلاق","District_ID":"Auqad al Shamaliyya","Gov_ID":"2","Wlyt_ID":"Salalah","Road_ID":"105907","Latitude":17.010020260000001,"Longitude":54.011076879999997,"GlobalID":"{FA1BABAE-F9E4-4C77-BBA6-B65B0C8B48F0}"}}]
}