{
  "type" : "FeatureCollection",
  "crs" : {
    "type" : "name",
    "properties" : {
      "name" : "EPSG:32640"
    }
  },
  "features" : [{"type":"Feature","id":1,"geometry":{"type":"Point","coordinates":[195752.74289999995,1885323.4683999997]},"properties":{"OBJECTID":1,"Asset_ID":"BID1","Name":null,"District_ID":"Jerziz Farm","Gov_ID":"2","Wlyt_ID":"Salalah","Road_ID":"100418","Latitude":17.032041929999998,"Longitude":54.142197269999997,"GlobalID":"{390397C2-DAA6-45D5-8CAF-93691DAAA509}"}},{"type":"Feature","id":2,"geometry":{"type":"Point","coordinates":[186815.49859999958,1883817.6263999995]},"properties":{"OBJECTID":2,"Asset_ID":"BID2","Name":null,"District_ID":"New Industrial Area","Gov_ID":"2","Wlyt_ID":"Salalah","Road_ID":"102645","Latitude":17.017250799999999,"Longitude":54.058541429999998,"GlobalID":"{DE50835F-4657-4847-982C-EC40CD35B5F9}"}},{"type":"Feature","id":3,"geometry":{"type":"Point","coordinates":[187286.92850000039,1887223.2556999996]},"properties":{"OBJECTID":3,"Asset_ID":"BID3","Name":null,"District_ID":"New Industrial Area","Gov_ID":"2","Wlyt_ID":"Salalah","Road_ID":"105160","Latitude":17.048059339999998,"Longitude":54.062484589999997,"GlobalID":"{FE465BAD-1357-4A5F-B869-64A52C44AB95}"}}]
}