{
  "type" : "FeatureCollection",
  "crs" : {
    "type" : "name",
    "properties" : {
      "name" : "EPSG:32640"
    }
  },
  "features" : [{"type":"Feature","id":2,"geometry":{"type":"Point","coordinates":[190333.25829999987,1884211.2947000004]},"properties":{"OBJECTID":2,"Asset_ID":"BS2","Name":"mwasalat","District_ID":"Salalah al Jadida","Gov_ID":"Dhofar Governorate","Wlyt_ID":"Salalah","Road_ID":"104387","Latitude":17.021279660000001,"Longitude":54.091494490000002,"GlobalID":"{4A0A9EDA-DDB4-4901-AD2D-B522F681D85B}"}},{"type":"Feature","id":3,"geometry":{"type":"Point","coordinates":[190420.71420000028,1883942.6914000008]},"properties":{"OBJECTID":3,"Asset_ID":"BS3","Name":"mwasalat","District_ID":"Markaz al Madena","Gov_ID":"Dhofar Governorate","Wlyt_ID":"Salalah","Road_ID":"104387","Latitude":17.018866500000001,"Longitude":54.092352609999999,"GlobalID":"{A00E782C-F9DD-4AB1-8E6D-6FBB6937E73A}"}},{"type":"Feature","id":4,"geometry":{"type":"Point","coordinates":[190230.29110000003,1883471.9732000008]},"properties":{"OBJECTID":4,"Asset_ID":"BS4","Name":"mwasalat","District_ID":"Salalah al Wousta","Gov_ID":"Dhofar Governorate","Wlyt_ID":"Salalah","Road_ID":"104459","Latitude":17.014591370000002,"Longitude":54.090631479999999,"GlobalID":"{C358117F-B4BC-425F-B68F-CC5BF1646A67}"}},{"type":"Feature","id":5,"geometry":{"type":"Point","coordinates":[190182.27610000037,1883476.9616999999]},"properties":{"OBJECTID":5,"Asset_ID":"BS5","Name":"mwasalat","District_ID":"Salalah al Jadida","Gov_ID":"Dhofar Governorate","Wlyt_ID":"Salalah","Road_ID":"103812","Latitude":17.014629960000001,"Longitude":54.090180240000002,"GlobalID":"{9229AC49-D7A6-4AEC-9C40-AE0352000188}"}},{"type":"Feature","id":6,"geometry":{"type":"Point","coordinates":[189090.79279999994,1883106.4046]},"properties":{"OBJECTID":6,"Asset_ID":"BS6","Name":"mwasalat","District_ID":"Salalah al Gharbiyya","Gov_ID":"Dhofar Governorate","Wlyt_ID":"Salalah","Road_ID":"103812","Latitude":17.011137850000001,"Longitude":54.079990549999998,"GlobalID":"{4C64377C-CB33-4CAB-B9B3-2AA78E2CD375}"}},{"type":"Feature","id":7,"geometry":{"type":"Point","coordinates":[188782.90450000018,1883047.3991]},"properties":{"OBJECTID":7,"Asset_ID":"BS7","Name":"mwasalat","District_ID":"Salalah al Jadida","Gov_ID":"Dhofar Governorate","Wlyt_ID":"Salalah","Road_ID":"103812","Latitude":17.01056367,"Longitude":54.077109919999998,"GlobalID":"{6D838B63-5562-499C-B805-8EA5B5EBA09E}"}},{"type":"Feature","id":8,"geometry":{"type":"Point","coordinates":[188200.25519999955,1882856.0406999998]},"properties":{"OBJECTID":8,"Asset_ID":"BS8","Name":"mwasalat","District_ID":"al Wadi","Gov_ID":"Dhofar Governorate","Wlyt_ID":"Salalah","Road_ID":"104327","Latitude":17.008757500000002,"Longitude":54.07166986,"GlobalID":"{56B7605C-34D3-4FD5-A3BB-0038976B3405}"}},{"type":"Feature","id":9,"geometry":{"type":"Point","coordinates":[187142.79550000001,1882507.5813999996]},"properties":{"OBJECTID":9,"Asset_ID":"BS9","Name":"mwasalat","District_ID":"al Wadi","Gov_ID":"Dhofar Governorate","Wlyt_ID":"Salalah","Road_ID":"103812","Latitude":17.005468669999999,"Longitude":54.061797079999998,"GlobalID":"{B933AB8E-35AA-45AA-8C45-F31161BBF281}"}},{"type":"Feature","id":10,"geometry":{"type":"Point","coordinates":[187158.54059999995,1882490.9009000007]},"properties":{"OBJECTID":10,"Asset_ID":"BS10","Name":"mwasalat","District_ID":"al Wadi","Gov_ID":"Dhofar Governorate","Wlyt_ID":"Salalah","Road_ID":"103812","Latitude":17.005320220000002,"Longitude":54.061947160000003,"GlobalID":"{94FFF6BA-7BA2-4AA4-A7D4-37DC2D7D7F8D}"}},{"type":"Feature","id":11,"geometry":{"type":"Point","coordinates":[189529.00739999954,1883282.6023999993]},"properties":{"OBJECTID":11,"Asset_ID":"BS11","Name":"mwasalat","District_ID":"Salalah al Jadida","Gov_ID":"Dhofar Governorate","Wlyt_ID":"Salalah","Road_ID":"104212","Latitude":17.01278752,"Longitude":54.08407768,"GlobalID":"{C329A140-B2C7-45A2-B1E1-A957091036D8}"}},{"type":"Feature","id":12,"geometry":{"type":"Point","coordinates":[198430.7807,1885743.9649]},"properties":{"OBJECTID":12,"Asset_ID":"BS12","Name":"mwasalat","District_ID":"al Sada al Janubiyya","Gov_ID":"Dhofar Governorate","Wlyt_ID":"Salalah","Road_ID":"100418","Latitude":17.036190319999999,"Longitude":54.167272480000001,"GlobalID":"{5EA81B19-4E50-47CE-8378-2037AFBB6D90}"}},{"type":"Feature","id":13,"geometry":{"type":"Point","coordinates":[198398.53220000025,1885709.6144999992]},"properties":{"OBJECTID":13,"Asset_ID":"BS13","Name":"mwasalat","District_ID":"Dahariz al Shamaliyya","Gov_ID":"Dhofar Governorate","Wlyt_ID":"Salalah","Road_ID":"100418","Latitude":17.035875969999999,"Longitude":54.166974510000003,"GlobalID":"{1234821D-4D4B-48BB-9C82-66F50A851D24}"}},{"type":"Feature","id":14,"geometry":{"type":"Point","coordinates":[198697.17599999998,1885730.8552999999]},"properties":{"OBJECTID":14,"Asset_ID":"BS14","Name":"mwasalat","District_ID":"al Sada al Janubiyya","Gov_ID":"Dhofar Governorate","Wlyt_ID":"Salalah","Road_ID":"100418","Latitude":17.03610681,"Longitude":54.169774369999999,"GlobalID":"{6D811651-004B-41A1-A390-A0050F976889}"}},{"type":"Feature","id":15,"geometry":{"type":"Point","coordinates":[198624.0064000003,1885701.2492999993]},"properties":{"OBJECTID":15,"Asset_ID":"BS15","Name":"mwasalat","District_ID":"Dahariz al Shamaliyya","Gov_ID":"Dhofar Governorate","Wlyt_ID":"Salalah","Road_ID":"100418","Latitude":17.03582995,"Longitude":54.169091700000003,"GlobalID":"{4124AABB-8A00-4B9E-89A0-24489729A29C}"}},{"type":"Feature","id":16,"geometry":{"type":"Point","coordinates":[198023.56819999963,1885724.6626999993]},"properties":{"OBJECTID":16,"Asset_ID":"BS16","Name":"mwasalat","District_ID":"Dahariz al Shamaliyya","Gov_ID":"Dhofar Governorate","Wlyt_ID":"Salalah","Road_ID":"100418","Latitude":17.035962720000001,"Longitude":54.163453459999999,"GlobalID":"{48B210E9-63F6-4EE2-8286-CFD823AB8976}"}},{"type":"Feature","id":17,"geometry":{"type":"Point","coordinates":[197265.45760000031,1885798.2745999992]},"properties":{"OBJECTID":17,"Asset_ID":"BS17","Name":"mwasalat","District_ID":"al Sada al Janubiyya","Gov_ID":"Dhofar Governorate","Wlyt_ID":"Salalah","Road_ID":"100418","Latitude":17.036527830000001,"Longitude":54.156328639999998,"GlobalID":"{FE6321DE-2BD8-41C1-979B-B81A293F5A53}"}},{"type":"Feature","id":18,"geometry":{"type":"Point","coordinates":[196817.66270000022,1885820.2331000008]},"properties":{"OBJECTID":18,"Asset_ID":"BS18","Name":"mwasalat","District_ID":"al Sada al Janubiyya","Gov_ID":"Dhofar Governorate","Wlyt_ID":"Salalah","Road_ID":"100418","Latitude":17.0366672,"Longitude":54.152123150000001,"GlobalID":"{2E438065-5700-4718-A8B2-B9EA158456F8}"}},{"type":"Feature","id":19,"geometry":{"type":"Point","coordinates":[196330.69149999972,1885669.1575000007]},"properties":{"OBJECTID":19,"Asset_ID":"BS19","Name":"mwasalat","District_ID":"Dahariz al Shamaliyya","Gov_ID":"Dhofar Governorate","Wlyt_ID":"Salalah","Road_ID":"100124","Latitude":17.03523912,"Longitude":54.147573710000003,"GlobalID":"{6FFD7CAF-F3BF-4383-8B68-422B9555AE24}"}},{"type":"Feature","id":20,"geometry":{"type":"Point","coordinates":[196258.47869999986,1885617.0266999993]},"properties":{"OBJECTID":20,"Asset_ID":"BS20","Name":"mwasalat","District_ID":"Dahariz al Shamaliyya","Gov_ID":"Dhofar Governorate","Wlyt_ID":"Salalah","Road_ID":"100124","Latitude":17.034758950000001,"Longitude":54.14690315,"GlobalID":"{43679ABF-862C-4F9C-8578-BB59CBA1A982}"}},{"type":"Feature","id":21,"geometry":{"type":"Point","coordinates":[196206.16679999977,1885671.2149999999]},"properties":{"OBJECTID":21,"Asset_ID":"BS21","Name":"mwasalat","District_ID":"al Sada al Janubiyya","Gov_ID":"Dhofar Governorate","Wlyt_ID":"Salalah","Road_ID":"100418","Latitude":17.035241280000001,"Longitude":54.146404799999999,"GlobalID":"{BF067D87-2F75-4B4A-829D-1C020A7AC33F}"}},{"type":"Feature","id":22,"geometry":{"type":"Point","coordinates":[196047.42050000001,1885467.3007999994]},"properties":{"OBJECTID":22,"Asset_ID":"BS22","Name":"mwasalat","District_ID":"Dahariz al Shamaliyya","Gov_ID":"Dhofar Governorate","Wlyt_ID":"Salalah","Road_ID":"100124","Latitude":17.033379360000001,"Longitude":54.144942970000002,"GlobalID":"{360FF758-C53B-4287-9DE8-3489C8CCC608}"}},{"type":"Feature","id":23,"geometry":{"type":"Point","coordinates":[185243.41069999989,1882454.284]},"properties":{"OBJECTID":23,"Asset_ID":"BS23","Name":"mwasalat","District_ID":"Mustashfa al Sultan Qboos","Gov_ID":"2","Wlyt_ID":"Salalah","Road_ID":"100002","Latitude":17.004729350000002,"Longitude":54.043983750000002,"GlobalID":"{574ADF30-C42C-45A5-881E-9A9D9E7C0AEA}"}},{"type":"Feature","id":24,"geometry":{"type":"Point","coordinates":[185220.36510000005,1882431.7550000008]},"properties":{"OBJECTID":24,"Asset_ID":"BS24","Name":"mwasalat","District_ID":"Auqad al Janubiyya","Gov_ID":"2","Wlyt_ID":"Salalah","Road_ID":"100002","Latitude":17.004522829999999,"Longitude":54.043770719999998,"GlobalID":"{A64AB7D0-30C3-46DD-A356-96FACCDB04C2}"}},{"type":"Feature","id":25,"geometry":{"type":"Point","coordinates":[185220.38370000012,1882982.8781000003]},"properties":{"OBJECTID":25,"Asset_ID":"BS25","Name":"mwasalat","District_ID":"New Industrial Area","Gov_ID":"2","Wlyt_ID":"Salalah","Road_ID":"102645","Latitude":17.009498069999999,"Longitude":54.043692790000001,"GlobalID":"{09708BCD-EA69-4E02-AFD4-AE20572F5FA8}"}},{"type":"Feature","id":26,"geometry":{"type":"Point","coordinates":[185193.43379999977,1882860.1531000007]},"properties":{"OBJECTID":26,"Asset_ID":"BS26","Name":"mwasalat","District_ID":"Mustashfa al Sultan Qboos","Gov_ID":"2","Wlyt_ID":"Salalah","Road_ID":"105482","Latitude":17.0083865,"Longitude":54.043457320000002,"GlobalID":"{C3F3A529-9B14-41D0-8811-EA9BCFA0D8F2}"}},{"type":"Feature","id":27,"geometry":{"type":"Point","coordinates":[184617.26260000002,1882238.4721000008]},"properties":{"OBJECTID":27,"Asset_ID":"BS27","Name":"mwasalat","District_ID":"Auqad al Shamaliyya","Gov_ID":"2","Wlyt_ID":"Salalah","Road_ID":"102645","Latitude":17.002695679999999,"Longitude":54.03813967,"GlobalID":"{C590B7BA-BA3C-443E-BB4A-3EDD118EC929}"}},{"type":"Feature","id":28,"geometry":{"type":"Point","coordinates":[184587.6091,1882161.4389999993]},"properties":{"OBJECTID":28,"Asset_ID":"BS28","Name":"mwasalat","District_ID":"Auqad al Janubiyya","Gov_ID":"2","Wlyt_ID":"Salalah","Road_ID":"102645","Latitude":17.001996219999999,"Longitude":54.037872389999997,"GlobalID":"{27A5DF28-0479-4D7A-B9BB-16D9BAD94D29}"}},{"type":"Feature","id":29,"geometry":{"type":"Point","coordinates":[184020.69790000003,1881644.8500999995]},"properties":{"OBJECTID":29,"Asset_ID":"BS29","Name":"mwasalat","District_ID":"Auqad al Shamaliyya","Gov_ID":"2","Wlyt_ID":"Salalah","Road_ID":"102645","Latitude":16.997255289999998,"Longitude":54.032627009999999,"GlobalID":"{4666AA52-80ED-49FC-91B3-9B8ED6877665}"}},{"type":"Feature","id":30,"geometry":{"type":"Point","coordinates":[184089.6453999998,1881663.8573000003]},"properties":{"OBJECTID":30,"Asset_ID":"BS30","Name":"mwasalat","District_ID":"Auqad al Janubiyya","Gov_ID":"2","Wlyt_ID":"Salalah","Road_ID":"102645","Latitude":16.9974363,"Longitude":54.033271159999998,"GlobalID":"{F1045025-CF29-49D6-AB35-B00E48CBB73F}"}},{"type":"Feature","id":31,"geometry":{"type":"Point","coordinates":[183299.67289999966,1880903.375]},"properties":{"OBJECTID":31,"Asset_ID":"BS31","Name":"mwasalat","District_ID":"Auqad al Janubiyya","Gov_ID":"2","Wlyt_ID":"Salalah","Road_ID":"102645","Latitude":16.99046302,"Longitude":54.025968089999999,"GlobalID":"{28690503-E5FA-4C50-9D2E-270C574D6168}"}},{"type":"Feature","id":32,"geometry":{"type":"Point","coordinates":[183137.05229999963,1880834.3261999991]},"properties":{"OBJECTID":32,"Asset_ID":"BS32","Name":"mwasalat","District_ID":"Auqad al Shamaliyya","Gov_ID":"2","Wlyt_ID":"Salalah","Road_ID":"102645","Latitude":16.9898174,"Longitude":54.024452310000001,"GlobalID":"{DCBC41E4-4C60-4058-9C70-10D3E3560085}"}},{"type":"Feature","id":33,"geometry":{"type":"Point","coordinates":[182128.43969999999,1880137.4364999998]},"properties":{"OBJECTID":33,"Asset_ID":"BS33","Name":"mwasalat","District_ID":"Wadi Adhan","Gov_ID":"2","Wlyt_ID":"Salalah","Road_ID":"102645","Latitude":16.9833879,"Longitude":54.015089719999999,"GlobalID":"{D6D7B5FA-CC8C-43E3-8BE4-B332A401E47E}"}},{"type":"Feature","id":34,"geometry":{"type":"Point","coordinates":[181989.41370000038,1879999.1513999999]},"properties":{"OBJECTID":34,"Asset_ID":"BS34","Name":"mwasalat","District_ID":"Wadi Adhan","Gov_ID":"2","Wlyt_ID":"Salalah","Road_ID":"102645","Latitude":16.98212045,"Longitude":54.01380528,"GlobalID":"{D7358AAD-7104-446E-99A0-F28799432AB5}"}},{"type":"Feature","id":35,"geometry":{"type":"Point","coordinates":[196391.96329999994,1891722.1281000003]},"properties":{"OBJECTID":35,"Asset_ID":"BS35","Name":"mwasalat","District_ID":"Salalah Wellfield","Gov_ID":"2","Wlyt_ID":"Salalah","Road_ID":"100530","Latitude":17.089894820000001,"Longitude":54.147318169999998,"GlobalID":"{5D0E6085-96F3-418D-8AD4-CBEDDF99BE34}"}},{"type":"Feature","id":36,"geometry":{"type":"Point","coordinates":[196383.84100000001,1891702.8582000006]},"properties":{"OBJECTID":36,"Asset_ID":"BS36","Name":"mwasalat","District_ID":"Salalah Wellfield","Gov_ID":"2","Wlyt_ID":"Salalah","Road_ID":"100530","Latitude":17.089719769999999,"Longitude":54.147244569999998,"GlobalID":"{47303C82-BBC6-4255-82A6-F11328D4FBEB}"}},{"type":"Feature","id":37,"geometry":{"type":"Point","coordinates":[196345.25129999965,1890914.2545999996]},"properties":{"OBJECTID":37,"Asset_ID":"BS37","Name":"mwasalat","District_ID":"Salalah Wellfield","Gov_ID":"2","Wlyt_ID":"Salalah","Road_ID":"100530","Latitude":17.08259499,"Longitude":54.146990709999997,"GlobalID":"{896E15AA-292D-4B7E-809A-3D9A2C9193A5}"}},{"type":"Feature","id":38,"geometry":{"type":"Point","coordinates":[196000.38609999977,1892020.2821999993]},"properties":{"OBJECTID":38,"Asset_ID":"BS38","Name":"mwasalat","District_ID":"Salalah Wellfield","Gov_ID":"2","Wlyt_ID":"Salalah","Road_ID":"100530","Latitude":17.092534799999999,"Longitude":54.143601220000001,"GlobalID":"{54A088E1-EACA-4DD3-A042-89E90F86BAB1}"}}]
}