{
  "type" : "FeatureCollection",
  "crs" : {
    "type" : "name",
    "properties" : {
      "name" : "EPSG:32640"
    }
  },
  "features" : [{"type":"Feature","id":1,"geometry":{"type":"Point","coordinates":[201149.50380000006,1893326.4750999995]},"properties":{"OBJECTID":1,"Asset_ID":"BTC1","Name":"ملحمة","District_ID":null,"Gov_ID":"Dhofar Governorate","Wlyt_ID":"Salalah","Road_ID":"102005","Latitude":17.105003809999999,"Longitude":54.191763109999997,"GlobalID":"{F707A1C1-F94A-4F80-AB3A-49682EC15929}"}},{"type":"Feature","id":2,"geometry":{"type":"Point","coordinates":[203948.09460000042,1894066.5447000004]},"properties":{"OBJECTID":2,"Asset_ID":"BTC2","Name":"ملحمة بن وزح","District_ID":null,"Gov_ID":"Dhofar Governorate","Wlyt_ID":"Salalah","Road_ID":"102034","Latitude":17.112048550000001,"Longitude":54.217938889999999,"GlobalID":"{92BC8A01-46E5-41C9-B7C2-FD2DD52442CE}"}},{"type":"Feature","id":3,"geometry":{"type":"Point","coordinates":[196389.69369999971,1892673.6403000001]},"properties":{"OBJECTID":3,"Asset_ID":"BTC3","Name":"ملحمة","District_ID":null,"Gov_ID":"Dhofar Governorate","Wlyt_ID":"Salalah","Road_ID":"102167","Latitude":17.09848496,"Longitude":54.14716602,"GlobalID":"{BF6B8658-53EB-4A63-B6D7-4A603B9E57B1}"}},{"type":"Feature","id":4,"geometry":{"type":"Point","coordinates":[187876.01329999976,1889320.8658000007]},"properties":{"OBJECTID":4,"Asset_ID":"BTC4","Name":"مسلخ البلدية\r\n","District_ID":null,"Gov_ID":"Dhofar Governorate","Wlyt_ID":"Salalah","Road_ID":"102353","Latitude":17.067075639999999,"Longitude":54.067717180000002,"GlobalID":"{603C1880-11E9-4BC0-A94E-2A540D3107FE}"}},{"type":"Feature","id":5,"geometry":{"type":"Point","coordinates":[198496.01370000001,1896310.3161999993]},"properties":{"OBJECTID":5,"Asset_ID":"BTC5","Name":"ملحمة\r\n","District_ID":null,"Gov_ID":"Dhofar Governorate","Wlyt_ID":"Salalah","Road_ID":"101858","Latitude":17.131595740000002,"Longitude":54.166442789999998,"GlobalID":"{8609A299-D570-4F51-B11E-C277B6C311B6}"}},{"type":"Feature","id":6,"geometry":{"type":"Point","coordinates":[193753.00810000021,1892093.8873999994]},"properties":{"OBJECTID":6,"Asset_ID":"BTC6","Name":"مؤسسة خالد الشحري للبيع الدجاج التركي\r\n","District_ID":null,"Gov_ID":"Dhofar Governorate","Wlyt_ID":"Salalah","Road_ID":"102172","Latitude":17.092900660000002,"Longitude":54.122493830000003,"GlobalID":"{CD4BC70C-757D-4DE6-BB08-88DBFEDE7889}"}},{"type":"Feature","id":7,"geometry":{"type":"Point","coordinates":[188320.69419999979,1890949.5588000007]},"properties":{"OBJECTID":7,"Asset_ID":"BTC7","Name":"مطعم و ملحمة","District_ID":null,"Gov_ID":"Dhofar Governorate","Wlyt_ID":"Salalah","Road_ID":"102206","Latitude":17.081839160000001,"Longitude":54.071661210000002,"GlobalID":"{34F7B465-076D-44CC-90D5-988A1620D766}"}},{"type":"Feature","id":8,"geometry":{"type":"Point","coordinates":[188493.13719999976,1890947.3943000007]},"properties":{"OBJECTID":8,"Asset_ID":"BTC8","Name":"ملحمة الوديعه\r\n","District_ID":null,"Gov_ID":"Dhofar Governorate","Wlyt_ID":"Salalah","Road_ID":"102206","Latitude":17.08184301,"Longitude":54.073280140000001,"GlobalID":"{E1E3F705-DCAF-4474-A297-A9EB64079215}"}},{"type":"Feature","id":9,"geometry":{"type":"Point","coordinates":[197803.81659999955,1884024.5638999995]},"properties":{"OBJECTID":9,"Asset_ID":"BTC9","Name":"حاشي ستيشن","District_ID":"Dahariz al Shamaliyya","Gov_ID":"Dhofar Governorate","Wlyt_ID":"Salalah","Road_ID":"100002","Latitude":17.020571310000001,"Longitude":54.161624250000003,"GlobalID":"{ABC62AE3-9583-4A11-9DD5-F37007220467}"}},{"type":"Feature","id":10,"geometry":{"type":"Point","coordinates":[198033.48029999994,1884071.2907999996]},"properties":{"OBJECTID":10,"Asset_ID":"BTC10","Name":"بيع اللحوم و منتجات اللحوم","District_ID":"Dahariz al Shamaliyya","Gov_ID":"Dhofar Governorate","Wlyt_ID":"Salalah","Road_ID":"100059","Latitude":17.021050049999999,"Longitude":54.163768949999998,"GlobalID":"{C74DAE5E-B2EC-4117-AD3D-4E12F3EC65E8}"}},{"type":"Feature","id":11,"geometry":{"type":"Point","coordinates":[189414.6157999998,1883810.4827999994]},"properties":{"OBJECTID":11,"Asset_ID":"BTC11","Name":"ملحمة","District_ID":"Salalah al Jadida","Gov_ID":"Dhofar Governorate","Wlyt_ID":"Salalah","Road_ID":"104187","Latitude":17.017537699999998,"Longitude":54.082930470000001,"GlobalID":"{80E6C828-A1D4-4117-B9A2-2768B362F4A7}"}},{"type":"Feature","id":12,"geometry":{"type":"Point","coordinates":[189318.85749999993,1883801.1995000001]},"properties":{"OBJECTID":12,"Asset_ID":"BTC12","Name":"مشاوي وملحمة\r\n","District_ID":"Salalah al Jadida","Gov_ID":"Dhofar Governorate","Wlyt_ID":"Salalah","Road_ID":"104187","Latitude":17.017441000000002,"Longitude":54.082033240000001,"GlobalID":"{B9D548EF-5A1E-4CC6-B29B-175B40FE8E66}"}},{"type":"Feature","id":13,"geometry":{"type":"Point","coordinates":[189139.89209999982,1883728.2106999997]},"properties":{"OBJECTID":13,"Asset_ID":"BTC13","Name":"ملحمة و مشاوي","District_ID":"Salalah al Jadida","Gov_ID":"Dhofar Governorate","Wlyt_ID":"Salalah","Road_ID":"104375","Latitude":17.01675797,"Longitude":54.080364179999997,"GlobalID":"{99B57FDD-94BE-4663-A38C-31C879A1088F}"}},{"type":"Feature","id":14,"geometry":{"type":"Point","coordinates":[189570.16249999963,1884144.8443999998]},"properties":{"OBJECTID":14,"Asset_ID":"BTC14","Name":"ملحمة","District_ID":"Salalah al Jadida","Gov_ID":"Dhofar Governorate","Wlyt_ID":"Salalah","Road_ID":"104268","Latitude":17.02057718,"Longitude":54.084343250000003,"GlobalID":"{2CCB5E2F-859E-4504-BD97-7350CA9DC0CB}"}},{"type":"Feature","id":15,"geometry":{"type":"Point","coordinates":[189101.57940000016,1884096.5315000005]},"properties":{"OBJECTID":15,"Asset_ID":"BTC15","Name":"ملحمة","District_ID":"Salalah al Jadida","Gov_ID":"Dhofar Governorate","Wlyt_ID":"Salalah","Road_ID":"104210","Latitude":17.020077910000001,"Longitude":54.079953089999997,"GlobalID":"{CD657539-5973-49EC-9940-4A2D5E4D6F87}"}},{"type":"Feature","id":16,"geometry":{"type":"Point","coordinates":[189189.46200000029,1883516.4236999992]},"properties":{"OBJECTID":16,"Asset_ID":"BTC16","Name":"تجارة اللحوم و منتجات اللحوم و الدواجن المذبوحة","District_ID":"Salalah al Jadida","Gov_ID":"Dhofar Governorate","Wlyt_ID":"Salalah","Road_ID":"104210","Latitude":17.014866380000001,"Longitude":54.080855489999998,"GlobalID":"{87CFF234-B509-42AC-BBC9-1A01BEB264F1}"}},{"type":"Feature","id":17,"geometry":{"type":"Point","coordinates":[189219.76420000009,1883381.3189000003]},"properties":{"OBJECTID":17,"Asset_ID":"BTC17","Name":"ملحمة و مشاوي","District_ID":"Salalah al Jadida","Gov_ID":"Dhofar Governorate","Wlyt_ID":"Salalah","Road_ID":"104211","Latitude":17.013637079999999,"Longitude":54.081162210000002,"GlobalID":"{0221FE74-3502-40EE-92FF-A95686773197}"}},{"type":"Feature","id":18,"geometry":{"type":"Point","coordinates":[189539.08669999987,1883246.1712999996]},"properties":{"OBJECTID":18,"Asset_ID":"BTC18","Name":"بيع اللحوم و منتجات اللحوم","District_ID":"Salalah al Gharbiyya","Gov_ID":"Dhofar Governorate","Wlyt_ID":"Salalah","Road_ID":"103812","Latitude":17.012493429999999,"Longitude":54.084169850000002,"GlobalID":"{D44A4DA4-5049-4C48-A261-2AB37AE85083}"}},{"type":"Feature","id":19,"geometry":{"type":"Point","coordinates":[197715.20449999999,1884581.8234999999]},"properties":{"OBJECTID":19,"Asset_ID":"BTC19","Name":"ملحمة بوشر","District_ID":"Dahariz al Shamaliyya","Gov_ID":"Dhofar Governorate","Wlyt_ID":"Salalah","Road_ID":"100008","Latitude":17.02563992,"Longitude":54.160716030000003,"GlobalID":"{CD45749C-E063-4C07-BA37-6DF8D23A5953}"}},{"type":"Feature","id":20,"geometry":{"type":"Point","coordinates":[197480.40969999973,1883851.1311000008]},"properties":{"OBJECTID":20,"Asset_ID":"BTC20","Name":"ذبح وبيع وتهيئة الدواجن والارانب والطيور\r\n","District_ID":"Dahariz al Shamaliyya","Gov_ID":"Dhofar Governorate","Wlyt_ID":"Salalah","Road_ID":"100002","Latitude":17.01898568,"Longitude":54.158648380000002,"GlobalID":"{36611858-0209-4755-A500-47755018075D}"}},{"type":"Feature","id":21,"geometry":{"type":"Point","coordinates":[188468.01919999998,1882799.4297000002]},"properties":{"OBJECTID":21,"Asset_ID":"BTC21","Name":"للبيع بالتجزئة في المتاجر المتخصصة للحوم و منتجات اللحوم","District_ID":"Salalah al Gharbiyya","Gov_ID":"2","Wlyt_ID":"Salalah","Road_ID":"104568","Latitude":17.00828259,"Longitude":54.074190170000001,"GlobalID":"{6985E99D-858F-448D-8E2A-6BB7E62C796E}"}},{"type":"Feature","id":22,"geometry":{"type":"Point","coordinates":[189395.26999999955,1882734.9507999998]},"properties":{"OBJECTID":22,"Asset_ID":"BTC22","Name":"ذبح و تهيئة الدواجن و الارانب و الطيور و البيع بالتجزئة للمواشي و الجمال و الاغنام","District_ID":"Salalah al Gharbiyya","Gov_ID":"2","Wlyt_ID":"Salalah","Road_ID":"103741","Latitude":17.007825449999999,"Longitude":54.082899410000003,"GlobalID":"{A8834E5B-8661-44B2-8197-52061A09D505}"}},{"type":"Feature","id":23,"geometry":{"type":"Point","coordinates":[197249.13159999996,1884363.0431999993]},"properties":{"OBJECTID":23,"Asset_ID":"BTC23","Name":"بيع اللحوم الطازجة لحم محلي و ابقار غنم ابل","District_ID":"Dahariz al Shamaliyya","Gov_ID":"2","Wlyt_ID":"Salalah","Road_ID":"100085","Latitude":17.02356795,"Longitude":54.156371370000002,"GlobalID":"{5EA61B35-6337-42F6-9CCF-19E645EF241A}"}},{"type":"Feature","id":24,"geometry":{"type":"Point","coordinates":[187900.38850000035,1882458.8461000007]},"properties":{"OBJECTID":24,"Asset_ID":"BTC24","Name":"ملحمة","District_ID":"Salalah al Gharbiyya","Gov_ID":"2","Wlyt_ID":"Salalah","Road_ID":"103741","Latitude":17.005131240000001,"Longitude":54.068912089999998,"GlobalID":"{046DC9A9-BFD6-4BBD-A471-8D4B95AC7534}"}},{"type":"Feature","id":25,"geometry":{"type":"Point","coordinates":[197534.1015999997,1884188.0201999992]},"properties":{"OBJECTID":25,"Asset_ID":"BTC25","Name":"تجارة اللحوم الطازجة و المثلجة و الاسماك","District_ID":"Dahariz al Shamaliyya","Gov_ID":"2","Wlyt_ID":"Salalah","Road_ID":"100010","Latitude":17.02202441,"Longitude":54.159058620000003,"GlobalID":"{E46D68AD-5A93-4CEB-9788-A122A0B721CC}"}},{"type":"Feature","id":26,"geometry":{"type":"Point","coordinates":[183974.56680000015,1885349.7931999993]},"properties":{"OBJECTID":26,"Asset_ID":"BTC26","Name":"يع اللحوم و منتجات اللحوم","District_ID":"New Industrial Area","Gov_ID":"2","Wlyt_ID":"Salalah","Road_ID":"105279","Latitude":17.030694759999999,"Longitude":54.031666809999997,"GlobalID":"{CB6FC960-3E8C-458A-A57A-26A857F6D1CD}"}},{"type":"Feature","id":27,"geometry":{"type":"Point","coordinates":[184005.22350000031,1885358.4154000003]},"properties":{"OBJECTID":27,"Asset_ID":"BTC27","Name":"يع اللحوم و منتجات اللحوم","District_ID":"New Industrial Area","Gov_ID":"2","Wlyt_ID":"Salalah","Road_ID":"105279","Latitude":17.030776800000002,"Longitude":54.031953250000001,"GlobalID":"{C3784410-DB54-4301-9E8F-51C3AF9D7FF3}"}},{"type":"Feature","id":28,"geometry":{"type":"Point","coordinates":[184959.60690000001,1885548.7160999998]},"properties":{"OBJECTID":28,"Asset_ID":"BTC28","Name":"يع اللحوم و منتجات اللحوم","District_ID":"New Industrial Area","Gov_ID":"2","Wlyt_ID":"Salalah","Road_ID":"105254","Latitude":17.032625360000001,"Longitude":54.040881749999997,"GlobalID":"{D2EEBA5B-61A5-48E7-94A7-EA8F0F4A5546}"}},{"type":"Feature","id":29,"geometry":{"type":"Point","coordinates":[193972.90180000011,1883836.5036999993]},"properties":{"OBJECTID":29,"Asset_ID":"BTC29","Name":"تجارة اللحوم  و منتجات اللحوم و الدواجن المذبوحة و الاسماك ","District_ID":"al Huseela","Gov_ID":"2","Wlyt_ID":"Salalah","Road_ID":"103824","Latitude":17.018395959999999,"Longitude":54.125700000000002,"GlobalID":"{62351E6B-27A8-4540-AEAA-A392E26E47FB}"}},{"type":"Feature","id":30,"geometry":{"type":"Point","coordinates":[194875.88190000039,1883448.3535999991]},"properties":{"OBJECTID":30,"Asset_ID":"BTC30","Name":"البشائر لبيع اللحوم","District_ID":"al Baleed","Gov_ID":"2","Wlyt_ID":"Salalah","Road_ID":"103741","Latitude":17.01516689,"Longitude":54.134152069999999,"GlobalID":"{A8DF3ED5-6AB1-4BCC-8F1D-DAE0F1552F58}"}},{"type":"Feature","id":31,"geometry":{"type":"Point","coordinates":[182881.12920000032,1882921.3669000007]},"properties":{"OBJECTID":31,"Asset_ID":"BTC31","Name":"بيع اللحوم ","District_ID":"Auqad al Shamaliyya","Gov_ID":"2","Wlyt_ID":"Salalah","Road_ID":"105730","Latitude":17.008622580000001,"Longitude":54.021753570000001,"GlobalID":"{2D8F5D63-B406-480E-BD25-9D3E99893560}"}},{"type":"Feature","id":32,"geometry":{"type":"Point","coordinates":[182709.87299999967,1882991.6258000005]},"properties":{"OBJECTID":32,"Asset_ID":"BTC32","Name":"بيع اللحوم و منتجاتها","District_ID":"Auqad al Shamaliyya","Gov_ID":"2","Wlyt_ID":"Salalah","Road_ID":"105801","Latitude":17.009233290000001,"Longitude":54.020136749999999,"GlobalID":"{1A48A9A6-C4EF-436B-8485-071AB39539FF}"}},{"type":"Feature","id":33,"geometry":{"type":"Point","coordinates":[182468.7341,1883245.8321000002]},"properties":{"OBJECTID":33,"Asset_ID":"BTC33","Name":"بيع اللحوم و منتجاتها","District_ID":"Auqad al Shamaliyya","Gov_ID":"2","Wlyt_ID":"Salalah","Road_ID":"105777","Latitude":17.01149491,"Longitude":54.017837950000001,"GlobalID":"{8EE84183-FB10-4AD5-9D6E-80255B6D0B70}"}},{"type":"Feature","id":34,"geometry":{"type":"Point","coordinates":[182511.37689999957,1883329.6284999996]},"properties":{"OBJECTID":34,"Asset_ID":"BTC34","Name":"ملحمة","District_ID":"Auqad al Shamaliyya","Gov_ID":"2","Wlyt_ID":"Salalah","Road_ID":"105786","Latitude":17.012257219999999,"Longitude":54.018226060000003,"GlobalID":"{926F8BE0-8359-4C76-8F44-84EB75C153CE}"}},{"type":"Feature","id":35,"geometry":{"type":"Point","coordinates":[182021.13210000005,1884114.2814000007]},"properties":{"OBJECTID":35,"Asset_ID":"BTC35","Name":"ملحمة","District_ID":"Auqad al Shamaliyya","Gov_ID":"2","Wlyt_ID":"Salalah","Road_ID":"105881","Latitude":17.01927293,"Longitude":54.013513949999997,"GlobalID":"{C13E685D-753B-4673-90B0-9DAFE7FB5A1F}"}},{"type":"Feature","id":36,"geometry":{"type":"Point","coordinates":[181784.75030000042,1883132.6897999998]},"properties":{"OBJECTID":36,"Asset_ID":"BTC36","Name":"ملحمة","District_ID":"Auqad al Shamaliyya","Gov_ID":"2","Wlyt_ID":"Salalah","Road_ID":"105907","Latitude":17.01037934,"Longitude":54.011436740000001,"GlobalID":"{85CA1147-FFB1-4997-B2B0-F01D4F4B7126}"}}]
}