{
  "type" : "FeatureCollection",
  "crs" : {
    "type" : "name",
    "properties" : {
      "name" : "EPSG:32640"
    }
  },
  "features" : [{"type":"Feature","id":1,"geometry":{"type":"Point","coordinates":[182488.75239999965,1885500.8787999991]},"properties":{"OBJECTID":1,"Asset_ID":"CFE1","Name":"coffee king","District_ID":"Auqad al Shamaliyya Extension","Gov_ID":"Dhofar Governorate","Wlyt_ID":"Salalah","Road_ID":"104830","Latitude":17.031854460000002,"Longitude":54.017703089999998,"GlobalID":"{136551E2-3009-4868-86E6-22187D4FC347}"}},{"type":"Feature","id":2,"geometry":{"type":"Point","coordinates":[182974.65419999976,1886335.5910999998]},"properties":{"OBJECTID":2,"Asset_ID":"CFE2","Name":"Coffee shop\r\n","District_ID":"Auqad al Shamaliyya Extension","Gov_ID":"Dhofar Governorate","Wlyt_ID":"Salalah","Road_ID":"104767","Latitude":17.0394565,"Longitude":54.02214317,"GlobalID":"{8E66CC18-6164-44C1-9E0D-0FEFB23E5452}"}},{"type":"Feature","id":3,"geometry":{"type":"Point","coordinates":[184236.73890000023,1886360.5742000006]},"properties":{"OBJECTID":3,"Asset_ID":"CFE3","Name":"BARQ WA RAAD MURABBA GM","District_ID":"Auqad al Shamaliyya Extension","Gov_ID":"Dhofar Governorate","Wlyt_ID":"Salalah","Road_ID":"104752","Latitude":17.039855360000001,"Longitude":54.033982940000001,"GlobalID":"{978FE61F-5424-435A-83C8-FFF37FCAC3BD}"}},{"type":"Feature","id":4,"geometry":{"type":"Point","coordinates":[187969.6958999997,1890485.8727000002]},"properties":{"OBJECTID":4,"Asset_ID":"CFE4","Name":"Hills Cafe (Ittin Square)","District_ID":null,"Gov_ID":"Dhofar Governorate","Wlyt_ID":"Salalah","Road_ID":"102265","Latitude":17.077605559999999,"Longitude":54.068432059999999,"GlobalID":"{638AFEC7-248E-46F9-B116-F428C8F180F1}"}},{"type":"Feature","id":5,"geometry":{"type":"Point","coordinates":[203959.70569999982,1894112.1458999999]},"properties":{"OBJECTID":5,"Asset_ID":"CFE5","Name":"Ain arzat","District_ID":null,"Gov_ID":"Dhofar Governorate","Wlyt_ID":"Salalah","Road_ID":"102034","Latitude":17.112461769999999,"Longitude":54.21804178,"GlobalID":"{D43C6058-5AE4-4CD5-B024-3C33B905BBD2}"}},{"type":"Feature","id":6,"geometry":{"type":"Point","coordinates":[196835.34059999976,1892742.2470999993]},"properties":{"OBJECTID":6,"Asset_ID":"CFE6","Name":"قهوة المجلس","District_ID":null,"Gov_ID":"Dhofar Governorate","Wlyt_ID":"Salalah","Road_ID":"102117","Latitude":17.099163260000001,"Longitude":54.15134029,"GlobalID":"{96171A0F-A7DF-467D-A80F-6E62C24D34C1}"}},{"type":"Feature","id":7,"geometry":{"type":"Point","coordinates":[198937.26599999983,1882996.6718000006]},"properties":{"OBJECTID":7,"Asset_ID":"CFE7","Name":"ARMAL CAFE","District_ID":"Dahariz al Janubiyya","Gov_ID":"Dhofar Governorate","Wlyt_ID":"Salalah","Road_ID":"100159","Latitude":17.011452739999999,"Longitude":54.172398659999999,"GlobalID":"{C5A6F9CB-1499-4BCE-853A-055B80D97F98}"}},{"type":"Feature","id":8,"geometry":{"type":"Point","coordinates":[198968.98180000018,1883005.9561000001]},"properties":{"OBJECTID":8,"Asset_ID":"CFE8","Name":"Le French","District_ID":"Dahariz al Janubiyya","Gov_ID":"Dhofar Governorate","Wlyt_ID":"Salalah","Road_ID":"100159","Latitude":17.011540700000001,"Longitude":54.172695019999999,"GlobalID":"{FB7549BC-13FD-4B1E-A0EF-3EF244B925EC}"}},{"type":"Feature","id":9,"geometry":{"type":"Point","coordinates":[198853.26070000045,1882944.2358999997]},"properties":{"OBJECTID":9,"Asset_ID":"CFE9","Name":"Lazurd Cafe - Dhareez","District_ID":"Dahariz al Janubiyya","Gov_ID":"Dhofar Governorate","Wlyt_ID":"Salalah","Road_ID":"100159","Latitude":17.01096836,"Longitude":54.171617490000003,"GlobalID":"{CB402B2E-BE37-48A0-9949-90A86F67AF8F}"}},{"type":"Feature","id":10,"geometry":{"type":"Point","coordinates":[198863.7921000002,1882946.6568999998]},"properties":{"OBJECTID":10,"Asset_ID":"CFE10","Name":"The Crepe Cafe","District_ID":"Dahariz al Janubiyya","Gov_ID":"Dhofar Governorate","Wlyt_ID":"Salalah","Road_ID":"100159","Latitude":17.01099159,"Longitude":54.171715990000003,"GlobalID":"{9B1EB827-9553-4139-9993-B8629C1D8756}"}},{"type":"Feature","id":11,"geometry":{"type":"Point","coordinates":[198923.83330000006,1882955.2514999993]},"properties":{"OBJECTID":11,"Asset_ID":"CFE11","Name":"HUROF CAFE SPECIALITY COFFEE","District_ID":"Dahariz al Janubiyya","Gov_ID":"Dhofar Governorate","Wlyt_ID":"Salalah","Road_ID":"100159","Latitude":17.011077019999998,"Longitude":54.172278230000003,"GlobalID":"{BBC96096-32C3-4ECD-B64B-153ACA04F78B}"}},{"type":"Feature","id":12,"geometry":{"type":"Point","coordinates":[198934.06209999975,1882955.5541999992]},"properties":{"OBJECTID":12,"Asset_ID":"CFE12","Name":"FROZ The Watefront","District_ID":"Dahariz al Janubiyya","Gov_ID":"Dhofar Governorate","Wlyt_ID":"Salalah","Road_ID":"100159","Latitude":17.011081090000001,"Longitude":54.172374169999998,"GlobalID":"{D159ABB3-454A-4CD3-AE7C-306FAA4A5818}"}},{"type":"Feature","id":13,"geometry":{"type":"Point","coordinates":[197995.69840000011,1882855.9433999993]},"properties":{"OBJECTID":13,"Asset_ID":"CFE13","Name":"Like Cafe","District_ID":"Dahariz al Janubiyya","Gov_ID":"Dhofar Governorate","Wlyt_ID":"Salalah","Road_ID":"100159","Latitude":17.01005915,"Longitude":54.163582409999997,"GlobalID":"{2C6196D9-95AD-459A-A803-DBBD59DFC1D5}"}},{"type":"Feature","id":14,"geometry":{"type":"Point","coordinates":[198183.73859999981,1882890.2821999993]},"properties":{"OBJECTID":14,"Asset_ID":"CFE14","Name":"CORDELIA CAFE","District_ID":"Dahariz al Janubiyya","Gov_ID":"Dhofar Governorate","Wlyt_ID":"Salalah","Road_ID":"100159","Latitude":17.010393780000001,"Longitude":54.165342240000001,"GlobalID":"{FE842427-93AD-4645-9EDF-6BFB56CD8319}"}},{"type":"Feature","id":15,"geometry":{"type":"Point","coordinates":[197719.38929999992,1883922.9973000009]},"properties":{"OBJECTID":15,"Asset_ID":"CFE15","Name":"vienna coffe","District_ID":"Dahariz al Janubiyya","Gov_ID":"Dhofar Governorate","Wlyt_ID":"Salalah","Road_ID":"100002","Latitude":17.019656739999999,"Longitude":54.160844330000003,"GlobalID":"{4958991C-954F-4172-BB8C-1290B4855E5D}"}},{"type":"Feature","id":16,"geometry":{"type":"Point","coordinates":[197689.90039999969,1883978.0319999997]},"properties":{"OBJECTID":16,"Asset_ID":"CFE16","Name":"بومة نايت كافيه","District_ID":"Dahariz al Shamaliyya","Gov_ID":"Dhofar Governorate","Wlyt_ID":"Salalah","Road_ID":"100002","Latitude":17.020149750000002,"Longitude":54.160560109999999,"GlobalID":"{593D40A5-241A-4666-AF7E-5CBCFC4237E4}"}},{"type":"Feature","id":17,"geometry":{"type":"Point","coordinates":[198848.70459999982,1884652.7791000009]},"properties":{"OBJECTID":17,"Asset_ID":"CFE17","Name":"Ompresso","District_ID":"Dahariz al Shamaliyya","Gov_ID":"Dhofar Governorate","Wlyt_ID":"Salalah","Road_ID":"100124","Latitude":17.02639327,"Longitude":54.171342879999997,"GlobalID":"{8BA5695A-A579-45D7-A4B4-463E5E65A38B}"}},{"type":"Feature","id":18,"geometry":{"type":"Point","coordinates":[198926.36890000012,1884804.4711000007]},"properties":{"OBJECTID":18,"Asset_ID":"CFE18","Name":"Verlè","District_ID":"Dahariz al Shamaliyya","Gov_ID":"Dhofar Governorate","Wlyt_ID":"Salalah","Road_ID":"100124","Latitude":17.02777296,"Longitude":54.17205113,"GlobalID":"{2D39045C-597B-4D2C-837E-AA58C03225EE}"}},{"type":"Feature","id":19,"geometry":{"type":"Point","coordinates":[198926.88839999959,1884808.7569999993]},"properties":{"OBJECTID":19,"Asset_ID":"CFE19","Name":"Sekah Coffee 75","District_ID":"Dahariz al Shamaliyya","Gov_ID":"Dhofar Governorate","Wlyt_ID":"Salalah","Road_ID":"100124","Latitude":17.027811719999999,"Longitude":54.17205543,"GlobalID":"{312520BD-0C27-4EF4-99F0-10ADC88BED68}"}},{"type":"Feature","id":20,"geometry":{"type":"Point","coordinates":[198927.27799999993,1884818.8870999999]},"properties":{"OBJECTID":20,"Asset_ID":"CFE20","Name":"Trazo Salalah","District_ID":"Dahariz al Shamaliyya","Gov_ID":"Dhofar Governorate","Wlyt_ID":"Salalah","Road_ID":"100124","Latitude":17.02790323,"Longitude":54.172057709999997,"GlobalID":"{FE6E27EF-A19F-4FB7-99DF-CC0882221ED0}"}},{"type":"Feature","id":21,"geometry":{"type":"Point","coordinates":[198928.31699999981,1884825.9002999999]},"properties":{"OBJECTID":21,"Asset_ID":"CFE21","Name":"Bascleta","District_ID":"Dahariz al Shamaliyya","Gov_ID":"Dhofar Governorate","Wlyt_ID":"Salalah","Road_ID":"100124","Latitude":17.02796669,"Longitude":54.172066510000001,"GlobalID":"{4A28A1EC-5445-4E9E-8747-9788213393A9}"}},{"type":"Feature","id":22,"geometry":{"type":"Point","coordinates":[199036.62430000026,1885066.0929000005]},"properties":{"OBJECTID":22,"Asset_ID":"CFE22","Name":"NUESTRO CAFÉ","District_ID":"Dahariz al Shamaliyya","Gov_ID":"Dhofar Governorate","Wlyt_ID":"Salalah","Road_ID":"100139","Latitude":17.030149399999999,"Longitude":54.173050330000002,"GlobalID":"{DCB5E561-C966-436C-B7E1-A9E59BDFFB9E}"}},{"type":"Feature","id":23,"geometry":{"type":"Point","coordinates":[199051.50960000046,1885140.4691000003]},"properties":{"OBJECTID":23,"Asset_ID":"CFE23","Name":"Fursaad","District_ID":"Dahariz al Shamaliyya","Gov_ID":"Dhofar Governorate","Wlyt_ID":"Salalah","Road_ID":"100139","Latitude":17.03082285,"Longitude":54.173179920000003,"GlobalID":"{61DBDD17-8F50-475A-9E51-64896D76164F}"}},{"type":"Feature","id":24,"geometry":{"type":"Point","coordinates":[199087.16770000011,1885143.9601000007]},"properties":{"OBJECTID":24,"Asset_ID":"CFE24","Name":"khashab cafe","District_ID":"Dahariz al Shamaliyya","Gov_ID":"Dhofar Governorate","Wlyt_ID":"Salalah","Road_ID":"100139","Latitude":17.030859020000001,"Longitude":54.173514089999998,"GlobalID":"{EFF83483-B226-4885-B03F-CE58EFD7589F}"}},{"type":"Feature","id":25,"geometry":{"type":"Point","coordinates":[199091.15739999991,1885121.5179999992]},"properties":{"OBJECTID":25,"Asset_ID":"CFE25","Name":"LA BOUGIE CAFE","District_ID":"Dahariz al Shamaliyya","Gov_ID":"Dhofar Governorate","Wlyt_ID":"Salalah","Road_ID":"100139","Latitude":17.030656919999998,"Longitude":54.173554580000001,"GlobalID":"{29C1A3DA-856F-456D-B3C0-B8ED185EBD9D}"}},{"type":"Feature","id":26,"geometry":{"type":"Point","coordinates":[198273.62540000025,1885790.0800000001]},"properties":{"OBJECTID":26,"Asset_ID":"CFE26","Name":"Mute Cafe","District_ID":"al Sada al Janubiyya","Gov_ID":"Dhofar Governorate","Wlyt_ID":"Salalah","Road_ID":"100353","Latitude":17.03658609,"Longitude":54.165791310000003,"GlobalID":"{29F90B16-51A7-487D-80AA-33435EB6805E}"}},{"type":"Feature","id":27,"geometry":{"type":"Point","coordinates":[196571.05979999993,1885873.3622999992]},"properties":{"OBJECTID":27,"Asset_ID":"CFE27","Name":"LOVERA SALALAH","District_ID":"al Sada al Janubiyya","Gov_ID":"Dhofar Governorate","Wlyt_ID":"Salalah","Road_ID":"100352","Latitude":17.0371144,"Longitude":54.149801549999999,"GlobalID":"{4F17343F-E1F1-498C-9599-EDC66A1F086A}"}},{"type":"Feature","id":28,"geometry":{"type":"Point","coordinates":[196519.04160000011,1885870.2534999996]},"properties":{"OBJECTID":28,"Asset_ID":"CFE28","Name":"روڤانا كافية","District_ID":"al Sada al Janubiyya","Gov_ID":"Dhofar Governorate","Wlyt_ID":"Salalah","Road_ID":"100352","Latitude":17.037079479999999,"Longitude":54.149313790000001,"GlobalID":"{CBC23231-1F88-410B-8717-39F1680DD480}"}},{"type":"Feature","id":29,"geometry":{"type":"Point","coordinates":[196537.74330000021,1886026.9327000007]},"properties":{"OBJECTID":29,"Asset_ID":"CFE29","Name":"Eat softie\r\n","District_ID":"al Sada al Janubiyya","Gov_ID":"Dhofar Governorate","Wlyt_ID":"Salalah","Road_ID":"100196","Latitude":17.03849649,"Longitude":54.149467850000001,"GlobalID":"{5D94FBE1-74F1-4DBC-862C-56565F8B9605}"}},{"type":"Feature","id":30,"geometry":{"type":"Point","coordinates":[196545.9720999999,1886026.6832999997]},"properties":{"OBJECTID":30,"Asset_ID":"CFE30","Name":"PATRIA CAFE","District_ID":"al Sada al Janubiyya","Gov_ID":"Dhofar Governorate","Wlyt_ID":"Salalah","Road_ID":"100196","Latitude":17.038495319999999,"Longitude":54.149545109999998,"GlobalID":"{C43E8A5C-754B-486E-8DAF-FDB722B85B0D}"}},{"type":"Feature","id":31,"geometry":{"type":"Point","coordinates":[190113.83090000041,1883782.5625999998]},"properties":{"OBJECTID":31,"Asset_ID":"CFE31","Name":"Fo 7 coffee","District_ID":"Salalah al Jadida","Gov_ID":"Dhofar Governorate","Wlyt_ID":"Salalah","Road_ID":"104187","Latitude":17.017379680000001,"Longitude":54.089495339999999,"GlobalID":"{A5300A7A-5432-4764-A73F-7A20A9F5FCB7}"}},{"type":"Feature","id":32,"geometry":{"type":"Point","coordinates":[189480.16750000045,1883779.1898999996]},"properties":{"OBJECTID":32,"Asset_ID":"CFE32","Name":"JUICES","District_ID":"Salalah al Jadida","Gov_ID":"Dhofar Governorate","Wlyt_ID":"Salalah","Road_ID":"104187","Latitude":17.017264019999999,"Longitude":54.083549939999997,"GlobalID":"{E658F7AB-ABA8-49DB-83EA-69D1098403A2}"}},{"type":"Feature","id":33,"geometry":{"type":"Point","coordinates":[189346.91019999981,1883804.0567000005]},"properties":{"OBJECTID":33,"Asset_ID":"CFE33","Name":"HDH café","District_ID":"Salalah al Jadida","Gov_ID":"Dhofar Governorate","Wlyt_ID":"Salalah","Road_ID":"104187","Latitude":17.01747057,"Longitude":54.082296069999998,"GlobalID":"{EA391186-3D72-4AF5-A6F8-C3EAD40F1EAC}"}},{"type":"Feature","id":34,"geometry":{"type":"Point","coordinates":[189576.52630000003,1884061.4657000005]},"properties":{"OBJECTID":34,"Asset_ID":"CFE34","Name":"ركن حلا","District_ID":"Salalah al Jadida","Gov_ID":"Dhofar Governorate","Wlyt_ID":"Salalah","Road_ID":"104266","Latitude":17.019825310000002,"Longitude":54.084414619999997,"GlobalID":"{BD1AE8AA-D0D9-4D95-8D53-69CF7090DB7F}"}},{"type":"Feature","id":35,"geometry":{"type":"Point","coordinates":[189624.23039999977,1883949.5878999997]},"properties":{"OBJECTID":35,"Asset_ID":"CFE35","Name":"REEZ","District_ID":"Salalah al Jadida","Gov_ID":"Dhofar Governorate","Wlyt_ID":"Salalah","Road_ID":"104189","Latitude":17.018821719999998,"Longitude":54.084877900000002,"GlobalID":"{21DEBFCC-5C52-469D-9B71-264ABC0721CE}"}},{"type":"Feature","id":36,"geometry":{"type":"Point","coordinates":[189128.59310000017,1884151.0287999995]},"properties":{"OBJECTID":36,"Asset_ID":"CFE36","Name":"TEA DEIRA","District_ID":"Salalah al Jadida","Gov_ID":"Dhofar Governorate","Wlyt_ID":"Salalah","Road_ID":"104210","Latitude":17.02057353,"Longitude":54.080198930000002,"GlobalID":"{4459FD65-6ECD-4CFF-944E-F1B55349E516}"}},{"type":"Feature","id":37,"geometry":{"type":"Point","coordinates":[189649.25540000014,1883529.2446999997]},"properties":{"OBJECTID":37,"Asset_ID":"CFE37","Name":"Al Ameer Cafe","District_ID":"Salalah al Jadida","Gov_ID":"Dhofar Governorate","Wlyt_ID":"Salalah","Road_ID":"104217","Latitude":17.015030329999998,"Longitude":54.08517149,"GlobalID":"{85DE4B77-549A-45EC-BD59-EF380179FCBC}"}},{"type":"Feature","id":38,"geometry":{"type":"Point","coordinates":[189646.00850000046,1883754.4451000001]},"properties":{"OBJECTID":38,"Asset_ID":"CFE38","Name":"دريم كريم","District_ID":"Salalah al Jadida","Gov_ID":"Dhofar Governorate","Wlyt_ID":"Salalah","Road_ID":"104189","Latitude":17.01706295,"Longitude":54.085109539999998,"GlobalID":"{BC378DD9-2AD9-40E1-B2E5-9FB979CB770B}"}},{"type":"Feature","id":39,"geometry":{"type":"Point","coordinates":[189316.90940000024,1883167.5473999996]},"properties":{"OBJECTID":39,"Asset_ID":"CFE39","Name":"LAMOURA CAFE","District_ID":"Salalah al Gharbiyya","Gov_ID":"Dhofar Governorate","Wlyt_ID":"Salalah","Road_ID":"103812","Latitude":17.01172029,"Longitude":54.08210364,"GlobalID":"{C998ADDA-40EE-4DD5-8903-9B12398BB557}"}},{"type":"Feature","id":40,"geometry":{"type":"Point","coordinates":[188491.80159999989,1883046.9417000003]},"properties":{"OBJECTID":40,"Asset_ID":"CFE40","Name":"ريلاكس كافيه","District_ID":"Salalah al Jadida","Gov_ID":"Dhofar Governorate","Wlyt_ID":"Salalah","Road_ID":"104318","Latitude":17.01052026,"Longitude":54.074378600000003,"GlobalID":"{711D7936-8177-4E01-A602-39370B291D49}"}},{"type":"Feature","id":41,"geometry":{"type":"Point","coordinates":[188461.6102,1883001.6664000005]},"properties":{"OBJECTID":41,"Asset_ID":"CFE41","Name":"PURE coffee","District_ID":"Salalah al Jadida","Gov_ID":"Dhofar Governorate","Wlyt_ID":"Salalah","Road_ID":"104318","Latitude":17.01010746,"Longitude":54.074101669999997,"GlobalID":"{D3B3CC8E-69E4-4F5A-B731-7B8EAF92BDEC}"}},{"type":"Feature","id":42,"geometry":{"type":"Point","coordinates":[188491.50540000014,1883060.7343000006]},"properties":{"OBJECTID":42,"Asset_ID":"CFE42","Name":"cafe","District_ID":"Salalah al Jadida","Gov_ID":"Dhofar Governorate","Wlyt_ID":"Salalah","Road_ID":"104318","Latitude":17.01064474,"Longitude":54.074373880000003,"GlobalID":"{F56E6BC9-B66D-48F1-A693-E77DBA015E54}"}},{"type":"Feature","id":43,"geometry":{"type":"Point","coordinates":[188688.4523,1884161.9187000003]},"properties":{"OBJECTID":43,"Asset_ID":"CFE43","Name":"Xo Cafe","District_ID":"Salalah al Jadida","Gov_ID":"Dhofar Governorate","Wlyt_ID":"Salalah","Road_ID":"104188","Latitude":17.02061248,"Longitude":54.076067379999998,"GlobalID":"{AFE88D70-6F55-4C5F-8887-59363AC0A3D8}"}},{"type":"Feature","id":44,"geometry":{"type":"Point","coordinates":[188866.71580000035,1884180.6251999997]},"properties":{"OBJECTID":44,"Asset_ID":"CFE44","Name":"MOIN Cafe","District_ID":"Salalah al Jadida","Gov_ID":"Dhofar Governorate","Wlyt_ID":"Salalah","Road_ID":"104188","Latitude":17.020805410000001,"Longitude":54.077737480000003,"GlobalID":"{DA3D94E6-260F-4B29-AE73-C991CFC6FFDF}"}},{"type":"Feature","id":45,"geometry":{"type":"Point","coordinates":[188900.26370000001,1884184.4807999991]},"properties":{"OBJECTID":45,"Asset_ID":"CFE45","Name":"Patria Cafe","District_ID":"Salalah al Jadida","Gov_ID":"Dhofar Governorate","Wlyt_ID":"Salalah","Road_ID":"104188","Latitude":17.020844740000001,"Longitude":54.078051729999999,"GlobalID":"{A5FFC90A-2C81-400C-B6E5-A960AE05B7F3}"}},{"type":"Feature","id":46,"geometry":{"type":"Point","coordinates":[186840.47620000038,1883396.4086000007]},"properties":{"OBJECTID":46,"Asset_ID":"CFE46","Name":"roob berry","District_ID":"al Wadi","Gov_ID":"Dhofar Governorate","Wlyt_ID":"Salalah","Road_ID":"105338","Latitude":17.013451620000001,"Longitude":54.058835219999999,"GlobalID":"{650C3893-26C1-47BF-9A47-92C5339F29F4}"}},{"type":"Feature","id":47,"geometry":{"type":"Point","coordinates":[187694.62550000008,1884210.8092999998]},"properties":{"OBJECTID":47,"Asset_ID":"CFE47","Name":"XO cafe","District_ID":"al Wadi","Gov_ID":"Dhofar Governorate","Wlyt_ID":"Salalah","Road_ID":"104340","Latitude":17.020919490000001,"Longitude":54.066735059999999,"GlobalID":"{8D80ECE6-B53D-4EC7-938D-885A0E9F48A6}"}},{"type":"Feature","id":48,"geometry":{"type":"Point","coordinates":[187934.10109999962,1884204.8822000008]},"properties":{"OBJECTID":48,"Asset_ID":"CFE48","Name":"The Espresso Lounge","District_ID":"al Wadi","Gov_ID":"Dhofar Governorate","Wlyt_ID":"Salalah","Road_ID":"104341","Latitude":17.0208984,"Longitude":54.068982980000001,"GlobalID":"{2C76DE5A-E54C-46E1-986D-89EDC1FE91B2}"}},{"type":"Feature","id":49,"geometry":{"type":"Point","coordinates":[187988.41550000012,1884313.1462999992]},"properties":{"OBJECTID":49,"Asset_ID":"CFE49","Name":"WATAN CAFE","District_ID":"al Wadi","Gov_ID":"Dhofar Governorate","Wlyt_ID":"Salalah","Road_ID":"104340","Latitude":17.021883110000001,"Longitude":54.069477409999998,"GlobalID":"{96EE42C6-D4B5-45E2-820E-465BAED591E3}"}},{"type":"Feature","id":50,"geometry":{"type":"Point","coordinates":[187964.28660000023,1884239.7737000007]},"properties":{"OBJECTID":50,"Asset_ID":"CFE50","Name":"Cinnaroll Cafe\r\n","District_ID":"al Wadi","Gov_ID":"Dhofar Governorate","Wlyt_ID":"Salalah","Road_ID":"104349","Latitude":17.02121747,"Longitude":54.069261310000002,"GlobalID":"{95AA639A-49AA-4993-9967-15A395092A80}"}},{"type":"Feature","id":51,"geometry":{"type":"Point","coordinates":[197671.93939999957,1885557.8740999997]},"properties":{"OBJECTID":51,"Asset_ID":"CFE51","Name":"رمق كافيه","District_ID":"Dahariz al Shamaliyya","Gov_ID":"Dhofar Governorate","Wlyt_ID":"Salalah","Road_ID":"100014","Latitude":17.034410780000002,"Longitude":54.160176210000003,"GlobalID":"{760CA9D1-F4EF-4AC0-BA14-06EA580F54EF}"}},{"type":"Feature","id":52,"geometry":{"type":"Point","coordinates":[197590.13439999986,1885562.9473000001]},"properties":{"OBJECTID":52,"Asset_ID":"CFE52","Name":"بلسمينا كافيه","District_ID":"Dahariz al Shamaliyya","Gov_ID":"Dhofar Governorate","Wlyt_ID":"Salalah","Road_ID":"100014","Latitude":17.034445850000001,"Longitude":54.159407790000003,"GlobalID":"{1A6E6850-79DF-4524-AA93-AD70A2396795}"}},{"type":"Feature","id":53,"geometry":{"type":"Point","coordinates":[197591.79030000046,1885587.3476999998]},"properties":{"OBJECTID":53,"Asset_ID":"CFE53","Name":"Momo mania","District_ID":"Dahariz al Shamaliyya","Gov_ID":"Dhofar Governorate","Wlyt_ID":"Salalah","Road_ID":"100014","Latitude":17.03466637,"Longitude":54.159420009999998,"GlobalID":"{6F805DC6-AF02-4FC6-93BD-B9018287BA38}"}},{"type":"Feature","id":54,"geometry":{"type":"Point","coordinates":[197669.71430000011,1885596.3090000004]},"properties":{"OBJECTID":54,"Asset_ID":"CFE54","Name":"ROR coffee roastery","District_ID":"Dahariz al Shamaliyya","Gov_ID":"Dhofar Governorate","Wlyt_ID":"Salalah","Road_ID":"100014","Latitude":17.034757500000001,"Longitude":54.160150090000002,"GlobalID":"{ABEDF32D-F274-4EF8-9853-99BEAC6F66DF}"}},{"type":"Feature","id":55,"geometry":{"type":"Point","coordinates":[197660.23350000009,1885600.4649]},"properties":{"OBJECTID":55,"Asset_ID":"CFE55","Name":"Dolce Black Cafe","District_ID":"Dahariz al Shamaliyya","Gov_ID":"Dhofar Governorate","Wlyt_ID":"Salalah","Road_ID":"100014","Latitude":17.03479377,"Longitude":54.160060540000003,"GlobalID":"{EB860B63-487B-4F31-A19A-5F75B1B93E02}"}},{"type":"Feature","id":56,"geometry":{"type":"Point","coordinates":[197606.33609999996,1885605.2703000009]},"properties":{"OBJECTID":56,"Asset_ID":"CFE56","Name":"Jinen first cafe","District_ID":"Dahariz al Shamaliyya","Gov_ID":"Dhofar Governorate","Wlyt_ID":"Salalah","Road_ID":"100014","Latitude":17.03483009,"Longitude":54.159554069999999,"GlobalID":"{D7443D91-0499-4C63-B437-7D47335387F9}"}},{"type":"Feature","id":57,"geometry":{"type":"Point","coordinates":[197595.20760000031,1885603.6468000002]},"properties":{"OBJECTID":57,"Asset_ID":"CFE57","Name":"Latea","District_ID":"Dahariz al Shamaliyya","Gov_ID":"Dhofar Governorate","Wlyt_ID":"Salalah","Road_ID":"100014","Latitude":17.034813969999998,"Longitude":54.159449850000001,"GlobalID":"{31DA973F-81D9-4484-974C-4A872DD222F0}"}},{"type":"Feature","id":58,"geometry":{"type":"Point","coordinates":[197401.00629999954,1884592.2580999993]},"properties":{"OBJECTID":58,"Asset_ID":"CFE58","Name":"VRDEMELA CAFE","District_ID":"Dahariz al Shamaliyya","Gov_ID":"Dhofar Governorate","Wlyt_ID":"Salalah","Road_ID":"100008","Latitude":17.02565731,"Longitude":54.157765329999997,"GlobalID":"{3B8FCA1E-510E-4297-B919-5A517E237EEE}"}},{"type":"Feature","id":59,"geometry":{"type":"Point","coordinates":[197305.01429999992,1884594.9594999999]},"properties":{"OBJECTID":59,"Asset_ID":"CFE59","Name":"dhariz","District_ID":"Dahariz al Shamaliyya","Gov_ID":"Dhofar Governorate","Wlyt_ID":"Salalah","Road_ID":"100008","Latitude":17.025669099999998,"Longitude":54.156864140000003,"GlobalID":"{9D9FDA24-9DD7-4AEA-9F9D-E657309BD092}"}},{"type":"Feature","id":60,"geometry":{"type":"Point","coordinates":[198291.11419999972,1884271.7995999996]},"properties":{"OBJECTID":60,"Asset_ID":"CFE60","Name":"Breath Cafe","District_ID":"Dahariz al Shamaliyya","Gov_ID":"Dhofar Governorate","Wlyt_ID":"Salalah","Road_ID":"100002","Latitude":17.022880730000001,"Longitude":54.166162020000002,"GlobalID":"{70FC289F-2B31-42B5-8811-0AA1B35A1CEA}"}},{"type":"Feature","id":61,"geometry":{"type":"Point","coordinates":[198915.37600000016,1882953.7181000002]},"properties":{"OBJECTID":61,"Asset_ID":"CFE61","Name":"Saffron Tea House","District_ID":"Dahariz al Janubiyya","Gov_ID":"Dhofar Governorate","Wlyt_ID":"Salalah","Road_ID":"100159","Latitude":17.011062070000001,"Longitude":54.172199079999999,"GlobalID":"{35ED06DF-5FAC-4868-A856-8342773B8EEB}"}},{"type":"Feature","id":62,"geometry":{"type":"Point","coordinates":[196541.90380000044,1885869.2489999998]},"properties":{"OBJECTID":62,"Asset_ID":"CFE62","Name":"Share cafe","District_ID":"al Sada al Janubiyya","Gov_ID":"Dhofar Governorate","Wlyt_ID":"Salalah","Road_ID":"100352","Latitude":17.03707343,"Longitude":54.149528490000002,"GlobalID":"{39073305-A965-415D-9FAF-E2AE3104E3D9}"}},{"type":"Feature","id":63,"geometry":{"type":"Point","coordinates":[196537.48529999983,1885868.9728999995]},"properties":{"OBJECTID":63,"Asset_ID":"CFE63","Name":"Lavan coffee","District_ID":"al Sada al Janubiyya","Gov_ID":"Dhofar Governorate","Wlyt_ID":"Salalah","Road_ID":"100352","Latitude":17.03707035,"Longitude":54.149487059999998,"GlobalID":"{17B98F45-54BE-406F-B99C-0F860955147C}"}},{"type":"Feature","id":64,"geometry":{"type":"Point","coordinates":[196522.84889999963,1885869.6633000001]},"properties":{"OBJECTID":64,"Asset_ID":"CFE64","Name":"Top 10 cafe\r\n","District_ID":"al Sada al Janubiyya","Gov_ID":"Dhofar Governorate","Wlyt_ID":"Salalah","Road_ID":"100352","Latitude":17.037074659999998,"Longitude":54.149349600000001,"GlobalID":"{B63D7726-4ACD-40F8-AEF9-7907325970FC}"}},{"type":"Feature","id":65,"geometry":{"type":"Point","coordinates":[189164.80150000006,1883625.9148999993]},"properties":{"OBJECTID":65,"Asset_ID":"CFE65","Name":"Jabal al safa جبل الصفاء\r\n","District_ID":"Salalah al Jadida","Gov_ID":"Dhofar Governorate","Wlyt_ID":"Salalah","Road_ID":"104210","Latitude":17.015837820000002,"Longitude":54.080612240000001,"GlobalID":"{701A8165-060E-4AE0-953F-018DD081AB91}"}},{"type":"Feature","id":66,"geometry":{"type":"Point","coordinates":[188524.37739999965,1882691.2168000005]},"properties":{"OBJECTID":66,"Asset_ID":"CFE66","Name":"kenyata coffe","District_ID":"Salalah al Gharbiyya","Gov_ID":"Dhofar Governorate","Wlyt_ID":"Salalah","Road_ID":"104568","Latitude":17.007313289999999,"Longitude":54.074734139999997,"GlobalID":"{720CF86B-1D08-41DD-B5EA-16B80F0E9E9B}"}},{"type":"Feature","id":67,"geometry":{"type":"Point","coordinates":[189533.01999999955,1883245.9403000008]},"properties":{"OBJECTID":67,"Asset_ID":"CFE67","Name":"Khairallah coffee and juice","District_ID":"Salalah al Gharbiyya","Gov_ID":"Dhofar Governorate","Wlyt_ID":"Salalah","Road_ID":"103812","Latitude":17.012457080000001,"Longitude":54.08412045,"GlobalID":"{1E603218-C71A-425B-A995-08C793EFA37B}"}},{"type":"Feature","id":68,"geometry":{"type":"Point","coordinates":[189688.50769999996,1883126.3977000006]},"properties":{"OBJECTID":68,"Asset_ID":"CFE68","Name":"1/2 half coffee","District_ID":"Salalah al Gharbiyya","Gov_ID":"Dhofar Governorate","Wlyt_ID":"Salalah","Road_ID":"104470","Latitude":17.011398790000001,"Longitude":54.085596109999997,"GlobalID":"{FCA4A8BE-19CF-4018-A68A-9D379B6F9C06}"}},{"type":"Feature","id":69,"geometry":{"type":"Point","coordinates":[190384.7854000004,1882864.1444000006]},"properties":{"OBJECTID":69,"Asset_ID":"CFE69","Name":"Keema matham","District_ID":"Salalah al Wousta","Gov_ID":"Dhofar Governorate","Wlyt_ID":"Salalah","Road_ID":"103741","Latitude":17.00912473,"Longitude":54.092165889999997,"GlobalID":"{72346F9D-6983-4A05-85E3-C40AAD0682CF}"}},{"type":"Feature","id":70,"geometry":{"type":"Point","coordinates":[189800.64580000006,1883059.6258000005]},"properties":{"OBJECTID":70,"Asset_ID":"CFE70","Name":"STEAM Coffee | ستيم كوفي","District_ID":"Salalah al Gharbiyya","Gov_ID":"Dhofar Governorate","Wlyt_ID":"Salalah","Road_ID":"103824","Latitude":17.010811069999999,"Longitude":54.086657639999999,"GlobalID":"{B875D4A0-21FE-44C4-B4A7-D1379BAB6F89}"}},{"type":"Feature","id":71,"geometry":{"type":"Point","coordinates":[189323.8825000003,1883170.4024]},"properties":{"OBJECTID":71,"Asset_ID":"CFE71","Name":"Grand Flora Cafe","District_ID":"Salalah al Gharbiyya","Gov_ID":"Dhofar Governorate","Wlyt_ID":"Salalah","Road_ID":"103812","Latitude":17.011747,"Longitude":54.082168670000001,"GlobalID":"{A051591E-98E0-4379-B02D-48C24259EC60}"}},{"type":"Feature","id":72,"geometry":{"type":"Point","coordinates":[189124.19510000013,1883114.0364999995]},"properties":{"OBJECTID":72,"Asset_ID":"CFE72","Name":"Areeb Cafe","District_ID":"Salalah al Gharbiyya","Gov_ID":"Dhofar Governorate","Wlyt_ID":"Salalah","Road_ID":"103812","Latitude":17.011211249999999,"Longitude":54.0803029,"GlobalID":"{367548FE-F2F6-4273-9676-8B9ABE78FC0A}"}},{"type":"Feature","id":73,"geometry":{"type":"Point","coordinates":[197585.79000000004,1883908.5917000007]},"properties":{"OBJECTID":73,"Asset_ID":"CFE73","Name":"Ceylon Bon Cafe","District_ID":"Dahariz al Shamaliyya","Gov_ID":"Dhofar Governorate","Wlyt_ID":"Salalah","Road_ID":"100002","Latitude":17.019509169999999,"Longitude":54.159592590000003,"GlobalID":"{4744C45B-D98E-4E21-9371-F9A09C8861DA}"}},{"type":"Feature","id":74,"geometry":{"type":"Point","coordinates":[197359.96300000045,1883962.0570999999]},"properties":{"OBJECTID":74,"Asset_ID":"CFE74","Name":"سبارك كافية","District_ID":"Dahariz al Shamaliyya","Gov_ID":"Dhofar Governorate","Wlyt_ID":"Salalah","Road_ID":"100007","Latitude":17.01996226,"Longitude":54.157466130000003,"GlobalID":"{C7F7C855-3292-4281-B71C-68A3FC467A20}"}},{"type":"Feature","id":75,"geometry":{"type":"Point","coordinates":[183836.93290000036,1885148.2002000008]},"properties":{"OBJECTID":75,"Asset_ID":"CFE75","Name":"كيان","District_ID":"Auqad al Shamaliyya","Gov_ID":"Dhofar Governorate","Wlyt_ID":"Salalah","Road_ID":"105645","Latitude":17.028856050000002,"Longitude":54.030404060000002,"GlobalID":"{FE476A32-4789-4045-976E-55B640D5F555}"}},{"type":"Feature","id":76,"geometry":{"type":"Point","coordinates":[183817.3125,1885132.7654999997]},"properties":{"OBJECTID":76,"Asset_ID":"CFE76","Name":"Lava coffee","District_ID":"Auqad al Shamaliyya","Gov_ID":"Dhofar Governorate","Wlyt_ID":"Salalah","Road_ID":"105645","Latitude":17.028714019999999,"Longitude":54.030222160000001,"GlobalID":"{763AF9B6-CE0B-4E20-87F8-1088C72D69D0}"}},{"type":"Feature","id":77,"geometry":{"type":"Point","coordinates":[187303.57330000028,1886700.3006999996]},"properties":{"OBJECTID":77,"Asset_ID":"CFE77","Name":"fifty five coffee","District_ID":"Salalah Airport","Gov_ID":"Dhofar Governorate","Wlyt_ID":"Salalah","Road_ID":"100572","Latitude":17.04334059,"Longitude":54.06271461,"GlobalID":"{BE33FCC9-7EAC-434E-B3AF-F0E7A42C8C2E}"}},{"type":"Feature","id":78,"geometry":{"type":"Point","coordinates":[193504.29030000046,1883739.1710999999]},"properties":{"OBJECTID":78,"Asset_ID":"CFE78","Name":"Coffee Map","District_ID":"al Huseela","Gov_ID":"Dhofar Governorate","Wlyt_ID":"Salalah","Road_ID":"103824","Latitude":17.0174409,"Longitude":54.121315719999998,"GlobalID":"{32E9BD57-41F7-477C-9F6F-7AF9BDA068FD}"}},{"type":"Feature","id":79,"geometry":{"type":"Point","coordinates":[196120.34729999956,1892038.3701000009]},"properties":{"OBJECTID":79,"Asset_ID":"CFE79","Name":"Al Nadia cafe","District_ID":"Salalah Wellfield","Gov_ID":"Dhofar Governorate","Wlyt_ID":"Salalah","Road_ID":"100530","Latitude":17.092713979999999,"Longitude":54.144724869999997,"GlobalID":"{2A3014FD-A783-4469-8FD9-657E91616E44}"}},{"type":"Feature","id":80,"geometry":{"type":"Point","coordinates":[196124.38049999997,1892064.1009]},"properties":{"OBJECTID":80,"Asset_ID":"CFE80","Name":"Lava Coffee","District_ID":"Salalah Wellfield","Gov_ID":"Dhofar Governorate","Wlyt_ID":"Salalah","Road_ID":"100530","Latitude":17.092946820000002,"Longitude":54.144759200000003,"GlobalID":"{0E1D3504-4A7A-4A92-9F44-597DA11B83E3}"}},{"type":"Feature","id":81,"geometry":{"type":"Point","coordinates":[196125.67989999987,1892067.4934999999]},"properties":{"OBJECTID":81,"Asset_ID":"CFE81","Name":"BARISTAZZ LAB HEROS","District_ID":"Salalah Wellfield","Gov_ID":"Dhofar Governorate","Wlyt_ID":"Salalah","Road_ID":"100530","Latitude":17.092977619999999,"Longitude":54.14477093,"GlobalID":"{D6F3B8FC-1ACB-41DE-88C5-D7BAD74908B7}"}},{"type":"Feature","id":82,"geometry":{"type":"Point","coordinates":[196126.25729999971,1892075.8669000007]},"properties":{"OBJECTID":82,"Asset_ID":"CFE82","Name":"Ompresso Cafè","District_ID":"Salalah Wellfield","Gov_ID":"Dhofar Governorate","Wlyt_ID":"Salalah","Road_ID":"100530","Latitude":17.09305329,"Longitude":54.144775189999997,"GlobalID":"{D79EF551-5CB6-461A-90A9-934B949E60AE}"}},{"type":"Feature","id":83,"geometry":{"type":"Point","coordinates":[196136.21870000008,1892063.5233999994]},"properties":{"OBJECTID":83,"Asset_ID":"CFE83","Name":"Fifty Five Coffee ","District_ID":"Salalah Wellfield","Gov_ID":"Dhofar Governorate","Wlyt_ID":"Salalah","Road_ID":"100530","Latitude":17.092943170000002,"Longitude":54.144870410000003,"GlobalID":"{10BB609E-E250-4370-8453-7D022C94BB23}"}},{"type":"Feature","id":84,"geometry":{"type":"Point","coordinates":[196198.41729999986,1892101.4605999999]},"properties":{"OBJECTID":84,"Asset_ID":"CFE84","Name":"الكايفة كافيه","District_ID":"Salalah Wellfield","Gov_ID":"Dhofar Governorate","Wlyt_ID":"Salalah","Road_ID":"100530","Latitude":17.09329391,"Longitude":54.145449079999999,"GlobalID":"{BF03710F-0666-416C-A3F1-52899E17FDF6}"}},{"type":"Feature","id":85,"geometry":{"type":"Point","coordinates":[196637.36459999997,1892312.5986000001]},"properties":{"OBJECTID":85,"Asset_ID":"CFE85","Name":"W cafe","District_ID":"al Sada al Shamaliyya","Gov_ID":"Dhofar Governorate","Wlyt_ID":"Salalah","Road_ID":"102596","Latitude":17.095258149999999,"Longitude":54.14954075,"GlobalID":"{8CF3B61D-5827-448F-ACF1-D250A007997A}"}},{"type":"Feature","id":86,"geometry":{"type":"Point","coordinates":[197598.76429999992,1890854.8215999994]},"properties":{"OBJECTID":86,"Asset_ID":"CFE86","Name":"MR & MRS","District_ID":"al Sada al Shamaliyya","Gov_ID":"Dhofar Governorate","Wlyt_ID":"Salalah","Road_ID":"102597","Latitude":17.082223750000001,"Longitude":54.158765750000001,"GlobalID":"{FDBCAB68-9001-4D52-AE38-7768D87E6A0B}"}},{"type":"Feature","id":87,"geometry":{"type":"Point","coordinates":[197244.44039999973,1891149.7018999998]},"properties":{"OBJECTID":87,"Asset_ID":"CFE87","Name":"doblem","District_ID":"al Sada al Shamaliyya","Gov_ID":"Dhofar Governorate","Wlyt_ID":"Salalah","Road_ID":"102609","Latitude":17.084839349999999,"Longitude":54.155399250000002,"GlobalID":"{BE3279F4-3CAA-414B-ACC1-EC1FF45C6D90}"}},{"type":"Feature","id":88,"geometry":{"type":"Point","coordinates":[183178.32770000026,1883070.3878000006]},"properties":{"OBJECTID":88,"Asset_ID":"CFE88","Name":"عناق القهوه","District_ID":"Auqad al Shamaliyya","Gov_ID":"Dhofar Governorate","Wlyt_ID":"Salalah","Road_ID":"105730","Latitude":17.010008639999999,"Longitude":54.024520729999999,"GlobalID":"{406FCA1D-CC49-492C-AEA6-11881B8CB51C}"}},{"type":"Feature","id":89,"geometry":{"type":"Point","coordinates":[181713.81940000039,1883122.5318999998]},"properties":{"OBJECTID":89,"Asset_ID":"CFE89","Name":"السكة 55","District_ID":"Auqad al Shamaliyya","Gov_ID":"Dhofar Governorate","Wlyt_ID":"Salalah","Road_ID":"105907","Latitude":17.010277859999999,"Longitude":54.010772690000003,"GlobalID":"{F182040F-164C-4051-B999-FD0DBE7FFBB4}"}},{"type":"Feature","id":90,"geometry":{"type":"Point","coordinates":[182995.08910000045,1883027.4190999996]},"properties":{"OBJECTID":90,"Asset_ID":"CFE90","Name":"Lazurd Cafe","District_ID":"Auqad al Shamaliyya","Gov_ID":"Dhofar Governorate","Wlyt_ID":"Salalah","Road_ID":"105899","Latitude":17.00959559,"Longitude":54.022807640000003,"GlobalID":"{15969809-6C30-453C-AF2B-198CE6AB9DC5}"}},{"type":"Feature","id":91,"geometry":{"type":"Point","coordinates":[199035.53890000004,1885057.5734000001]},"properties":{"OBJECTID":91,"Asset_ID":"CFE91","Name":"NUESTRO SPECIALTY COFFEE","District_ID":"Dahariz al Shamaliyya","Gov_ID":"Dhofar Governorate","Wlyt_ID":"Salalah","Road_ID":null,"Latitude":17.03007234,"Longitude":54.173041300000001,"GlobalID":"{1466A8CF-D0D5-40EC-BC9B-47B4E946DD97}"}},{"type":"Feature","id":92,"geometry":{"type":"Point","coordinates":[199038.81969999988,1885139.8060999997]},"properties":{"OBJECTID":92,"Asset_ID":"CFE92","Name":" Fursaad","District_ID":"Dahariz al Shamaliyya","Gov_ID":"Dhofar Governorate","Wlyt_ID":"Salalah","Road_ID":null,"Latitude":17.030815199999999,"Longitude":54.173060919999998,"GlobalID":"{E9E42FB7-3017-48C1-84C8-1620BF85674B}"}},{"type":"Feature","id":93,"geometry":{"type":"Point","coordinates":[199090.25480000023,1885135.5727999993]},"properties":{"OBJECTID":93,"Asset_ID":"CFE93","Name":"khashab cafe","District_ID":"Dahariz al Shamaliyya","Gov_ID":"Dhofar Governorate","Wlyt_ID":"Salalah","Road_ID":null,"Latitude":17.030783700000001,"Longitude":54.173544200000002,"GlobalID":"{5B05BFE5-B39F-437B-9555-493CF195EE45}"}},{"type":"Feature","id":94,"geometry":{"type":"Point","coordinates":[199099.56819999963,1885118.9569000006]},"properties":{"OBJECTID":94,"Asset_ID":"CFE94","Name":"AMBA","District_ID":"Dahariz al Shamaliyya","Gov_ID":"Dhofar Governorate","Wlyt_ID":"Salalah","Road_ID":null,"Latitude":17.030634899999999,"Longitude":54.173633860000002,"GlobalID":"{564CD457-BD67-43A3-A032-A0D216884A84}"}},{"type":"Feature","id":95,"geometry":{"type":"Point","coordinates":[199072.89809999987,1885123.6136000007]},"properties":{"OBJECTID":95,"Asset_ID":"CFE95","Name":"LA BOUGIE CAFE","District_ID":"Dahariz al Shamaliyya","Gov_ID":"Dhofar Governorate","Wlyt_ID":"Salalah","Road_ID":null,"Latitude":17.030673459999999,"Longitude":54.173382940000003,"GlobalID":"{55B5FB3C-0F43-4E00-AA2B-ACEB9E769E2C}"}},{"type":"Feature","id":96,"geometry":{"type":"Point","coordinates":[199067.0773,1885105.6218999997]},"properties":{"OBJECTID":96,"Asset_ID":"CFE96","Name":"Chateau","District_ID":"Dahariz al Shamaliyya","Gov_ID":"Dhofar Governorate","Wlyt_ID":"Salalah","Road_ID":null,"Latitude":17.03051026,"Longitude":54.173330749999998,"GlobalID":"{119831BF-A591-4BFE-A65A-DBD262F47749}"}},{"type":"Feature","id":97,"geometry":{"type":"Point","coordinates":[199145.07660000026,1885020.7434]},"properties":{"OBJECTID":97,"Asset_ID":"CFE97","Name":"Cakery cafe","District_ID":"Dahariz al Shamaliyya","Gov_ID":"Dhofar Governorate","Wlyt_ID":"Salalah","Road_ID":null,"Latitude":17.02975412,"Longitude":54.174074269999998,"GlobalID":"{E0851D3E-C056-4873-B1AD-222220B2F74E}"}},{"type":"Feature","id":98,"geometry":{"type":"Point","coordinates":[199123.69820000045,1885002.8574999999]},"properties":{"OBJECTID":98,"Asset_ID":"CFE98","Name":"Popeye cafe","District_ID":"Dahariz al Shamaliyya","Gov_ID":"Dhofar Governorate","Wlyt_ID":"Salalah","Road_ID":null,"Latitude":17.029589850000001,"Longitude":54.173876069999999,"GlobalID":"{80AD49D6-692D-484E-B8F3-338F18142944}"}},{"type":"Feature","id":99,"geometry":{"type":"Point","coordinates":[199135.85639999993,1884994.0563999992]},"properties":{"OBJECTID":99,"Asset_ID":"CFE99","Name":"Cavern Cafe","District_ID":"Dahariz al Shamaliyya","Gov_ID":"Dhofar Governorate","Wlyt_ID":"Salalah","Road_ID":null,"Latitude":17.029511979999999,"Longitude":54.173991360000002,"GlobalID":"{6D5C1541-4CA7-4491-93C5-5473B15AACDC}"}},{"type":"Feature","id":100,"geometry":{"type":"Point","coordinates":[199078.18979999982,1884987.9350000005]},"properties":{"OBJECTID":100,"Asset_ID":"CFE100","Name":"Aventus Cafe","District_ID":"Dahariz al Shamaliyya","Gov_ID":"Dhofar Governorate","Wlyt_ID":"Salalah","Road_ID":null,"Latitude":17.02944918,"Longitude":54.173451010000001,"GlobalID":"{70DA1E78-4EEB-4BEB-8BDC-C40F21A83301}"}},{"type":"Feature","id":101,"geometry":{"type":"Point","coordinates":[203349.33169999998,1885726.1690999996]},"properties":{"OBJECTID":101,"Asset_ID":"CFE101","Name":"Molo cafe the tree","District_ID":"Razat","Gov_ID":"Dhofar Governorate","Wlyt_ID":"Salalah","Road_ID":null,"Latitude":17.036668179999999,"Longitude":54.213436160000001,"GlobalID":"{8A4EFE3D-64F1-4770-B845-508EA8B8DBD2}"}},{"type":"Feature","id":102,"geometry":{"type":"Point","coordinates":[203374.41160000023,1885652.0222999994]},"properties":{"OBJECTID":102,"Asset_ID":"CFE102","Name":"Molo cafe the glass house","District_ID":"Razat","Gov_ID":"Dhofar Governorate","Wlyt_ID":"Salalah","Road_ID":null,"Latitude":17.036001949999999,"Longitude":54.213681459999997,"GlobalID":"{A62E5A58-6EE1-4A6A-BA3C-5FF875C40A40}"}}]
}