{
  "type" : "FeatureCollection",
  "crs" : {
    "type" : "name",
    "properties" : {
      "name" : "EPSG:32640"
    }
  },
  "features" : [{"type":"Feature","id":1,"geometry":{"type":"Point","coordinates":[189838.60680000018,1883376.6848000009]},"properties":{"OBJECTID":1,"Asset_ID":"CRA1","Name":"Car Rental","District_ID":"Salalah al Jadida","Gov_ID":"2","Wlyt_ID":" Salalah","Road_ID":"103812","Latitude":17.013678509999998,"Longitude":54.086969529999998,"GlobalID":"{F72C7773-BD81-4EBC-BB39-382D10E54AAD}"}},{"type":"Feature","id":2,"geometry":{"type":"Point","coordinates":[189807.69660000037,1883366.4965000004]},"properties":{"OBJECTID":2,"Asset_ID":"CRA2","Name":"Car Rental","District_ID":"Salalah al Jadida","Gov_ID":"2","Wlyt_ID":" Salalah","Road_ID":"103812","Latitude":17.013582379999999,"Longitude":54.086680919999999,"GlobalID":"{B28C073A-1288-4F8C-8C09-C859FAA8B15D}"}},{"type":"Feature","id":3,"geometry":{"type":"Point","coordinates":[189547.29110000003,1883253.9074000008]},"properties":{"OBJECTID":3,"Asset_ID":"CRA3","Name":"Car Rental","District_ID":"Salalah al Gharbiyya","Gov_ID":"2","Wlyt_ID":" Salalah","Road_ID":"103812","Latitude":17.01253093,"Longitude":54.084253250000003,"GlobalID":"{410273B1-0F9F-4F10-B2E1-77379C8C29D6}"}},{"type":"Feature","id":4,"geometry":{"type":"Point","coordinates":[189529.59109999985,1883248.6404999997]},"properties":{"OBJECTID":4,"Asset_ID":"CRA4","Name":"Car Rental","District_ID":"Salalah al Gharbiyya","Gov_ID":"2","Wlyt_ID":" Salalah","Road_ID":"103812","Latitude":17.012481000000001,"Longitude":54.0840879,"GlobalID":"{59054D56-DEBE-4213-8150-004182FFE33B}"}},{"type":"Feature","id":5,"geometry":{"type":"Point","coordinates":[189455.85560000036,1883285.2924000006]},"properties":{"OBJECTID":5,"Asset_ID":"CRA5","Name":"Car Rental","District_ID":"Salalah al Jadida","Gov_ID":"2","Wlyt_ID":" Salalah","Road_ID":"104212","Latitude":17.012801960000001,"Longitude":54.083390909999999,"GlobalID":"{D49E5AD8-B682-469B-B11F-DE8600A67D77}"}},{"type":"Feature","id":6,"geometry":{"type":"Point","coordinates":[189433.57949999999,1883219.5002999995]},"properties":{"OBJECTID":6,"Asset_ID":"CRA6","Name":"Car Rental","District_ID":"Salalah al Gharbiyya","Gov_ID":"2","Wlyt_ID":" Salalah","Road_ID":"103812","Latitude":17.012205009999999,"Longitude":54.083191100000001,"GlobalID":"{B803F29E-AE0A-49CF-9A8E-723DF1196127}"}},{"type":"Feature","id":7,"geometry":{"type":"Point","coordinates":[189428.31269999966,1883217.9893999994]},"properties":{"OBJECTID":7,"Asset_ID":"CRA7","Name":"Car Rental","District_ID":"Salalah al Gharbiyya","Gov_ID":"2","Wlyt_ID":" Salalah","Road_ID":"103812","Latitude":17.012190660000002,"Longitude":54.08314189,"GlobalID":"{7D393377-331F-4A2A-9C85-80E707B4F29F}"}},{"type":"Feature","id":8,"geometry":{"type":"Point","coordinates":[189422.87320000026,1883216.3921000008]},"properties":{"OBJECTID":8,"Asset_ID":"CRA8","Name":"Car Rental","District_ID":"Salalah al Gharbiyya","Gov_ID":"2","Wlyt_ID":" Salalah","Road_ID":"103812","Latitude":17.012175509999999,"Longitude":54.083091070000002,"GlobalID":"{B998255C-F0A0-4D19-9B52-6745B458DC95}"}},{"type":"Feature","id":9,"geometry":{"type":"Point","coordinates":[189388.72520000022,1883207.1966999993]},"properties":{"OBJECTID":9,"Asset_ID":"CRA9","Name":"Car Rental","District_ID":"Salalah al Gharbiyya","Gov_ID":"2","Wlyt_ID":" Salalah","Road_ID":"103812","Latitude":17.012087900000001,"Longitude":54.082771950000001,"GlobalID":"{7A6F29DD-B80C-4657-AE79-19488E8AF33B}"}},{"type":"Feature","id":10,"geometry":{"type":"Point","coordinates":[189133.32749999966,1883119.3875999991]},"properties":{"OBJECTID":10,"Asset_ID":"CRA10","Name":"Car Rental","District_ID":"Salalah al Gharbiyya","Gov_ID":"2","Wlyt_ID":" Salalah","Road_ID":"103812","Latitude":17.011260790000001,"Longitude":54.08038784,"GlobalID":"{2CF4D90B-CADF-4689-AAB0-1F82B63D34C6}"}},{"type":"Feature","id":11,"geometry":{"type":"Point","coordinates":[186834.14389999956,1882458.8331000004]},"properties":{"OBJECTID":11,"Asset_ID":"CRA11","Name":"Car Rental","District_ID":"al Wadi","Gov_ID":"2","Wlyt_ID":" Salalah","Road_ID":"105338","Latitude":17.00498674,"Longitude":54.058908019999997,"GlobalID":"{6B91E4A4-7524-4066-8362-4AF520E3CC42}"}},{"type":"Feature","id":12,"geometry":{"type":"Point","coordinates":[186833.19409999996,1882466.4311999995]},"properties":{"OBJECTID":12,"Asset_ID":"CRA12","Name":"Car Rental","District_ID":"al Wadi","Gov_ID":"2","Wlyt_ID":" Salalah","Road_ID":"105468","Latitude":17.005055200000001,"Longitude":54.058898040000003,"GlobalID":"{6B790533-BCF4-4CA7-90A2-B12DB51DECDD}"}},{"type":"Feature","id":13,"geometry":{"type":"Point","coordinates":[189649.13069999963,1883538.5747999996]},"properties":{"OBJECTID":13,"Asset_ID":"CRA13","Name":"Car Rental","District_ID":"Salalah al Jadida","Gov_ID":"2","Wlyt_ID":" Salalah","Road_ID":"104421","Latitude":17.015114539999999,"Longitude":54.085169020000002,"GlobalID":"{A79163A1-0BEB-44E8-ABB3-3E7ACAD2C334}"}},{"type":"Feature","id":14,"geometry":{"type":"Point","coordinates":[189123.31190000009,1883864.9450000003]},"properties":{"OBJECTID":14,"Asset_ID":"CRA14","Name":"Car Rental","District_ID":"Salalah al Jadida","Gov_ID":"2","Wlyt_ID":" Salalah","Road_ID":"104210","Latitude":17.017990130000001,"Longitude":54.080189449999999,"GlobalID":"{5F4CD96C-A465-4737-906C-6AC1A59B7775}"}},{"type":"Feature","id":15,"geometry":{"type":"Point","coordinates":[189149.21430000011,1883938.3352000006]},"properties":{"OBJECTID":15,"Asset_ID":"CRA15","Name":"Car Rental","District_ID":"Salalah al Jadida","Gov_ID":"2","Wlyt_ID":" Salalah","Road_ID":"104265","Latitude":17.01865617,"Longitude":54.080422220000003,"GlobalID":"{60F025A0-82E1-4C01-B246-C0DEF0F2B94A}"}},{"type":"Feature","id":16,"geometry":{"type":"Point","coordinates":[189845.15249999985,1883846.4140000008]},"properties":{"OBJECTID":16,"Asset_ID":"CRA16","Name":"Car Rental","District_ID":"Salalah al Jadida","Gov_ID":"2","Wlyt_ID":" Salalah","Road_ID":"104187","Latitude":17.017920010000001,"Longitude":54.086965319999997,"GlobalID":"{2E77A659-33D5-497A-825D-584E93E91148}"}},{"type":"Feature","id":17,"geometry":{"type":"Point","coordinates":[189700.01269999985,1883805.3156000003]},"properties":{"OBJECTID":17,"Asset_ID":"CRA17","Name":"Car Rental","District_ID":"Salalah al Jadida","Gov_ID":"2","Wlyt_ID":" Salalah","Road_ID":"104187","Latitude":17.017529459999999,"Longitude":54.085609169999998,"GlobalID":"{53879AAA-A129-4B30-BEB8-CEBCD9D40C42}"}},{"type":"Feature","id":18,"geometry":{"type":"Point","coordinates":[189205.34159999993,1883787.8313999996]},"properties":{"OBJECTID":18,"Asset_ID":"CRA18","Name":"Car Rental","District_ID":"Salalah al Jadida","Gov_ID":"2","Wlyt_ID":" Salalah","Road_ID":"104187","Latitude":17.017305029999999,"Longitude":54.080969959999997,"GlobalID":"{AD69E16F-CDF4-4158-9918-3974E70EE805}"}},{"type":"Feature","id":19,"geometry":{"type":"Point","coordinates":[189113.2154000001,1883776.0026999991]},"properties":{"OBJECTID":19,"Asset_ID":"CRA19","Name":"Car Rental","District_ID":"Salalah al Jadida","Gov_ID":"2","Wlyt_ID":" Salalah","Road_ID":"104279","Latitude":17.017185829999999,"Longitude":54.080107169999998,"GlobalID":"{96C6506F-22EF-434E-96F6-813BC0B0AD74}"}},{"type":"Feature","id":20,"geometry":{"type":"Point","coordinates":[188885.61959999986,1883701.4037999995]},"properties":{"OBJECTID":20,"Asset_ID":"CRA20","Name":"Car Rental","District_ID":"Salalah al Jadida","Gov_ID":"2","Wlyt_ID":" Salalah","Road_ID":"104393","Latitude":17.016481689999999,"Longitude":54.077982040000002,"GlobalID":"{A75A0609-F13A-43C0-B1DF-77854CE831F4}"}},{"type":"Feature","id":21,"geometry":{"type":"Point","coordinates":[188812.4020999996,1883698.6407999992]},"properties":{"OBJECTID":21,"Asset_ID":"CRA21","Name":"Car Rental","District_ID":"Salalah al Jadida","Gov_ID":"2","Wlyt_ID":" Salalah","Road_ID":"104187","Latitude":17.016446869999999,"Longitude":54.077295409999998,"GlobalID":"{9978809D-76AE-4055-B69E-D2B0D84672D2}"}},{"type":"Feature","id":22,"geometry":{"type":"Point","coordinates":[187898.99710000027,1882796.4601000007]},"properties":{"OBJECTID":22,"Asset_ID":"CRA22","Name":"Car Rental","District_ID":"al Wadi","Gov_ID":"2","Wlyt_ID":" Salalah","Road_ID":"104322","Latitude":17.008178919999999,"Longitude":54.068851600000002,"GlobalID":"{565FF483-91D4-41A7-A0AC-79690047D3EB}"}},{"type":"Feature","id":23,"geometry":{"type":"Point","coordinates":[189054.33059999999,1883181.8015999999]},"properties":{"OBJECTID":23,"Asset_ID":"CRA23","Name":"Car Rental","District_ID":"Salalah al Jadida","Gov_ID":"2","Wlyt_ID":" Salalah","Road_ID":"104246","Latitude":17.0118136,"Longitude":54.079637869999999,"GlobalID":"{9D3CCF58-28BA-4A84-A9C8-ACC8CAB373CF}"}},{"type":"Feature","id":24,"geometry":{"type":"Point","coordinates":[189025.40620000008,1883327.2004000004]},"properties":{"OBJECTID":24,"Asset_ID":"CRA24","Name":"Car Rental","District_ID":"Salalah al Jadida","Gov_ID":"2","Wlyt_ID":" Salalah","Road_ID":"104240","Latitude":17.013122330000002,"Longitude":54.079346110000003,"GlobalID":"{BFD8F44A-A43F-4A2E-9462-4BE0AC629D04}"}},{"type":"Feature","id":25,"geometry":{"type":"Point","coordinates":[189024.19739999995,1883330.9993999992]},"properties":{"OBJECTID":25,"Asset_ID":"CRA25","Name":"Car Rental","District_ID":"Salalah al Jadida","Gov_ID":"2","Wlyt_ID":" Salalah","Road_ID":"104240","Latitude":17.013156460000001,"Longitude":54.079334230000001,"GlobalID":"{73ECF852-D8A4-429C-851D-4EAA2740AB51}"}},{"type":"Feature","id":26,"geometry":{"type":"Point","coordinates":[189024.80179999955,1883334.2804000005]},"properties":{"OBJECTID":26,"Asset_ID":"CRA26","Name":"Car Rental","District_ID":"Salalah al Jadida","Gov_ID":"2","Wlyt_ID":" Salalah","Road_ID":"104240","Latitude":17.01318616,"Longitude":54.079339449999999,"GlobalID":"{62571CD2-CB4B-40E0-9440-F54EEC2BB4F7}"}},{"type":"Feature","id":27,"geometry":{"type":"Point","coordinates":[189014.09549999982,1883375.8969000001]},"properties":{"OBJECTID":27,"Asset_ID":"CRA27","Name":"Car Rental","District_ID":"Salalah al Jadida","Gov_ID":"2","Wlyt_ID":" Salalah","Road_ID":"104240","Latitude":17.013560420000001,"Longitude":54.079233160000001,"GlobalID":"{D1D7A033-8DA2-4487-B452-8651AC16D2A0}"}},{"type":"Feature","id":28,"geometry":{"type":"Point","coordinates":[189008.82870000042,1883403.5261000004]},"properties":{"OBJECTID":28,"Asset_ID":"CRA28","Name":"Car Rental","District_ID":"Salalah al Jadida","Gov_ID":"2","Wlyt_ID":" Salalah","Road_ID":"104240","Latitude":17.013809139999999,"Longitude":54.079179869999997,"GlobalID":"{0695B402-499F-4973-9FD0-A6BBC9CC830F}"}},{"type":"Feature","id":29,"geometry":{"type":"Point","coordinates":[188992.25109999999,1883473.0741000008]},"properties":{"OBJECTID":29,"Asset_ID":"CRA29","Name":"Car Rental","District_ID":"Salalah al Jadida","Gov_ID":"2","Wlyt_ID":" Salalah","Road_ID":"104229","Latitude":17.014434770000001,"Longitude":54.079014579999999,"GlobalID":"{19F4E28A-8E0D-4861-8837-1A935D910E39}"}},{"type":"Feature","id":30,"geometry":{"type":"Point","coordinates":[188889.72080000024,1883946.7859000005]},"properties":{"OBJECTID":30,"Asset_ID":"CRA30","Name":"Car Rental","District_ID":"Salalah al Jadida","Gov_ID":"2","Wlyt_ID":" Salalah","Road_ID":"104289","Latitude":17.01869748,"Longitude":54.077986129999999,"GlobalID":"{4271280D-CC30-4AF8-A3CD-E7E4840B9529}"}},{"type":"Feature","id":31,"geometry":{"type":"Point","coordinates":[188884.88570000045,1883999.2814000007]},"properties":{"OBJECTID":31,"Asset_ID":"CRA31","Name":"Car Rental","District_ID":"Salalah al Jadida","Gov_ID":"2","Wlyt_ID":" Salalah","Road_ID":"104290","Latitude":17.01917074,"Longitude":54.077933399999999,"GlobalID":"{B7009510-9D7D-45E4-9DCC-F6AC0B679FAD}"}},{"type":"Feature","id":32,"geometry":{"type":"Point","coordinates":[188656.46970000025,1883892.2612999994]},"properties":{"OBJECTID":32,"Asset_ID":"CRA32","Name":"Car Rental","District_ID":"Salalah al Jadida","Gov_ID":"2","Wlyt_ID":" Salalah","Road_ID":"104288","Latitude":17.018173780000001,"Longitude":54.075805109999997,"GlobalID":"{25C1CB5B-18E7-4648-9924-389CB69E5095}"}},{"type":"Feature","id":33,"geometry":{"type":"Point","coordinates":[188676.75989999995,1884206.6301000006]},"properties":{"OBJECTID":33,"Asset_ID":"CRA33","Name":"Car Rental","District_ID":"Salalah al Jadida","Gov_ID":"2","Wlyt_ID":" Salalah","Road_ID":"104188","Latitude":17.021014539999999,"Longitude":54.07595139,"GlobalID":"{F17604DD-FF33-496F-B9EB-E63C723D6C8E}"}},{"type":"Feature","id":34,"geometry":{"type":"Point","coordinates":[184881.50860000029,1882387.9554999992]},"properties":{"OBJECTID":34,"Asset_ID":"CRA34","Name":"International Car Rentel","District_ID":"Auqad al Janubiyya","Gov_ID":"2","Wlyt_ID":" Salalah","Road_ID":"105374","Latitude":17.004081209999999,"Longitude":54.040597669999997,"GlobalID":"{EFC57FBC-31AC-4A45-95C7-AACEBDC80277}"}},{"type":"Feature","id":35,"geometry":{"type":"Point","coordinates":[187339.36099999957,1886841.4318000004]},"properties":{"OBJECTID":35,"Asset_ID":"CRA35","Name":"Speedy Car Rental","District_ID":"Salalah Airport","Gov_ID":"2","Wlyt_ID":" Salalah","Road_ID":"100521","Latitude":17.044619520000001,"Longitude":54.06303054,"GlobalID":"{CF4DEAD8-D835-4747-ADCF-5BC9E30E36D4}"}},{"type":"Feature","id":36,"geometry":{"type":"Point","coordinates":[192920.44629999995,1884486.0184000004]},"properties":{"OBJECTID":36,"Asset_ID":"CRA36","Name":"الكرم لتاجير السيارات","District_ID":"al Huseela","Gov_ID":"2","Wlyt_ID":" Salalah","Road_ID":"103813","Latitude":17.024105800000001,"Longitude":54.115733800000001,"GlobalID":"{814DDBA6-CD22-420A-B37C-FE4504C2534D}"}},{"type":"Feature","id":37,"geometry":{"type":"Point","coordinates":[192906.68030000012,1884485.5714999996]},"properties":{"OBJECTID":37,"Asset_ID":"CRA37","Name":"المكلي لتاجير السيارات","District_ID":"al Huseela","Gov_ID":"2","Wlyt_ID":" Salalah","Road_ID":"103813","Latitude":17.024099929999998,"Longitude":54.115604679999997,"GlobalID":"{028BC016-5AA0-40C8-9C62-08DC156E5317}"}},{"type":"Feature","id":38,"geometry":{"type":"Point","coordinates":[192912.84819999989,1884485.8396000005]},"properties":{"OBJECTID":38,"Asset_ID":"CRA38","Name":"Car Rental","District_ID":"al Huseela","Gov_ID":"2","Wlyt_ID":" Salalah","Road_ID":"103813","Latitude":17.02410317,"Longitude":54.115662530000002,"GlobalID":"{A33C81D7-8110-479E-B1A5-B1C935B276C3}"}},{"type":"Feature","id":39,"geometry":{"type":"Point","coordinates":[198742.85450000037,1892851.5045999996]},"properties":{"OBJECTID":39,"Asset_ID":"CRA39","Name":"الأكسجين النشط تأجير السيارات\n","District_ID":"Sahalnout al Shamaliyya","Gov_ID":"2","Wlyt_ID":" Salalah","Road_ID":"102728","Latitude":17.100400860000001,"Longitude":54.16923319,"GlobalID":"{C73C6297-70FB-4C8E-BBC4-FA1AAF0D2F74}"}},{"type":"Feature","id":40,"geometry":{"type":"Point","coordinates":[197662.5998999998,1884581.6601999998]},"properties":{"OBJECTID":40,"Asset_ID":"CRA40","Name":"مكتب سياحي وتاجير السيارات","District_ID":"Dahariz al Shamaliyya","Gov_ID":"2","Wlyt_ID":" Salalah","Road_ID":"100008","Latitude":17.02559595,"Longitude":54.160221659999998,"GlobalID":"{4290D639-C57C-49FC-841B-25E81693483A}"}},{"type":"Feature","id":41,"geometry":{"type":"Point","coordinates":[197237.02460000012,1884116.3069000002]},"properties":{"OBJECTID":41,"Asset_ID":"CRA41","Name":"تأجير وسائل النقل البري للمركبات بدون سائق","District_ID":"Dahariz al Shamaliyya","Gov_ID":"2","Wlyt_ID":" Salalah","Road_ID":"100007","Latitude":17.021338740000001,"Longitude":54.156291430000003,"GlobalID":"{5691553C-8781-49BC-84B6-8C9238C8C6FF}"}},{"type":"Feature","id":42,"geometry":{"type":"Point","coordinates":[189943.23060000036,1883378.0330999997]},"properties":{"OBJECTID":42,"Asset_ID":"CRA42","Name":"جبل ريحان لتأجير السيارات","District_ID":"Salalah al Gharbiyya","Gov_ID":"2","Wlyt_ID":" Salalah","Road_ID":"103812","Latitude":17.013704740000001,"Longitude":54.087951050000001,"GlobalID":"{5C3D8C54-1D28-4418-873B-CB6BEB9EAA39}"}},{"type":"Feature","id":43,"geometry":{"type":"Point","coordinates":[190111.67289999966,1883428.2162999995]},"properties":{"OBJECTID":43,"Asset_ID":"CRA43","Name":"مسارات الابداع لتاجير السيارات","District_ID":"Salalah al Gharbiyya","Gov_ID":"2","Wlyt_ID":" Salalah","Road_ID":"103812","Latitude":17.014180419999999,"Longitude":54.089524560000001,"GlobalID":"{69040F17-AE8E-4BC8-9652-AE5226028347}"}},{"type":"Feature","id":44,"geometry":{"type":"Point","coordinates":[190229.96129999962,1883450.9452999998]},"properties":{"OBJECTID":44,"Asset_ID":"CRA44","Name":"الصمودلتاجيرالسيارات","District_ID":"Salalah al Wousta","Gov_ID":"2","Wlyt_ID":" Salalah","Road_ID":"104459","Latitude":17.014401490000001,"Longitude":54.09063132,"GlobalID":"{DCEF518B-399A-4F78-B96A-0CCFEBA77D92}"}},{"type":"Feature","id":45,"geometry":{"type":"Point","coordinates":[190252.44579999987,1883440.6806000005]},"properties":{"OBJECTID":45,"Asset_ID":"CRA45","Name":"الريان لتاجير السيارات - صلاله","District_ID":"Salalah al Wousta","Gov_ID":"2","Wlyt_ID":" Salalah","Road_ID":"104459","Latitude":17.014311840000001,"Longitude":54.090843730000003,"GlobalID":"{06010DCF-2F37-44AE-9C9C-F987F53C2475}"}},{"type":"Feature","id":46,"geometry":{"type":"Point","coordinates":[198021.52089999989,1884130.5240000002]},"properties":{"OBJECTID":46,"Asset_ID":"CRA46","Name":"Car Rental","District_ID":"Dahariz al Shamaliyya","Gov_ID":"2","Wlyt_ID":" Salalah","Road_ID":"100002","Latitude":17.02156995,"Longitude":54.163651309999999,"GlobalID":"{ACCA5ECE-7996-47DD-890C-C7DC420D62EF}"}},{"type":"Feature","id":47,"geometry":{"type":"Point","coordinates":[197236.80200000014,1884118.4126999993]},"properties":{"OBJECTID":47,"Asset_ID":"CRA47","Name":"Car Rental","District_ID":"Dahariz al Shamaliyya","Gov_ID":"2","Wlyt_ID":" Salalah","Road_ID":"100007","Latitude":17.021357720000001,"Longitude":54.156289049999998,"GlobalID":"{7A823918-41E8-4252-BF42-4A95FC4A85C6}"}}]
}