{
  "type" : "FeatureCollection",
  "crs" : {
    "type" : "name",
    "properties" : {
      "name" : "EPSG:32640"
    }
  },
  "features" : [{"type":"Feature","id":1,"geometry":{"type":"Point","coordinates":[196007.93699999992,1884855.2389000002]},"properties":{"OBJECTID":1,"Asset_ID":"Cem1","Name":"مقبرة شهداء حرب ظفار","District_ID":"Dahariz al Shamaliyya","Gov_ID":"Dhofar Governorate","Wlyt_ID":"Salalah","Road_ID":"100124","Latitude":17.02784832,"Longitude":54.144656339999997,"GlobalID":"{A28F22FD-88C4-4AA5-A137-7A58C08124AF}"}},{"type":"Feature","id":2,"geometry":{"type":"Point","coordinates":[198276.04389999993,1883120.0536000002]},"properties":{"OBJECTID":2,"Asset_ID":"Cem2","Name":"مقبرة الدهاريز القديمة","District_ID":"Dahariz al Janubiyya","Gov_ID":"Dhofar Governorate","Wlyt_ID":"Salalah","Road_ID":"100016","Latitude":17.012480320000002,"Longitude":54.166177169999997,"GlobalID":"{4A9984FC-7997-4394-83E2-5C7C9C7546B3}"}},{"type":"Feature","id":3,"geometry":{"type":"Point","coordinates":[198985.06070000026,1884466.1879999992]},"properties":{"OBJECTID":3,"Asset_ID":"Cem3","Name":"مقبرة الرباط","District_ID":"Dahariz al Shamaliyya","Gov_ID":"Dhofar Governorate","Wlyt_ID":"Salalah","Road_ID":"100123","Latitude":17.024726449999999,"Longitude":54.172647840000003,"GlobalID":"{301153BF-B71D-466D-A373-AD20C23CCC2B}"}},{"type":"Feature","id":4,"geometry":{"type":"Point","coordinates":[191604.54750000034,1884150.3947000001]},"properties":{"OBJECTID":4,"Asset_ID":"Cem4","Name":"مقبرة الزاوية","District_ID":"Markaz al Madena","Gov_ID":"Dhofar Governorate","Wlyt_ID":"Salalah","Road_ID":"104012","Latitude":17.0209002,"Longitude":54.103432249999997,"GlobalID":"{7C0A1928-10E6-4864-87DF-1DA87F889CE1}"}},{"type":"Feature","id":5,"geometry":{"type":"Point","coordinates":[190761.26559999958,1883529.4229000006]},"properties":{"OBJECTID":5,"Asset_ID":"Cem5","Name":"مقابر ومدافن موتى","District_ID":"Salalah al Wousta","Gov_ID":"Dhofar Governorate","Wlyt_ID":"Salalah","Road_ID":"104039","Latitude":17.015181250000001,"Longitude":54.095605740000003,"GlobalID":"{DDD94EE5-C8A7-42EA-A3FE-0D46751F3D16}"}},{"type":"Feature","id":6,"geometry":{"type":"Point","coordinates":[183777.06699999981,1881768.2617000006]},"properties":{"OBJECTID":6,"Asset_ID":"Cem6","Name":"مقبرة تاريخية قديمة في عوقد","District_ID":"Auqad al Shamaliyya","Gov_ID":"Dhofar Governorate","Wlyt_ID":"Salalah","Road_ID":"105688","Latitude":16.99833602,"Longitude":54.03032374,"GlobalID":"{E956F16A-F550-4A8F-AA70-0A81BC3E1F16}"}},{"type":"Feature","id":7,"geometry":{"type":"Point","coordinates":[185431.7452999996,1882797.6775000002]},"properties":{"OBJECTID":7,"Asset_ID":"Cem7","Name":"مقبرة عوقد","District_ID":"Mustashfa al Sultan Qboos","Gov_ID":"Dhofar Governorate","Wlyt_ID":"Salalah","Road_ID":"105480","Latitude":17.007854989999998,"Longitude":54.045702140000003,"GlobalID":"{FA674B5E-D393-4099-AD71-A1A7AAB443FD}"}},{"type":"Feature","id":8,"geometry":{"type":"Point","coordinates":[189968.69199999981,1883168.6099999994]},"properties":{"OBJECTID":8,"Asset_ID":"Cem8","Name":"مقبرة باعلوي","District_ID":"Salalah al Gharbiyya","Gov_ID":"Dhofar Governorate","Wlyt_ID":"Salalah","Road_ID":"104474","Latitude":17.011817529999998,"Longitude":54.088219199999997,"GlobalID":"{17964F48-D16C-444D-84BF-26EB535A74CE}"}},{"type":"Feature","id":9,"geometry":{"type":"Point","coordinates":[187963.63480000012,1882604.2599999998]},"properties":{"OBJECTID":9,"Asset_ID":"Cem9","Name":"مقبره المعتزه","District_ID":"Salalah al Gharbiyya","Gov_ID":"Dhofar Governorate","Wlyt_ID":"Salalah","Road_ID":"104480","Latitude":17.006452540000002,"Longitude":54.06948508,"GlobalID":"{D1EEAC20-9FC8-4AF7-9B5B-BC0DA2C92ED4}"}},{"type":"Feature","id":10,"geometry":{"type":"Point","coordinates":[197129.76080000028,1884239.6745999996]},"properties":{"OBJECTID":10,"Asset_ID":"Cem10","Name":"مقبرة الدهاريز","District_ID":"Dahariz al Shamaliyya","Gov_ID":"Dhofar Governorate","Wlyt_ID":"Salalah","Road_ID":"100018","Latitude":17.02243846,"Longitude":54.15526801,"GlobalID":"{D49A79F3-5EE8-4289-AD43-442DE977EF0A}"}},{"type":"Feature","id":11,"geometry":{"type":"Point","coordinates":[198708.60900000017,1884710.2551000006]},"properties":{"OBJECTID":11,"Asset_ID":"Cem11","Name":"مقبرة الحداد","District_ID":"Dahariz al Shamaliyya","Gov_ID":"Dhofar Governorate","Wlyt_ID":"Salalah","Road_ID":"100117","Latitude":17.02689389,"Longitude":54.170020350000001,"GlobalID":"{B7707B2B-5A69-4FBF-A449-4861263FD318}"}},{"type":"Feature","id":12,"geometry":{"type":"Point","coordinates":[195486.57930000033,1884454.1841000002]},"properties":{"OBJECTID":12,"Asset_ID":"Cem12","Name":"مقبرة الرباط\n","District_ID":"al Robat","Gov_ID":"Dhofar Governorate","Wlyt_ID":"Salalah","Road_ID":"107110","Latitude":17.024158709999998,"Longitude":54.139818810000001,"GlobalID":"{75E041DC-AD1A-427A-80FB-0F89B593B1B6}"}},{"type":"Feature","id":13,"geometry":{"type":"Point","coordinates":[193544.32969999965,1884451.6245000008]},"properties":{"OBJECTID":13,"Asset_ID":"Cem13","Name":"مقبرة باقوير\n","District_ID":"al Huseela","Gov_ID":"Dhofar Governorate","Wlyt_ID":"Salalah","Road_ID":"102645","Latitude":17.023878289999999,"Longitude":54.12159304,"GlobalID":"{7C49475E-6CD1-4379-9911-CA06848A5709}"}},{"type":"Feature","id":14,"geometry":{"type":"Point","coordinates":[193611.15390000027,1882366.5098999999]},"properties":{"OBJECTID":14,"Asset_ID":"Cem14","Name":"مقبرة عفيف القديمة بالحافة\n","District_ID":"al Baleed","Gov_ID":"Dhofar Governorate","Wlyt_ID":"Salalah","Road_ID":"100002","Latitude":17.005062599999999,"Longitude":54.122507900000002,"GlobalID":"{27234DE4-B1C6-4CCB-AC83-29950D016DC2}"}},{"type":"Feature","id":15,"geometry":{"type":"Point","coordinates":[199037.51530000009,1884732.8098000009]},"properties":{"OBJECTID":15,"Asset_ID":"Cem15","Name":"مقبرة قديمة","District_ID":"Dahariz al Shamaliyya","Gov_ID":"Dhofar Governorate","Wlyt_ID":"Salalah","Road_ID":"100003","Latitude":17.02714048,"Longitude":54.173103920000003,"GlobalID":"{C3EFA45C-574E-49FE-BB17-9AAB67D53BFC}"}},{"type":"Feature","id":16,"geometry":{"type":"Point","coordinates":[199575.99399999995,1884776.9386]},"properties":{"OBJECTID":16,"Asset_ID":"Cem16","Name":"مقبرة تاريخية","District_ID":"Sahalnout al Janubiyya","Gov_ID":"Dhofar Governorate","Wlyt_ID":"Salalah","Road_ID":"480001","Latitude":17.027609129999998,"Longitude":54.178151319999998,"GlobalID":"{781D9B97-ECFB-4C9B-8A0B-AC9BD649EB9C}"}}]
}