{
  "type" : "FeatureCollection",
  "crs" : {
    "type" : "name",
    "properties" : {
      "name" : "EPSG:32640"
    }
  },
  "features" : [{"type":"Feature","id":1,"geometry":{"type":"Point","coordinates":[189746.22149999999,1883348.5374999996]},"properties":{"OBJECTID":1,"Asset_ID":"CS1","Name":"ديجان لتنظيف المباني","District_ID":"Salalah al Jadida","Gov_ID":"Dhofar Governorate","Wlyt_ID":"Salalah","Road_ID":"103812","Latitude":17.013411980000001,"Longitude":54.086106600000001,"GlobalID":"{CBE4B802-6DBA-434A-977D-79B07CDFAF78}"}},{"type":"Feature","id":2,"geometry":{"type":"Point","coordinates":[189158.31769999955,1883121.6778999995]},"properties":{"OBJECTID":2,"Asset_ID":"CS2","Name":"Development Cleaning Services","District_ID":"Salalah al Gharbiyya","Gov_ID":"Dhofar Governorate","Wlyt_ID":"Salalah","Road_ID":"103812","Latitude":17.011284830000001,"Longitude":54.080621999999998,"GlobalID":"{8014E59F-EE1F-439B-AD55-DB196A178E91}"}},{"type":"Feature","id":3,"geometry":{"type":"Point","coordinates":[189698.17260000017,1883453.0967999995]},"properties":{"OBJECTID":3,"Asset_ID":"CS3","Name":"العالمية للمبيدات الحشرية","District_ID":"Salalah al Jadida","Gov_ID":"Dhofar Governorate","Wlyt_ID":"Salalah","Road_ID":"104189","Latitude":17.014349459999998,"Longitude":54.08564114,"GlobalID":"{AAD0174F-B340-4B2A-8494-9794C684639C}"}},{"type":"Feature","id":4,"geometry":{"type":"Point","coordinates":[189628.56340000033,1883870.0512000006]},"properties":{"OBJECTID":4,"Asset_ID":"CS4","Name":"تنظيف العام للمباني","District_ID":"Salalah al Jadida","Gov_ID":"Dhofar Governorate","Wlyt_ID":"Salalah","Road_ID":"104189","Latitude":17.018104269999998,"Longitude":54.084929680000002,"GlobalID":"{58A5A040-DDBF-4A00-BA58-CDF7E45DF99E}"}},{"type":"Feature","id":5,"geometry":{"type":"Point","coordinates":[189785.58849999961,1883510.2028999999]},"properties":{"OBJECTID":5,"Asset_ID":"CS5","Name":"تنظيف العام للمباني","District_ID":"Salalah al Jadida","Gov_ID":"Dhofar Governorate","Wlyt_ID":"Salalah","Road_ID":"104206","Latitude":17.01487676,"Longitude":54.086453400000003,"GlobalID":"{95E8AA66-2B97-47BF-9DE3-92450CEDC068}"}},{"type":"Feature","id":6,"geometry":{"type":"Point","coordinates":[197468.82949999999,1883012.7053999994]},"properties":{"OBJECTID":6,"Asset_ID":"CS6","Name":"تنظيف العام للمباني","District_ID":"Dahariz al Janubiyya","Gov_ID":"Dhofar Governorate","Wlyt_ID":"Salalah","Road_ID":"100013","Latitude":17.011405450000002,"Longitude":54.158617130000003,"GlobalID":"{875E5597-E7CF-459A-98E0-4C28D2B5F0DF}"}},{"type":"Feature","id":7,"geometry":{"type":"Point","coordinates":[189268.50119999982,1883153.5833999999]},"properties":{"OBJECTID":7,"Asset_ID":"CS7","Name":"تنظيف مباني","District_ID":"Salalah al Gharbiyya","Gov_ID":"Dhofar Governorate","Wlyt_ID":"Salalah","Road_ID":"104465","Latitude":17.0115877,"Longitude":54.081651379999997,"GlobalID":"{C11261B8-C75B-4B6A-BD28-A0DA52CCB579}"}},{"type":"Feature","id":8,"geometry":{"type":"Point","coordinates":[188299.13729999959,1882774.5949000008]},"properties":{"OBJECTID":8,"Asset_ID":"CS8","Name":"مغسلة التاج","District_ID":"Salalah al Gharbiyya","Gov_ID":"Dhofar Governorate","Wlyt_ID":"Salalah","Road_ID":"103824","Latitude":17.008035589999999,"Longitude":54.072609079999999,"GlobalID":"{3E1B375D-C22D-4C74-9C54-AC7905A6DF7E}"}},{"type":"Feature","id":9,"geometry":{"type":"Point","coordinates":[197698.84350000042,1883979.1063000001]},"properties":{"OBJECTID":9,"Asset_ID":"CS9","Name":"مغسلة التاج","District_ID":"Dahariz al Shamaliyya","Gov_ID":"Dhofar Governorate","Wlyt_ID":"Salalah","Road_ID":"100002","Latitude":17.020160619999999,"Longitude":54.160643880000002,"GlobalID":"{EC85E3A1-3450-4E8B-B712-00560DFABD8A}"}},{"type":"Feature","id":10,"geometry":{"type":"Point","coordinates":[198214.57870000042,1884274.5756999999]},"properties":{"OBJECTID":10,"Asset_ID":"CS10","Name":"تنظيف العام للمباني","District_ID":"Dahariz al Shamaliyya","Gov_ID":"Dhofar Governorate","Wlyt_ID":"Salalah","Road_ID":"100010","Latitude":17.022895779999999,"Longitude":54.165443410000002,"GlobalID":"{DD19FE40-A1EF-455F-B0A0-16FFD9588654}"}},{"type":"Feature","id":11,"geometry":{"type":"Point","coordinates":[197496.17569999956,1884207.2497000005]},"properties":{"OBJECTID":11,"Asset_ID":"CS11","Name":"تنظيف العام للمباني","District_ID":"Dahariz al Shamaliyya","Gov_ID":"Dhofar Governorate","Wlyt_ID":"Salalah","Road_ID":"100010","Latitude":17.022193810000001,"Longitude":54.158710929999998,"GlobalID":"{E6E4F6C6-2D35-4E37-BC43-AB165DC15322}"}},{"type":"Feature","id":12,"geometry":{"type":"Point","coordinates":[183700.23020000011,1885085.5023999996]},"properties":{"OBJECTID":12,"Asset_ID":"CS12","Name":"تنظيف العام للمباني","District_ID":"Auqad al Shamaliyya","Gov_ID":"Dhofar Governorate","Wlyt_ID":"Salalah","Road_ID":"105645","Latitude":17.0282713,"Longitude":54.029130260000002,"GlobalID":"{67EB143A-A41B-4E40-8578-4BBDEBFB2A1D}"}},{"type":"Feature","id":13,"geometry":{"type":"Point","coordinates":[198728.69890000019,1892824.3497000001]},"properties":{"OBJECTID":13,"Asset_ID":"CS13","Name":"تنظيف العام للمباني","District_ID":"Sahalnout al Shamaliyya","Gov_ID":"Dhofar Governorate","Wlyt_ID":"Salalah","Road_ID":"102728","Latitude":17.10015383,"Longitude":54.169103999999997,"GlobalID":"{5048F475-AD36-4863-9EEC-1E647F07C15F}"}},{"type":"Feature","id":14,"geometry":{"type":"Point","coordinates":[181284.37280000001,1882990.3574999999]},"properties":{"OBJECTID":14,"Asset_ID":"CS14","Name":"تنظيف العام للمباني","District_ID":"Auqad al Shamaliyya","Gov_ID":"Dhofar Governorate","Wlyt_ID":"Salalah","Road_ID":"105838","Latitude":17.009025449999999,"Longitude":54.006762459999997,"GlobalID":"{ECA596A0-B660-443B-A106-5831E4D84EFF}"}},{"type":"Feature","id":15,"geometry":{"type":"Point","coordinates":[199069.02520000003,1885025.0374999996]},"properties":{"OBJECTID":15,"Asset_ID":"CS15","Name":"مغسلة للابد لغسيل السيارات","District_ID":"Dahariz al Shamaliyya","Gov_ID":"Dhofar Governorate","Wlyt_ID":"Salalah","Road_ID":null,"Latitude":17.029782959999999,"Longitude":54.17335997,"GlobalID":"{69C971AC-5B07-4A70-B567-46AEACA090A3}"}}]
}