{
  "type" : "FeatureCollection",
  "crs" : {
    "type" : "name",
    "properties" : {
      "name" : "EPSG:32640"
    }
  },
  "features" : [{"type":"Feature","id":1,"geometry":{"type":"Point","coordinates":[189906.51260000002,1883394.4984000009]},"properties":{"OBJECTID":1,"Asset_ID":"C1","Name":"عيادة ابوالذهب","District_ID":"Salalah al Jadida","Gov_ID":"Dhofar Governorate","Wlyt_ID":"Salalah","Road_ID":"103812","Latitude":17.013848450000001,"Longitude":54.087604220000003,"GlobalID":"{44AB30CF-48F8-47A9-ACC4-D7BE2144333E}"}},{"type":"Feature","id":2,"geometry":{"type":"Point","coordinates":[189215.15299999993,1884212.6316]},"properties":{"OBJECTID":2,"Asset_ID":"C2","Name":"مجمع الأميرة الطبي","District_ID":"Salalah al Jadida","Gov_ID":"2","Wlyt_ID":"Salalah","Road_ID":"104188","Latitude":17.021188769999998,"Longitude":54.081000349999997,"GlobalID":"{809E05BC-CD75-4827-904F-A495F3AB5779}"}},{"type":"Feature","id":3,"geometry":{"type":"Point","coordinates":[189356.99089999963,1884377.4447000008]},"properties":{"OBJECTID":3,"Asset_ID":"C3","Name":"Al Khairat Specialty Dental Center","District_ID":"Salalah al Jadida","Gov_ID":"2","Wlyt_ID":"Salalah","Road_ID":"104294","Latitude":17.022792849999998,"Longitude":54.082175290000002,"GlobalID":"{9D12F77A-4696-42A8-AD21-66BD99718871}"}},{"type":"Feature","id":4,"geometry":{"type":"Point","coordinates":[188671.92509999964,1884364.5733000003]},"properties":{"OBJECTID":4,"Asset_ID":"C4","Name":"Euro Arabian Specialist Dental Center","District_ID":"Salalah al Jadida","Gov_ID":"2","Wlyt_ID":"Salalah","Road_ID":"104294","Latitude":17.02243975,"Longitude":54.075883859999998,"GlobalID":"{53FA6A32-A9DC-4D5B-9F16-BDA4213B854B}"}},{"type":"Feature","id":5,"geometry":{"type":"Point","coordinates":[189670.55850000028,1883421.1699000001]},"properties":{"OBJECTID":5,"Asset_ID":"C5","Name":"Noor alshifa Specialized Medical Centre","District_ID":"Salalah al Jadida","Gov_ID":"2","Wlyt_ID":"Salalah","Road_ID":"104414","Latitude":17.014057520000001,"Longitude":54.085386489999998,"GlobalID":"{4CC4C311-4F5A-4E06-93DA-885845989B72}"}},{"type":"Feature","id":6,"geometry":{"type":"Point","coordinates":[188085.18950000033,1882834.9846000001]},"properties":{"OBJECTID":6,"Asset_ID":"C6","Name":"Raihan Specialized Dental Center","District_ID":"al Wadi","Gov_ID":"2","Wlyt_ID":"Salalah","Road_ID":"104338","Latitude":17.008551870000002,"Longitude":54.070593180000003,"GlobalID":"{1B406C90-FFE2-43E0-9038-8E0ACD6EB32A}"}},{"type":"Feature","id":7,"geometry":{"type":"Point","coordinates":[187939.95320000034,1882703.7835000008]},"properties":{"OBJECTID":7,"Asset_ID":"C7","Name":"Al Isaaf Medical Complex","District_ID":"Salalah al Gharbiyya","Gov_ID":"2","Wlyt_ID":"Salalah","Road_ID":"103824","Latitude":17.007347800000002,"Longitude":54.069248899999998,"GlobalID":"{5E0C8B7D-1A70-4A79-A142-409E48E46E5B}"}},{"type":"Feature","id":8,"geometry":{"type":"Point","coordinates":[190188.71590000018,1883510.0363999996]},"properties":{"OBJECTID":8,"Asset_ID":"C8","Name":"الزاهر لتقويم الاسنان\r\n","District_ID":"Salalah al Jadida","Gov_ID":"2","Wlyt_ID":"Salalah","Road_ID":"104203","Latitude":17.01496422,"Longitude":54.090228709999998,"GlobalID":"{59418659-18A1-4A96-B69E-F990A4D4E708}"}},{"type":"Feature","id":9,"geometry":{"type":"Point","coordinates":[189814.55470000021,1883847.0285]},"properties":{"OBJECTID":9,"Asset_ID":"C9","Name":"Global Dental Clinic","District_ID":"Salalah al Jadida","Gov_ID":"2","Wlyt_ID":"Salalah","Road_ID":"104192","Latitude":17.017999870000001,"Longitude":54.086671240000001,"GlobalID":"{D6211DE8-0B12-4FFE-B71A-523731943375}"}},{"type":"Feature","id":10,"geometry":{"type":"Point","coordinates":[189444.92819999997,1883218.5355999991]},"properties":{"OBJECTID":10,"Asset_ID":"C10","Name":"عيادة بغداد للاسنان","District_ID":"Salalah al Gharbiyya","Gov_ID":"2","Wlyt_ID":"Salalah","Road_ID":"103812","Latitude":17.012197830000002,"Longitude":54.083297719999997,"GlobalID":"{B22AB336-06F6-430C-97AC-9CDB6AA1B84F}"}},{"type":"Feature","id":11,"geometry":{"type":"Point","coordinates":[186824.95729999989,1882620.7074999996]},"properties":{"OBJECTID":11,"Asset_ID":"C11","Name":"مكتب اماليا للتنسيق الطبي للعلاج في الهند\r\n","District_ID":"al Wadi","Gov_ID":"2","Wlyt_ID":"Salalah","Road_ID":"105510","Latitude":17.006446830000002,"Longitude":54.058799010000001,"GlobalID":"{714086BE-7996-4C78-8102-3DD6435ABA39}"}},{"type":"Feature","id":12,"geometry":{"type":"Point","coordinates":[189473.87449999992,1883283.6966999993]},"properties":{"OBJECTID":12,"Asset_ID":"C12","Name":"Al Afia Specialized Medical Centre\r\n","District_ID":"Salalah al Jadida","Gov_ID":"2","Wlyt_ID":"Salalah","Road_ID":"104212","Latitude":17.012789980000001,"Longitude":54.083560210000002,"GlobalID":"{9141C926-40F6-43E3-B489-A8E9BA9A4299}"}},{"type":"Feature","id":13,"geometry":{"type":"Point","coordinates":[196715.01329999976,1887298.6795000006]},"properties":{"OBJECTID":13,"Asset_ID":"C13","Name":"AL HIBA INDIAN AYURVEDIC CLINIC","District_ID":"al Sada al Janubiyya","Gov_ID":"2","Wlyt_ID":"Salalah","Road_ID":"100220","Latitude":17.050001510000001,"Longitude":54.150957409999997,"GlobalID":"{AECCB791-04FF-416E-B77A-C7F4F5D44667}"}},{"type":"Feature","id":14,"geometry":{"type":"Point","coordinates":[196869.99689999968,1887580.8091000002]},"properties":{"OBJECTID":14,"Asset_ID":"C14","Name":"Liya Medical Complex","District_ID":"al Sada al Janubiyya","Gov_ID":"2","Wlyt_ID":"Salalah","Road_ID":"100331","Latitude":17.052569070000001,"Longitude":54.152373390000001,"GlobalID":"{B6E68092-8359-425F-A342-CAEF8BCE0226}"}},{"type":"Feature","id":15,"geometry":{"type":"Point","coordinates":[187612.18609999958,1884174.8455999997]},"properties":{"OBJECTID":15,"Asset_ID":"C15","Name":"Redan Dental clinic","District_ID":"al Wadi","Gov_ID":"2","Wlyt_ID":"Salalah","Road_ID":"104360","Latitude":17.02058366,"Longitude":54.065966570000001,"GlobalID":"{141D6AA5-2CE1-4863-A879-AC0FE56FC11D}"}},{"type":"Feature","id":16,"geometry":{"type":"Point","coordinates":[189372.04389999993,1882984.8450000007]},"properties":{"OBJECTID":16,"Asset_ID":"C16","Name":"Just smile dental clinic","District_ID":"Salalah al Gharbiyya","Gov_ID":"2","Wlyt_ID":"Salalah","Road_ID":"103824","Latitude":17.010078310000001,"Longitude":54.082646529999998,"GlobalID":"{E02C0067-D752-4F42-B8BC-AC3646291261}"}},{"type":"Feature","id":17,"geometry":{"type":"Point","coordinates":[189893.44940000027,1883059.1973000001]},"properties":{"OBJECTID":17,"Asset_ID":"C17","Name":"عيادة اسنان","District_ID":"Salalah al Gharbiyya","Gov_ID":"2","Wlyt_ID":"Salalah","Road_ID":"103824","Latitude":17.01081967,"Longitude":54.087528470000002,"GlobalID":"{423CAC31-9C54-4E81-BAFF-FB6D07CE68B7}"}},{"type":"Feature","id":18,"geometry":{"type":"Point","coordinates":[190597.17260000017,1883058.5438000001]},"properties":{"OBJECTID":18,"Asset_ID":"C18","Name":"عيادة المنارة","District_ID":"Salalah al Wousta","Gov_ID":"2","Wlyt_ID":"Salalah","Road_ID":"104514","Latitude":17.010908220000001,"Longitude":54.09413163,"GlobalID":"{12945EC1-1F69-4D6B-B7FE-7D7A51D4D92D}"}},{"type":"Feature","id":19,"geometry":{"type":"Point","coordinates":[197608.59159999993,1884585.6381999999]},"properties":{"OBJECTID":19,"Asset_ID":"C19","Name":"عيادة سوار الدين لطب وتجميل الاسنان","District_ID":"Dahariz al Shamaliyya","Gov_ID":"2","Wlyt_ID":"Salalah","Road_ID":"100083","Latitude":17.025624780000001,"Longitude":54.159714280000003,"GlobalID":"{A7A6C85F-5660-464A-AB6B-44093DBE0E23}"}},{"type":"Feature","id":20,"geometry":{"type":"Point","coordinates":[197223.26449999958,1884594.2565000001]},"properties":{"OBJECTID":20,"Asset_ID":"C20","Name":"عيادة الرعاية","District_ID":"Dahariz al Shamaliyya","Gov_ID":"2","Wlyt_ID":"Salalah","Road_ID":"100093","Latitude":17.025652019999999,"Longitude":54.156097070000001,"GlobalID":"{1A857D2A-0A1B-497B-8046-1437EE2729C3}"}},{"type":"Feature","id":21,"geometry":{"type":"Point","coordinates":[189372.04389999993,1882984.8450000007]},"properties":{"OBJECTID":21,"Asset_ID":"C21","Name":"Just smile dental clinic","District_ID":"Salalah al Gharbiyya","Gov_ID":"2","Wlyt_ID":"Salalah","Road_ID":"103824","Latitude":17.010078310000001,"Longitude":54.082646529999998,"GlobalID":"{F5A96E2D-BBFA-449A-B5A7-ED1D71299483}"}},{"type":"Feature","id":22,"geometry":{"type":"Point","coordinates":[189893.44940000027,1883059.1973000001]},"properties":{"OBJECTID":22,"Asset_ID":"C22","Name":"عيادة اسنان","District_ID":"Salalah al Gharbiyya","Gov_ID":"2","Wlyt_ID":"Salalah","Road_ID":"103824","Latitude":17.01081967,"Longitude":54.087528470000002,"GlobalID":"{A5146036-318F-44A4-A359-DB2CFB596417}"}},{"type":"Feature","id":23,"geometry":{"type":"Point","coordinates":[190597.17260000017,1883058.5438000001]},"properties":{"OBJECTID":23,"Asset_ID":"C23","Name":"عيادة المنارة","District_ID":"Salalah al Wousta","Gov_ID":"2","Wlyt_ID":"Salalah","Road_ID":"104514","Latitude":17.010908220000001,"Longitude":54.09413163,"GlobalID":"{251E833A-B6CB-44D1-AD60-E2F3615B3DE0}"}},{"type":"Feature","id":24,"geometry":{"type":"Point","coordinates":[197608.59159999993,1884585.6381999999]},"properties":{"OBJECTID":24,"Asset_ID":"C24","Name":"عيادة سوار الدين لطب وتجميل الاسنان","District_ID":"Dahariz al Shamaliyya","Gov_ID":"2","Wlyt_ID":"Salalah","Road_ID":"100083","Latitude":17.025624780000001,"Longitude":54.159714280000003,"GlobalID":"{45FD277E-0AE1-4183-878F-7EAD10DBF916}"}},{"type":"Feature","id":25,"geometry":{"type":"Point","coordinates":[197223.26449999958,1884594.2565000001]},"properties":{"OBJECTID":25,"Asset_ID":"C25","Name":"عيادة الرعاية","District_ID":"Dahariz al Shamaliyya","Gov_ID":"2","Wlyt_ID":"Salalah","Road_ID":"100093","Latitude":17.025652019999999,"Longitude":54.156097070000001,"GlobalID":"{7A2464A1-CBCB-4D9C-9329-F232286FECE3}"}},{"type":"Feature","id":26,"geometry":{"type":"Point","coordinates":[184157.00050000008,1885188.0644000005]},"properties":{"OBJECTID":26,"Asset_ID":"C26","Name":"مركز الشام البيطري","District_ID":"New Industrial Area","Gov_ID":"2","Wlyt_ID":"Salalah","Road_ID":"105234","Latitude":17.029259790000001,"Longitude":54.033401720000001,"GlobalID":"{7E256F46-8B06-4816-8A04-4E48D4BCBBD2}"}},{"type":"Feature","id":27,"geometry":{"type":"Point","coordinates":[183974.71530000027,1885355.2666999996]},"properties":{"OBJECTID":27,"Asset_ID":"C27","Name":"عيادة الرافدين البيطري","District_ID":"New Industrial Area","Gov_ID":"2","Wlyt_ID":"Salalah","Road_ID":"105280","Latitude":17.030744200000001,"Longitude":54.031667429999999,"GlobalID":"{2F8AA955-4B38-44CF-8C16-0E45FC5F5606}"}},{"type":"Feature","id":28,"geometry":{"type":"Point","coordinates":[197230.85280000046,1891129.9416000005]},"properties":{"OBJECTID":28,"Asset_ID":"C28","Name":"عيادة الوثيقة لطب الأسنان والصيدلة","District_ID":"al Sada al Shamaliyya","Gov_ID":"2","Wlyt_ID":"Salalah","Road_ID":"100003","Latitude":17.08465915,"Longitude":54.155274409999997,"GlobalID":"{9A140960-9C99-4FD4-9A6E-583F0F131D9A}"}},{"type":"Feature","id":29,"geometry":{"type":"Point","coordinates":[197298.56419999991,1890334.6331999991]},"properties":{"OBJECTID":29,"Asset_ID":"C29","Name":"The modern dental clinic العيادة الحديثة للاسنان\n","District_ID":"al Sada al Shamaliyya","Gov_ID":"2","Wlyt_ID":"Salalah","Road_ID":"102607","Latitude":17.077487810000001,"Longitude":54.156018969999998,"GlobalID":"{014DEC2A-4805-42B4-A02C-55C6CFFDD932}"}},{"type":"Feature","id":30,"geometry":{"type":"Point","coordinates":[197718.04980000015,1890590.0131000001]},"properties":{"OBJECTID":30,"Asset_ID":"C30","Name":"العيادة الأمريكية للرعاية السريعة ","District_ID":"al Sada al Shamaliyya","Gov_ID":"2","Wlyt_ID":"Salalah","Road_ID":"100003","Latitude":17.079848670000001,"Longitude":54.159921730000001,"GlobalID":"{F9939438-4DDC-48FD-A0AC-92FA2F9BE265}"}},{"type":"Feature","id":31,"geometry":{"type":"Point","coordinates":[197763.69049999956,1890487.7686000001]},"properties":{"OBJECTID":31,"Asset_ID":"C31","Name":"مركز ألفا لطب وجراحة الأسنان\n","District_ID":"al Sada al Shamaliyya","Gov_ID":"2","Wlyt_ID":"Salalah","Road_ID":"100003","Latitude":17.078931579999999,"Longitude":54.160364139999999,"GlobalID":"{6ECA7EB5-EB81-4213-9F24-276AB6D082EE}"}}]
}