{
  "type" : "FeatureCollection",
  "crs" : {
    "type" : "name",
    "properties" : {
      "name" : "EPSG:32640"
    }
  },
  "features" : [{"type":"Feature","id":1,"geometry":{"type":"Point","coordinates":[190060.32799999975,1883775.6359000001]},"properties":{"OBJECTID":1,"Asset_ID":"CO1","Name":"مقاولات البناء و التشييد","District_ID":"Salalah al Jadida","Gov_ID":"Dhofar Governorate","Wlyt_ID":"Salalah","Road_ID":"104198","Latitude":17.017309959999999,"Longitude":54.088994270000001,"GlobalID":"{7552334A-2B26-49F6-8572-3C3B2A65A2FA}"}},{"type":"Feature","id":2,"geometry":{"type":"Point","coordinates":[189922.62370000035,1883750.8074999992]},"properties":{"OBJECTID":2,"Asset_ID":"CO2","Name":"محلات الباهية للعقارات و المقاولات","District_ID":"Salalah al Jadida","Gov_ID":"Dhofar Governorate","Wlyt_ID":"Salalah","Road_ID":"104196","Latitude":17.017067310000002,"Longitude":54.087705620000001,"GlobalID":"{122DFB2E-E05A-420F-9089-44F30248E505}"}},{"type":"Feature","id":3,"geometry":{"type":"Point","coordinates":[190006.89209999982,1883777.7771000005]},"properties":{"OBJECTID":3,"Asset_ID":"CO3","Name":"مقاولات البناء و التشييد","District_ID":"Salalah al Jadida","Gov_ID":"Dhofar Governorate","Wlyt_ID":"Salalah","Road_ID":"104195","Latitude":17.017322109999999,"Longitude":54.08849257,"GlobalID":"{97A5A91D-90B6-4710-966F-61897FB7D77B}"}},{"type":"Feature","id":4,"geometry":{"type":"Point","coordinates":[189911.13920000009,1883802.8705000002]},"properties":{"OBJECTID":4,"Asset_ID":"CO4","Name":"مؤسسة فله للتجارة و المقاولات","District_ID":"Salalah al Jadida","Gov_ID":"Dhofar Governorate","Wlyt_ID":"Salalah","Road_ID":"104187","Latitude":17.017535779999999,"Longitude":54.087590579999997,"GlobalID":"{751EDEB9-7ABC-44A8-AE86-8843B3FD7848}"}},{"type":"Feature","id":5,"geometry":{"type":"Point","coordinates":[189616.58980000019,1883732.8698999994]},"properties":{"OBJECTID":5,"Asset_ID":"CO5","Name":"مقاولات البناء","District_ID":"Salalah al Jadida","Gov_ID":"Dhofar Governorate","Wlyt_ID":"Salalah","Road_ID":"104189","Latitude":17.016864210000001,"Longitude":54.084836510000002,"GlobalID":"{0F5B83B9-4C08-4DD3-9BDF-0C088849BBEF}"}},{"type":"Feature","id":6,"geometry":{"type":"Point","coordinates":[189649.73070000019,1883728.2761000004]},"properties":{"OBJECTID":6,"Asset_ID":"CO6","Name":"وساطة العقارات","District_ID":"Salalah al Jadida","Gov_ID":"Dhofar Governorate","Wlyt_ID":"Salalah","Road_ID":"104189","Latitude":17.016827200000002,"Longitude":54.08514813,"GlobalID":"{5AFFDF8F-D5A0-4F51-AA2B-3A4D5123D035}"}},{"type":"Feature","id":7,"geometry":{"type":"Point","coordinates":[189773.43489999976,1883505.1491999999]},"properties":{"OBJECTID":7,"Asset_ID":"CO7","Name":"اعمال البناء و المقاولات","District_ID":"Salalah al Jadida","Gov_ID":"Dhofar Governorate","Wlyt_ID":"Salalah","Road_ID":"104206","Latitude":17.014829500000001,"Longitude":54.086340059999998,"GlobalID":"{1BD6374A-7A9A-4027-A4B2-402DD5C2D312}"}},{"type":"Feature","id":8,"geometry":{"type":"Point","coordinates":[189824.73220000044,1883499.5710000005]},"properties":{"OBJECTID":8,"Asset_ID":"CO8","Name":"مقاولات البناء و التشييد","District_ID":"Salalah al Jadida","Gov_ID":"Dhofar Governorate","Wlyt_ID":"Salalah","Road_ID":"104190","Latitude":17.014786040000001,"Longitude":54.086822179999999,"GlobalID":"{D4431956-3BC9-4F28-ABD5-59BD2847BDCF}"}},{"type":"Feature","id":9,"geometry":{"type":"Point","coordinates":[189888.30590000004,1883357.7671000008]},"properties":{"OBJECTID":9,"Asset_ID":"CO9","Name":"مقاولات البناء و التشييد","District_ID":"Salalah al Gharbiyya","Gov_ID":"Dhofar Governorate","Wlyt_ID":"Salalah","Road_ID":"103812","Latitude":17.013514399999998,"Longitude":54.087438509999998,"GlobalID":"{EF12E634-B5A0-4A07-AFD2-822281BFD2E8}"}},{"type":"Feature","id":10,"geometry":{"type":"Point","coordinates":[189767.7921000002,1883320.0941000003]},"properties":{"OBJECTID":10,"Asset_ID":"CO10","Name":"العروض للعقارات","District_ID":"Salalah al Gharbiyya","Gov_ID":"Dhofar Governorate","Wlyt_ID":"Salalah","Road_ID":"103812","Latitude":17.013158099999998,"Longitude":54.086312980000002,"GlobalID":"{6A63B94C-DC6C-4F3C-990C-C4A132A9E113}"}},{"type":"Feature","id":11,"geometry":{"type":"Point","coordinates":[189419.30289999954,1883211.7481999993]},"properties":{"OBJECTID":11,"Asset_ID":"CO11","Name":"شركة الاصدقاء للعقارات ( وسائط العقارات)","District_ID":"Salalah al Gharbiyya","Gov_ID":"Dhofar Governorate","Wlyt_ID":"Salalah","Road_ID":"103812","Latitude":17.0121331,"Longitude":54.083058219999998,"GlobalID":"{EB2B366D-0534-4565-BE67-DE1AC0A74E35}"}},{"type":"Feature","id":12,"geometry":{"type":"Point","coordinates":[189194.86349999998,1883181.2323000003]},"properties":{"OBJECTID":12,"Asset_ID":"CO12","Name":"المكان العقاري","District_ID":"Salalah al Jadida","Gov_ID":"Dhofar Governorate","Wlyt_ID":"Salalah","Road_ID":"103812","Latitude":17.011827390000001,"Longitude":54.080956569999998,"GlobalID":"{9CD1F828-66E8-4AAC-AFC7-A48641455E73}"}},{"type":"Feature","id":13,"geometry":{"type":"Point","coordinates":[189153.87270000018,1883119.3477999996]},"properties":{"OBJECTID":13,"Asset_ID":"CO13","Name":"مقاولات البناء و التشييد و تنظيف المباني","District_ID":"Salalah al Gharbiyya","Gov_ID":"Dhofar Governorate","Wlyt_ID":"Salalah","Road_ID":"103812","Latitude":17.011263199999998,"Longitude":54.080580619999999,"GlobalID":"{952093FB-753B-4908-9BA4-2F9DEDB2C377}"}},{"type":"Feature","id":14,"geometry":{"type":"Point","coordinates":[189027.19010000024,1883147.5991999991]},"properties":{"OBJECTID":14,"Asset_ID":"CO14","Name":"ميثاق للخدمات العقارية","District_ID":"Salalah al Jadida","Gov_ID":"Dhofar Governorate","Wlyt_ID":"Salalah","Road_ID":"104246","Latitude":17.01150118,"Longitude":54.079388000000002,"GlobalID":"{A3D5C373-BC24-4004-B273-0FD066ED9078}"}},{"type":"Feature","id":15,"geometry":{"type":"Point","coordinates":[189021.61199999973,1883138.4115999993]},"properties":{"OBJECTID":15,"Asset_ID":"CO15","Name":"الظلال العقارية","District_ID":"Salalah al Jadida","Gov_ID":"Dhofar Governorate","Wlyt_ID":"Salalah","Road_ID":"104246","Latitude":17.011417479999999,"Longitude":54.079336949999998,"GlobalID":"{DFED0165-53E2-4582-9DA1-72BB56545CC7}"}},{"type":"Feature","id":16,"geometry":{"type":"Point","coordinates":[189018.33069999982,1883133.1615999993]},"properties":{"OBJECTID":16,"Asset_ID":"CO16","Name":"دار المقام للعقارات","District_ID":"Salalah al Jadida","Gov_ID":"Dhofar Governorate","Wlyt_ID":"Salalah","Road_ID":"104246","Latitude":17.011369640000002,"Longitude":54.079306899999999,"GlobalID":"{C61E9EC4-E8CE-4216-847F-821A182E3125}"}},{"type":"Feature","id":17,"geometry":{"type":"Point","coordinates":[189036.21360000037,1883086.3213]},"properties":{"OBJECTID":17,"Asset_ID":"CO17","Name":"قلعة رخيوت للعقارات","District_ID":"Salalah al Gharbiyya","Gov_ID":"Dhofar Governorate","Wlyt_ID":"Salalah","Road_ID":"104478","Latitude":17.010949190000002,"Longitude":54.079481250000001,"GlobalID":"{217B937A-8DCD-4627-A275-94DDD2FDD0B4}"}},{"type":"Feature","id":18,"geometry":{"type":"Point","coordinates":[189037.8543999996,1883075.3290999997]},"properties":{"OBJECTID":18,"Asset_ID":"CO18","Name":"السرد للعقارات","District_ID":"Salalah al Gharbiyya","Gov_ID":"Dhofar Governorate","Wlyt_ID":"Salalah","Road_ID":"104468","Latitude":17.010850179999998,"Longitude":54.079498190000002,"GlobalID":"{9D2C3D47-4071-45F7-B9D3-D0CED0F5459B}"}},{"type":"Feature","id":19,"geometry":{"type":"Point","coordinates":[188937.55659999978,1883052.8793000001]},"properties":{"OBJECTID":19,"Asset_ID":"CO19","Name":"البورصة المتحدة للعقارات","District_ID":"Salalah al Gharbiyya","Gov_ID":"Dhofar Governorate","Wlyt_ID":"Salalah","Road_ID":"103812","Latitude":17.010633989999999,"Longitude":54.078560240000002,"GlobalID":"{888E688A-5925-4E37-BF5E-4008234BF934}"}},{"type":"Feature","id":20,"geometry":{"type":"Point","coordinates":[188934.68539999984,1883052.2229999993]},"properties":{"OBJECTID":20,"Asset_ID":"CO20","Name":"ديوانية الشيخ للعقارات","District_ID":"Salalah al Gharbiyya","Gov_ID":"Dhofar Governorate","Wlyt_ID":"Salalah","Road_ID":"103812","Latitude":17.010627679999999,"Longitude":54.078533389999997,"GlobalID":"{C290E92D-5A33-476F-BCEC-7A97932FCE78}"}},{"type":"Feature","id":21,"geometry":{"type":"Point","coordinates":[188930.58389999997,1883051.2386000007]},"properties":{"OBJECTID":21,"Asset_ID":"CO21","Name":"ميسرة للخدمات العقارية","District_ID":"Salalah al Gharbiyya","Gov_ID":"Dhofar Governorate","Wlyt_ID":"Salalah","Road_ID":"103812","Latitude":17.010618239999999,"Longitude":54.078495050000001,"GlobalID":"{D978CDE4-A13E-4FC3-8AD6-62D2A6E005FC}"}},{"type":"Feature","id":22,"geometry":{"type":"Point","coordinates":[188926.15409999993,1883050.0080999993]},"properties":{"OBJECTID":22,"Asset_ID":"CO22","Name":"المستشار للعقارات","District_ID":"Salalah al Gharbiyya","Gov_ID":"Dhofar Governorate","Wlyt_ID":"Salalah","Road_ID":"103812","Latitude":17.01060653,"Longitude":54.078453660000001,"GlobalID":"{86F66A5C-7E59-487F-90D0-1D5350B13B30}"}},{"type":"Feature","id":23,"geometry":{"type":"Point","coordinates":[188873.7620000001,1883032.1908999998]},"properties":{"OBJECTID":23,"Asset_ID":"CO23","Name":"بن طوق العقارية","District_ID":"Salalah al Gharbiyya","Gov_ID":"Dhofar Governorate","Wlyt_ID":"Salalah","Road_ID":"103812","Latitude":17.010438619999999,"Longitude":54.077964559999998,"GlobalID":"{7FC7A314-F018-4F8A-9151-C92E774E4109}"}},{"type":"Feature","id":24,"geometry":{"type":"Point","coordinates":[188868.3479000004,1883030.2222000007]},"properties":{"OBJECTID":24,"Asset_ID":"CO24","Name":"السخاء للخدمات العقارية","District_ID":"Salalah al Gharbiyya","Gov_ID":"Dhofar Governorate","Wlyt_ID":"Salalah","Road_ID":"103812","Latitude":17.010420119999999,"Longitude":54.077914040000003,"GlobalID":"{9381D064-C01F-42BE-A060-B261CEA93960}"}},{"type":"Feature","id":25,"geometry":{"type":"Point","coordinates":[188862.60560000036,1883027.9253000002]},"properties":{"OBJECTID":25,"Asset_ID":"CO25","Name":"الفرسان للعقارات","District_ID":"Salalah al Gharbiyya","Gov_ID":"Dhofar Governorate","Wlyt_ID":"Salalah","Road_ID":"104475","Latitude":17.010398609999999,"Longitude":54.077860479999998,"GlobalID":"{7F939D9D-135D-45D5-80DF-38C81B705163}"}},{"type":"Feature","id":26,"geometry":{"type":"Point","coordinates":[187989.97800000012,1882795.0258000009]},"properties":{"OBJECTID":26,"Asset_ID":"CO26","Name":"شركة المقر للتجارة و المقاولات","District_ID":"al Wadi","Gov_ID":"Dhofar Governorate","Wlyt_ID":"Salalah","Road_ID":"104327","Latitude":17.008178269999998,"Longitude":54.069705450000001,"GlobalID":"{5923FD6C-87BD-429E-BE42-D64E7852DF76}"}},{"type":"Feature","id":27,"geometry":{"type":"Point","coordinates":[187965.69660000037,1882787.807]},"properties":{"OBJECTID":27,"Asset_ID":"CO27","Name":"ابوهائل للتجارة و المقاولات (مقاولات الطرق)","District_ID":"al Wadi","Gov_ID":"Dhofar Governorate","Wlyt_ID":"Salalah","Road_ID":"104327","Latitude":17.008109820000001,"Longitude":54.069478629999999,"GlobalID":"{68DE9226-B2BA-44DF-B6F8-7E3624E008AF}"}},{"type":"Feature","id":28,"geometry":{"type":"Point","coordinates":[186824.18080000021,1882619.1903000008]},"properties":{"OBJECTID":28,"Asset_ID":"CO28","Name":"شركة دار الخليج للعقارات","District_ID":"al Wadi","Gov_ID":"Dhofar Governorate","Wlyt_ID":"Salalah","Road_ID":"105510","Latitude":17.006433019999999,"Longitude":54.058791929999998,"GlobalID":"{9907C12F-16DF-45C6-9CC9-398B27BE35D4}"}},{"type":"Feature","id":29,"geometry":{"type":"Point","coordinates":[186845.33559999987,1882650.7579999994]},"properties":{"OBJECTID":29,"Asset_ID":"CO29","Name":"اعمال البناء و المقاولات","District_ID":"al Wadi","Gov_ID":"Dhofar Governorate","Wlyt_ID":"Salalah","Road_ID":"105354","Latitude":17.006720869999999,"Longitude":54.058985970000002,"GlobalID":"{CC1AB57A-F6D9-4624-AD99-1F1521CDC43E}"}},{"type":"Feature","id":30,"geometry":{"type":"Point","coordinates":[186891.76570000034,1882654.2032999992]},"properties":{"OBJECTID":30,"Asset_ID":"CO30","Name":"مقاولات البناء و التشييد","District_ID":"al Wadi","Gov_ID":"Dhofar Governorate","Wlyt_ID":"Salalah","Road_ID":"105354","Latitude":17.006758269999999,"Longitude":54.059421120000003,"GlobalID":"{8A5736A8-7F5E-47DE-B68D-DC3CBD178F39}"}},{"type":"Feature","id":31,"geometry":{"type":"Point","coordinates":[187171.34009999968,1883378.9904999994]},"properties":{"OBJECTID":31,"Asset_ID":"CO31","Name":"مقاولات البناء و التشييد","District_ID":"al Wadi","Gov_ID":"Dhofar Governorate","Wlyt_ID":"Salalah","Road_ID":"105360","Latitude":17.013339259999999,"Longitude":54.06194215,"GlobalID":"{3DBC38B0-CEDA-471A-83A9-F01344859128}"}},{"type":"Feature","id":32,"geometry":{"type":"Point","coordinates":[187281.0987999998,1883251.9027999993]},"properties":{"OBJECTID":32,"Asset_ID":"CO32","Name":"المملكة للاعمار و التجارة و المقاولات","District_ID":"al Wadi","Gov_ID":"Dhofar Governorate","Wlyt_ID":"Salalah","Road_ID":"105342","Latitude":17.012206840000001,"Longitude":54.062989899999998,"GlobalID":"{F364D8C7-D9BE-4B32-BFDC-E34C2F417ED2}"}},{"type":"Feature","id":33,"geometry":{"type":"Point","coordinates":[186877.82969999965,1882553.6468000002]},"properties":{"OBJECTID":33,"Asset_ID":"CO33","Name":"مقاولات البناء و استيراد و تصدير وكالات و تمثيل تجاري بيع و شراء الاراضي","District_ID":"al Wadi","Gov_ID":"Dhofar Governorate","Wlyt_ID":"Salalah","Road_ID":"105467","Latitude":17.0058486,"Longitude":54.059304539999999,"GlobalID":"{C3E783B3-EB3C-43CA-8297-3554DB4E323F}"}},{"type":"Feature","id":34,"geometry":{"type":"Point","coordinates":[189591.71839999966,1883923.1638999991]},"properties":{"OBJECTID":34,"Asset_ID":"CO34","Name":"ابو بدر وساطة عقارية","District_ID":"Salalah al Jadida","Gov_ID":"Dhofar Governorate","Wlyt_ID":"Salalah","Road_ID":"104264","Latitude":17.0185788,"Longitude":54.084576519999999,"GlobalID":"{B9F2D75E-761E-405B-AB79-09345771F372}"}},{"type":"Feature","id":35,"geometry":{"type":"Point","coordinates":[189171.8535000002,1883843.3122000005]},"properties":{"OBJECTID":35,"Asset_ID":"CO35","Name":"مقاولات البناء و التشييد","District_ID":"Salalah al Jadida","Gov_ID":"Dhofar Governorate","Wlyt_ID":"Salalah","Road_ID":"104263","Latitude":17.017801380000002,"Longitude":54.08064796,"GlobalID":"{75402E0D-74DE-4942-8FB1-8F0DE7B41B82}"}},{"type":"Feature","id":36,"geometry":{"type":"Point","coordinates":[189749.44049999956,1883378.3140999991]},"properties":{"OBJECTID":36,"Asset_ID":"CO36","Name":"مقاولات البناء و التشييد","District_ID":"Salalah al Jadida","Gov_ID":"Dhofar Governorate","Wlyt_ID":"Salalah","Road_ID":"104374","Latitude":17.01368123,"Longitude":54.086132650000003,"GlobalID":"{5CA2E2DE-9626-44AE-BD34-0B04BB9ED9E8}"}},{"type":"Feature","id":37,"geometry":{"type":"Point","coordinates":[189201.06259999983,1883460.0493999999]},"properties":{"OBJECTID":37,"Asset_ID":"CO37","Name":"الأرش العربية للعقارات","District_ID":"Salalah al Jadida","Gov_ID":"Dhofar Governorate","Wlyt_ID":"Salalah","Road_ID":"104210","Latitude":17.01434532,"Longitude":54.080975709999997,"GlobalID":"{3B935508-57B6-4C7F-B631-E8E7617C444E}"}},{"type":"Feature","id":38,"geometry":{"type":"Point","coordinates":[189242.81240000017,1883262.7557999995]},"properties":{"OBJECTID":38,"Asset_ID":"CO38","Name":"شركة واحة ريسوت للتجارة و المقاولات","District_ID":"Salalah al Jadida","Gov_ID":"Dhofar Governorate","Wlyt_ID":"Salalah","Road_ID":"104210","Latitude":17.01256983,"Longitude":54.081395069999999,"GlobalID":"{B7F326BF-D11E-4FAD-B96E-299C3CBB688F}"}},{"type":"Feature","id":39,"geometry":{"type":"Point","coordinates":[189085.55590000004,1883726.4576999992]},"properties":{"OBJECTID":39,"Asset_ID":"CO39","Name":"مقاولات البناء و التشييد","District_ID":"Salalah al Jadida","Gov_ID":"Dhofar Governorate","Wlyt_ID":"Salalah","Road_ID":"104375","Latitude":17.01673482,"Longitude":54.079854580000003,"GlobalID":"{B0B60764-948C-4AA0-A91B-B9309536EA9A}"}},{"type":"Feature","id":40,"geometry":{"type":"Point","coordinates":[188958.24230000004,1883742.2079000007]},"properties":{"OBJECTID":40,"Asset_ID":"CO40","Name":"مشاريع حامد سالمين للتجارة و المقاولات","District_ID":"Salalah al Jadida","Gov_ID":"Dhofar Governorate","Wlyt_ID":"Salalah","Road_ID":"104187","Latitude":17.016859849999999,"Longitude":54.078657759999999,"GlobalID":"{D9778ADD-A79C-4A78-9B37-C2E6C78BAA9C}"}},{"type":"Feature","id":41,"geometry":{"type":"Point","coordinates":[188889.99170000013,1883932.8500999995]},"properties":{"OBJECTID":41,"Asset_ID":"CO41","Name":"مدى الاتقان للتجارة و المقاولات","District_ID":"Salalah al Jadida","Gov_ID":"Dhofar Governorate","Wlyt_ID":"Salalah","Road_ID":"104246","Latitude":17.01857171,"Longitude":54.077990620000001,"GlobalID":"{C09B7FB4-8E53-45C5-AABA-C84D91C1E19C}"}},{"type":"Feature","id":42,"geometry":{"type":"Point","coordinates":[188874.56969999988,1884089.6952]},"properties":{"OBJECTID":42,"Asset_ID":"CO42","Name":"مقاولات البناء و التشييد","District_ID":"Salalah al Jadida","Gov_ID":"Dhofar Governorate","Wlyt_ID":"Salalah","Road_ID":"104246","Latitude":17.01998558,"Longitude":54.07782392,"GlobalID":"{860DDA0B-7909-4E92-9173-881FBF72FE30}"}},{"type":"Feature","id":43,"geometry":{"type":"Point","coordinates":[188876.70249999966,1884078.0467000008]},"properties":{"OBJECTID":43,"Asset_ID":"CO43","Name":"مؤسسة شمر للتجارة  (مقاولات انشاء شبكات و محطات المياه و الكهرباء و الهاتف )","District_ID":"Salalah al Jadida","Gov_ID":"Dhofar Governorate","Wlyt_ID":"Salalah","Road_ID":"104291","Latitude":17.019880709999999,"Longitude":54.077845570000001,"GlobalID":"{EA61A931-F359-4420-B5E6-EDFB7C8DC289}"}},{"type":"Feature","id":44,"geometry":{"type":"Point","coordinates":[188983.67219999991,1883523.0185000002]},"properties":{"OBJECTID":44,"Asset_ID":"CO44","Name":"مقاولات البناء و التشييد","District_ID":"Salalah al Jadida","Gov_ID":"Dhofar Governorate","Wlyt_ID":"Salalah","Road_ID":"104415","Latitude":17.01488449,"Longitude":54.07892708,"GlobalID":"{D99C0C2B-7D1A-4466-9AA1-DCF97659DBD3}"}},{"type":"Feature","id":45,"geometry":{"type":"Point","coordinates":[189022.30920000002,1883348.2904000003]},"properties":{"OBJECTID":45,"Asset_ID":"CO45","Name":"ابو ليث (مقاولات البناء)","District_ID":"Salalah al Jadida","Gov_ID":"Dhofar Governorate","Wlyt_ID":"Salalah","Road_ID":"104240","Latitude":17.013312299999999,"Longitude":54.079314099999998,"GlobalID":"{ADDF9AB1-E40D-4EAC-A1BE-61B2CD0B5F3B}"}},{"type":"Feature","id":46,"geometry":{"type":"Point","coordinates":[189026.2237999998,1883330.7208999991]},"properties":{"OBJECTID":46,"Asset_ID":"CO46","Name":"مقاولات البناء و التشييد","District_ID":"Salalah al Jadida","Gov_ID":"Dhofar Governorate","Wlyt_ID":"Salalah","Road_ID":"104240","Latitude":17.013154220000001,"Longitude":54.07935329,"GlobalID":"{1026250A-8268-4A52-9B29-71379D4192B8}"}},{"type":"Feature","id":47,"geometry":{"type":"Point","coordinates":[189011.80910000019,1883229.7443000004]},"properties":{"OBJECTID":47,"Asset_ID":"CO47","Name":"مقاولات البناء و التشييد","District_ID":"Salalah al Jadida","Gov_ID":"Dhofar Governorate","Wlyt_ID":"Salalah","Road_ID":"104399","Latitude":17.012240689999999,"Longitude":54.079232179999998,"GlobalID":"{E101F2B5-998A-4E29-AF28-E8DE678F381A}"}},{"type":"Feature","id":48,"geometry":{"type":"Point","coordinates":[186045.48070000019,1882378.2953999992]},"properties":{"OBJECTID":48,"Asset_ID":"CO48","Name":"مقاولات البناء وتشييد","District_ID":"Auqad al Janubiyya","Gov_ID":"Dhofar Governorate","Wlyt_ID":"Salalah","Road_ID":"105424","Latitude":17.004152569999999,"Longitude":54.051519810000002,"GlobalID":"{C1A672C0-C3A0-47A5-B838-7DAD84C9B40D}"}},{"type":"Feature","id":49,"geometry":{"type":"Point","coordinates":[186039.80069999956,1882378.4409999996]},"properties":{"OBJECTID":49,"Asset_ID":"CO49","Name":"مقاولات البناء وتشييد","District_ID":"Auqad al Janubiyya","Gov_ID":"Dhofar Governorate","Wlyt_ID":"Salalah","Road_ID":"105424","Latitude":17.004153110000001,"Longitude":54.051466499999997,"GlobalID":"{9342E1EC-CF59-4489-97EB-F7D686706F28}"}},{"type":"Feature","id":50,"geometry":{"type":"Point","coordinates":[184595.12330000009,1882091.2977000009]},"properties":{"OBJECTID":50,"Asset_ID":"CO50","Name":"مقاولات البناء وتشييد","District_ID":"Auqad al Janubiyya","Gov_ID":"Dhofar Governorate","Wlyt_ID":"Salalah","Road_ID":"105396","Latitude":17.00136406,"Longitude":54.037952840000003,"GlobalID":"{62777199-43BD-4168-90C6-BD890DD865BF}"}},{"type":"Feature","id":51,"geometry":{"type":"Point","coordinates":[184477.42949999962,1881996.1232999992]},"properties":{"OBJECTID":51,"Asset_ID":"CO51","Name":"مقاولات البناء وتشييد","District_ID":"Auqad al Janubiyya","Gov_ID":"Dhofar Governorate","Wlyt_ID":"Salalah","Road_ID":"105398","Latitude":17.000488799999999,"Longitude":54.036862139999997,"GlobalID":"{C3EA44EF-F3EB-442B-A042-01477E84343B}"}},{"type":"Feature","id":52,"geometry":{"type":"Point","coordinates":[184455.97670000046,1881801.9817999993]},"properties":{"OBJECTID":52,"Asset_ID":"CO52","Name":"مقاولات البناء وتشييد","District_ID":"Auqad al Janubiyya","Gov_ID":"Dhofar Governorate","Wlyt_ID":"Salalah","Road_ID":"105399","Latitude":16.99873328,"Longitude":54.036688439999999,"GlobalID":"{293C3940-1377-481C-8A7D-297FF2E4461F}"}},{"type":"Feature","id":53,"geometry":{"type":"Point","coordinates":[184723.49170000013,1882178.0494999997]},"properties":{"OBJECTID":53,"Asset_ID":"CO53","Name":"مقاولات البناء وتشييد","District_ID":"Auqad al Janubiyya","Gov_ID":"Dhofar Governorate","Wlyt_ID":"Salalah","Road_ID":"105393","Latitude":17.002164730000001,"Longitude":54.039144899999997,"GlobalID":"{BBABB91B-1F17-406E-A9ED-1C7BC5C45947}"}},{"type":"Feature","id":54,"geometry":{"type":"Point","coordinates":[185122.76769999973,1882112.8615000006]},"properties":{"OBJECTID":54,"Asset_ID":"CO54","Name":"مقاولات البناء وتشييد","District_ID":"Auqad al Janubiyya","Gov_ID":"Dhofar Governorate","Wlyt_ID":"Salalah","Road_ID":"105411","Latitude":17.001630729999999,"Longitude":54.042900230000001,"GlobalID":"{7420383F-82F8-4C06-8A2A-13EC2A718EAE}"}},{"type":"Feature","id":55,"geometry":{"type":"Point","coordinates":[185177.78479999956,1882123.5361000001]},"properties":{"OBJECTID":55,"Asset_ID":"CO55","Name":"مقاولات البناء وتشييد","District_ID":"Auqad al Janubiyya","Gov_ID":"Dhofar Governorate","Wlyt_ID":"Salalah","Road_ID":"105410","Latitude":17.001734599999999,"Longitude":54.043414890000001,"GlobalID":"{7AE8F454-51B9-49F2-BE08-87521D72D7ED}"}},{"type":"Feature","id":56,"geometry":{"type":"Point","coordinates":[185799.67760000005,1882248.6969000008]},"properties":{"OBJECTID":56,"Asset_ID":"CO56","Name":"مقاولات البناء وتشييد","District_ID":"Auqad al Janubiyya","Gov_ID":"Dhofar Governorate","Wlyt_ID":"Salalah","Road_ID":"105345","Latitude":17.002949189999999,"Longitude":54.049231929999998,"GlobalID":"{2966A2AC-299B-4BA5-A9D7-35611EE65955}"}},{"type":"Feature","id":57,"geometry":{"type":"Point","coordinates":[185797.78120000008,1882248.4597999994]},"properties":{"OBJECTID":57,"Asset_ID":"CO57","Name":"مقاولات البناء وتشييد","District_ID":"Auqad al Janubiyya","Gov_ID":"Dhofar Governorate","Wlyt_ID":"Salalah","Road_ID":"105345","Latitude":17.002946789999999,"Longitude":54.049214169999999,"GlobalID":"{3C710E4B-6258-4B6A-9CE9-F2F31FB625E5}"}},{"type":"Feature","id":58,"geometry":{"type":"Point","coordinates":[186008.23909999989,1882259.2094000001]},"properties":{"OBJECTID":58,"Asset_ID":"CO58","Name":"مقاولات البناء وتشييد","District_ID":"Auqad al Janubiyya","Gov_ID":"Dhofar Governorate","Wlyt_ID":"Salalah","Road_ID":"105345","Latitude":17.003072459999999,"Longitude":54.051187229999996,"GlobalID":"{30FA9E94-2BB2-4A20-95DA-A8B8EFB46763}"}},{"type":"Feature","id":59,"geometry":{"type":"Point","coordinates":[187300.08920000028,1882394.534]},"properties":{"OBJECTID":59,"Asset_ID":"CO59","Name":"مقاولات البناء وتشييد","District_ID":"al Wadi","Gov_ID":"Dhofar Governorate","Wlyt_ID":"Salalah","Road_ID":"105384","Latitude":17.00446943,"Longitude":54.063288810000003,"GlobalID":"{BF5B9647-A6B5-4888-BB71-92ACE4F1CE94}"}},{"type":"Feature","id":60,"geometry":{"type":"Point","coordinates":[185703.04590000026,1885686.1221999992]},"properties":{"OBJECTID":60,"Asset_ID":"CO60","Name":"مقاولات بناء وتشييد استيراد وتصدير ","District_ID":"New Industrial Area","Gov_ID":"Dhofar Governorate","Wlyt_ID":"Salalah","Road_ID":"105222","Latitude":17.03396729,"Longitude":54.047838509999998,"GlobalID":"{9C276362-2E14-4699-8CED-8AD88411E9A8}"}},{"type":"Feature","id":61,"geometry":{"type":"Point","coordinates":[185651.79879999999,1885606.3408000004]},"properties":{"OBJECTID":61,"Asset_ID":"CO61","Name":"شركة غالب بخيت ومحسم مسلم للتجارة والمقاولات  ","District_ID":"New Industrial Area","Gov_ID":"Dhofar Governorate","Wlyt_ID":"Salalah","Road_ID":"105213","Latitude":17.033240079999999,"Longitude":54.047368929999998,"GlobalID":"{AB77650F-26D0-4939-9431-9DD89B2BBF13}"}},{"type":"Feature","id":62,"geometry":{"type":"Point","coordinates":[185784.96590000018,1885679.3598999996]},"properties":{"OBJECTID":62,"Asset_ID":"CO62","Name":"حمادي للتجارة والمقاولات","District_ID":"New Industrial Area","Gov_ID":"Dhofar Governorate","Wlyt_ID":"Salalah","Road_ID":"105213","Latitude":17.033917410000001,"Longitude":54.048608190000003,"GlobalID":"{14A5B9E0-3491-4681-A9B6-D30740DB0EAF}"}},{"type":"Feature","id":63,"geometry":{"type":"Point","coordinates":[185765.61959999986,1885617.2119999994]},"properties":{"OBJECTID":63,"Asset_ID":"CO63","Name":"مقاولات بناء وتشييد","District_ID":"New Industrial Area","Gov_ID":"Dhofar Governorate","Wlyt_ID":"Salalah","Road_ID":"105213","Latitude":17.033353739999999,"Longitude":54.04843546,"GlobalID":"{99053A05-6948-4C4C-AE10-78866EA20A4C}"}},{"type":"Feature","id":64,"geometry":{"type":"Point","coordinates":[185483.90890000015,1885318.7815000005]},"properties":{"OBJECTID":64,"Asset_ID":"CO64","Name":"بن دول مقاولات بناء وتشييد","District_ID":"New Industrial Area","Gov_ID":"Dhofar Governorate","Wlyt_ID":"Salalah","Road_ID":"105216","Latitude":17.030621249999999,"Longitude":54.04583427,"GlobalID":"{88806774-6DF9-422C-8115-B2B80F0E54C3}"}},{"type":"Feature","id":65,"geometry":{"type":"Point","coordinates":[185831.99519999977,1885890.0015999991]},"properties":{"OBJECTID":65,"Asset_ID":"CO65","Name":"شركة الزحف الشاملة للتجارة والمقاولات","District_ID":"New Industrial Area","Gov_ID":"Dhofar Governorate","Wlyt_ID":"Salalah","Road_ID":"105222","Latitude":17.035825389999999,"Longitude":54.049019649999998,"GlobalID":"{4A423780-A2A5-43F0-8789-71676332393B}"}},{"type":"Feature","id":66,"geometry":{"type":"Point","coordinates":[185827.71800000034,1885900.2984999996]},"properties":{"OBJECTID":66,"Asset_ID":"CO66","Name":"مقاولات بناء والتشييد","District_ID":"New Industrial Area","Gov_ID":"Dhofar Governorate","Wlyt_ID":"Salalah","Road_ID":"105222","Latitude":17.03591776,"Longitude":54.048978060000003,"GlobalID":"{748F0C2D-440E-440B-9A1D-7DA9CBB56EB9}"}},{"type":"Feature","id":67,"geometry":{"type":"Point","coordinates":[185823.12399999984,1885909.2489999998]},"properties":{"OBJECTID":67,"Asset_ID":"CO67","Name":"مشاريع الظل للتجارة والمقاولات","District_ID":"New Industrial Area","Gov_ID":"Dhofar Governorate","Wlyt_ID":"Salalah","Road_ID":"105222","Latitude":17.035997930000001,"Longitude":54.048933679999998,"GlobalID":"{446ECCBA-5B50-4701-8AF6-87CF53E23272}"}},{"type":"Feature","id":68,"geometry":{"type":"Point","coordinates":[185633.43769999966,1886235.8959999997]},"properties":{"OBJECTID":68,"Asset_ID":"CO68","Name":"مؤسسة البيخيت للتجارة والمقاولات","District_ID":"New Industrial Area","Gov_ID":"Dhofar Governorate","Wlyt_ID":"Salalah","Road_ID":"105226","Latitude":17.03892085,"Longitude":54.047107349999997,"GlobalID":"{DFFF69FC-D8B6-4770-8E74-7CD5655C675F}"}},{"type":"Feature","id":69,"geometry":{"type":"Point","coordinates":[185548.98780000024,1886031.1488000005]},"properties":{"OBJECTID":69,"Asset_ID":"CO69","Name":"مؤسسة التكويين للتجارة والمقاولات","District_ID":"New Industrial Area","Gov_ID":"Dhofar Governorate","Wlyt_ID":"Salalah","Road_ID":"105225","Latitude":17.03706098,"Longitude":54.046343909999997,"GlobalID":"{402ED9A6-68DB-46BC-916C-F20535C62B6A}"}},{"type":"Feature","id":70,"geometry":{"type":"Point","coordinates":[185267.08939999994,1885599.4695999995]},"properties":{"OBJECTID":70,"Asset_ID":"CO70","Name":"الشركة العربية الوطنيةللهندسة والمقاولات","District_ID":"New Industrial Area","Gov_ID":"Dhofar Governorate","Wlyt_ID":"Salalah","Road_ID":"105195","Latitude":17.03312554,"Longitude":54.043759870000002,"GlobalID":"{6646E348-A0AE-497C-9F2E-4AB2270138E1}"}},{"type":"Feature","id":71,"geometry":{"type":"Point","coordinates":[184732.25260000024,1885285.7139999997]},"properties":{"OBJECTID":71,"Asset_ID":"CO71","Name":"مقاولات بناء وتشييد","District_ID":"New Industrial Area","Gov_ID":"Dhofar Governorate","Wlyt_ID":"Salalah","Road_ID":"105248","Latitude":17.03022005,"Longitude":54.03878572,"GlobalID":"{DB1A0164-A284-4C5C-B480-77B0DAB22B8E}"}},{"type":"Feature","id":72,"geometry":{"type":"Point","coordinates":[184639.17899999954,1885259.5406999998]},"properties":{"OBJECTID":72,"Asset_ID":"CO72","Name":"مقاولات بناء وتشييد","District_ID":"New Industrial Area","Gov_ID":"Dhofar Governorate","Wlyt_ID":"Salalah","Road_ID":"105249","Latitude":17.02997104,"Longitude":54.037916080000002,"GlobalID":"{D1DB16A0-C4E1-427A-AFB1-68B47E8FFB6B}"}},{"type":"Feature","id":73,"geometry":{"type":"Point","coordinates":[185021.72609999962,1885623.4171999991]},"properties":{"OBJECTID":73,"Asset_ID":"CO73","Name":"مقاولات بناء وتشييد","District_ID":"New Industrial Area","Gov_ID":"Dhofar Governorate","Wlyt_ID":"Salalah","Road_ID":"105255","Latitude":17.033308210000001,"Longitude":54.041454039999998,"GlobalID":"{D510F025-13B6-42B9-93E2-D88941CFBE25}"}},{"type":"Feature","id":74,"geometry":{"type":"Point","coordinates":[185051.6819000002,1885592.5767999999]},"properties":{"OBJECTID":74,"Asset_ID":"CO74","Name":"مقاولات بناء وتشييد","District_ID":"New Industrial Area","Gov_ID":"Dhofar Governorate","Wlyt_ID":"Salalah","Road_ID":"105254","Latitude":17.033033889999999,"Longitude":54.04173952,"GlobalID":"{D8A1184B-0623-4F82-BFE0-62FACD84E29F}"}},{"type":"Feature","id":75,"geometry":{"type":"Point","coordinates":[189894.04540000018,1883238.4430999998]},"properties":{"OBJECTID":75,"Asset_ID":"CO75","Name":"مقاولات إنشاء شبكات ومحطات مياة وكهرباءوالهاتف","District_ID":"Salalah al Gharbiyya","Gov_ID":"Dhofar Governorate","Wlyt_ID":"Salalah","Road_ID":"104474","Latitude":17.012437940000002,"Longitude":54.08750903,"GlobalID":"{E09EBA56-4689-476C-B435-3A9E8D2D6718}"}},{"type":"Feature","id":76,"geometry":{"type":"Point","coordinates":[189494.52850000001,1883131.2962999996]},"properties":{"OBJECTID":76,"Asset_ID":"CO76","Name":"مقاولات بناء وتشييد","District_ID":"Salalah al Gharbiyya","Gov_ID":"Dhofar Governorate","Wlyt_ID":"Salalah","Road_ID":"104464","Latitude":17.011416919999998,"Longitude":54.083775320000001,"GlobalID":"{1E0AB3DA-85EB-495E-A2DD-0CE26B35C068}"}},{"type":"Feature","id":77,"geometry":{"type":"Point","coordinates":[189347.79679999966,1883137.7226999998]},"properties":{"OBJECTID":77,"Asset_ID":"CO77","Name":"مقاولات بناء وتشييد","District_ID":"Salalah al Gharbiyya","Gov_ID":"Dhofar Governorate","Wlyt_ID":"Salalah","Road_ID":"104468","Latitude":17.01145519,"Longitude":54.082397630000003,"GlobalID":"{65C738AB-4B10-43C9-830E-16435C40F781}"}},{"type":"Feature","id":78,"geometry":{"type":"Point","coordinates":[189462.17819999997,1883167.2563000005]},"properties":{"OBJECTID":78,"Asset_ID":"CO78","Name":"مقاولات بناء وتشييد","District_ID":"Salalah al Gharbiyya","Gov_ID":"Dhofar Governorate","Wlyt_ID":"Salalah","Road_ID":"104468","Latitude":17.01173721,"Longitude":54.083466749999999,"GlobalID":"{E4FCF57A-C7BE-42A4-9659-D191B3FEA4B0}"}},{"type":"Feature","id":79,"geometry":{"type":"Point","coordinates":[188372.23670000024,1882782.4024]},"properties":{"OBJECTID":79,"Asset_ID":"CO79","Name":"مقاولات بناء وتشييد","District_ID":"Salalah al Gharbiyya","Gov_ID":"Dhofar Governorate","Wlyt_ID":"Salalah","Road_ID":"103824","Latitude":17.008115950000001,"Longitude":54.073293849999999,"GlobalID":"{411A5E4C-1C9C-4E4A-8FCC-C9CA88859499}"}},{"type":"Feature","id":80,"geometry":{"type":"Point","coordinates":[190155.27500000037,1883056.2675000001]},"properties":{"OBJECTID":80,"Asset_ID":"CO80","Name":"مقاولات بناء وتشييد","District_ID":"Salalah al Gharbiyya","Gov_ID":"Dhofar Governorate","Wlyt_ID":"Salalah","Road_ID":"104496","Latitude":17.01082839,"Longitude":54.089985599999999,"GlobalID":"{B907E244-9B5B-4D64-AFBB-F8C091E5028A}"}},{"type":"Feature","id":81,"geometry":{"type":"Point","coordinates":[190372.67509999964,1882790.0704999994]},"properties":{"OBJECTID":81,"Asset_ID":"CO81","Name":"مقاولات بناء وتشييد","District_ID":"Salalah al Wousta","Gov_ID":"Dhofar Governorate","Wlyt_ID":"Salalah","Road_ID":"104448","Latitude":17.00845438,"Longitude":54.092062589999998,"GlobalID":"{555D1D5C-1D7D-4D49-BE90-64DEDFB6CD7E}"}},{"type":"Feature","id":82,"geometry":{"type":"Point","coordinates":[190372.00380000006,1882794.2903000005]},"properties":{"OBJECTID":82,"Asset_ID":"CO82","Name":"مقاولات بناء وتشييد","District_ID":"Salalah al Wousta","Gov_ID":"Dhofar Governorate","Wlyt_ID":"Salalah","Road_ID":"104448","Latitude":17.008492390000001,"Longitude":54.092055700000003,"GlobalID":"{F9E9D9C3-3E4F-4FD2-BDB4-AC52F97A1CD7}"}},{"type":"Feature","id":83,"geometry":{"type":"Point","coordinates":[190370.99679999985,1882798.0305000003]},"properties":{"OBJECTID":83,"Asset_ID":"CO83","Name":"مقاولات بناء وتشييد","District_ID":"Salalah al Wousta","Gov_ID":"Dhofar Governorate","Wlyt_ID":"Salalah","Road_ID":"104448","Latitude":17.008526020000001,"Longitude":54.092045730000002,"GlobalID":"{4FDA4D2C-BC85-4AA7-B1CE-211638E3791F}"}},{"type":"Feature","id":84,"geometry":{"type":"Point","coordinates":[190369.89389999956,1882805.7028999999]},"properties":{"OBJECTID":84,"Asset_ID":"CO84","Name":"مقاولات بناء وتشييد","District_ID":"Salalah al Wousta","Gov_ID":"Dhofar Governorate","Wlyt_ID":"Salalah","Road_ID":"104448","Latitude":17.00859513,"Longitude":54.092034310000003,"GlobalID":"{A56CE05D-168E-4117-92B3-CD69ADF3083A}"}},{"type":"Feature","id":85,"geometry":{"type":"Point","coordinates":[189950.79800000042,1882767.2260999996]},"properties":{"OBJECTID":85,"Asset_ID":"CO85","Name":"مقاولات بناء وتشييد","District_ID":"Salalah al Gharbiyya","Gov_ID":"Dhofar Governorate","Wlyt_ID":"Salalah","Road_ID":"103741","Latitude":17.00819152,"Longitude":54.088107340000001,"GlobalID":"{E5779832-CB2C-44C2-B753-66694FDAC545}"}},{"type":"Feature","id":86,"geometry":{"type":"Point","coordinates":[189170.27689999994,1882724.0114999991]},"properties":{"OBJECTID":86,"Asset_ID":"CO86","Name":"مقاولات بناء وتشييد","District_ID":"Salalah al Gharbiyya","Gov_ID":"Dhofar Governorate","Wlyt_ID":"Salalah","Road_ID":"103741","Latitude":17.007696410000001,"Longitude":54.080789869999997,"GlobalID":"{6DF80296-C985-41E3-A326-55A0B5DB2D23}"}},{"type":"Feature","id":87,"geometry":{"type":"Point","coordinates":[188559.21580000035,1882527.9132000003]},"properties":{"OBJECTID":87,"Asset_ID":"CO87","Name":"مقاولات بناء وتشييد","District_ID":"Salalah al Gharbiyya","Gov_ID":"Dhofar Governorate","Wlyt_ID":"Salalah","Road_ID":"103741","Latitude":17.005843729999999,"Longitude":54.075083919999997,"GlobalID":"{89757106-C0D6-4F47-95BB-5E42297A1EA7}"}},{"type":"Feature","id":88,"geometry":{"type":"Point","coordinates":[188554.88599999994,1882545.0928000007]},"properties":{"OBJECTID":88,"Asset_ID":"CO88","Name":"مقاولات بناء وتشييد","District_ID":"Salalah al Gharbiyya","Gov_ID":"Dhofar Governorate","Wlyt_ID":"Salalah","Road_ID":"104569","Latitude":17.00599824,"Longitude":54.075040889999997,"GlobalID":"{E5001DD8-64D1-4AC8-AEA3-1B2E37552C0B}"}},{"type":"Feature","id":89,"geometry":{"type":"Point","coordinates":[188635.00480000023,1882704.6320999991]},"properties":{"OBJECTID":89,"Asset_ID":"CO89","Name":"مقاولات بناء وتشييد","District_ID":"Salalah al Gharbiyya","Gov_ID":"Dhofar Governorate","Wlyt_ID":"Salalah","Road_ID":"104480","Latitude":17.007449319999999,"Longitude":54.075770249999998,"GlobalID":"{4971AA7D-69C9-4A2D-A6BE-94BC49ADB46D}"}},{"type":"Feature","id":90,"geometry":{"type":"Point","coordinates":[188709.10960000008,1882710.6881000008]},"properties":{"OBJECTID":90,"Asset_ID":"CO90","Name":"مقاولات بناء وتشييد","District_ID":"Salalah al Gharbiyya","Gov_ID":"Dhofar Governorate","Wlyt_ID":"Salalah","Road_ID":"104502","Latitude":17.00751399,"Longitude":54.076464710000003,"GlobalID":"{2B6B2337-D5F8-4DE1-A0F3-28DD3FD94496}"}},{"type":"Feature","id":91,"geometry":{"type":"Point","coordinates":[198295.22640000004,1884220.0636999998]},"properties":{"OBJECTID":91,"Asset_ID":"CO91","Name":"مكتب مقاولات بناء","District_ID":"Dahariz al Shamaliyya","Gov_ID":"Dhofar Governorate","Wlyt_ID":"Salalah","Road_ID":"100057","Latitude":17.022414179999998,"Longitude":54.166207640000003,"GlobalID":"{D1EF0685-4A64-41CF-BEF8-85F3902D9984}"}},{"type":"Feature","id":92,"geometry":{"type":"Point","coordinates":[198076.11739999987,1884168.1235000007]},"properties":{"OBJECTID":92,"Asset_ID":"CO92","Name":"مقاولات بناء وتشييد","District_ID":"Dahariz al Shamaliyya","Gov_ID":"Dhofar Governorate","Wlyt_ID":"Salalah","Road_ID":"100002","Latitude":17.021916569999998,"Longitude":54.164158540000003,"GlobalID":"{F67935D1-28D3-4946-8F0A-66B2FC8B88F6}"}},{"type":"Feature","id":93,"geometry":{"type":"Point","coordinates":[197766.50210000016,1884221.6579]},"properties":{"OBJECTID":93,"Asset_ID":"CO93","Name":"مقاولات بناء وتشييد","District_ID":"Dahariz al Shamaliyya","Gov_ID":"Dhofar Governorate","Wlyt_ID":"Salalah","Road_ID":"100010","Latitude":17.022359340000001,"Longitude":54.16124576,"GlobalID":"{7B2633C9-7203-40D8-A5AD-3239BEA9C38D}"}},{"type":"Feature","id":94,"geometry":{"type":"Point","coordinates":[197527.63769999985,1884346.5708000008]},"properties":{"OBJECTID":94,"Asset_ID":"CO94","Name":"مقاولات بناء وتشييد","District_ID":"Dahariz al Shamaliyya","Gov_ID":"Dhofar Governorate","Wlyt_ID":"Salalah","Road_ID":"100022","Latitude":17.023455779999999,"Longitude":54.158987179999997,"GlobalID":"{631164C8-21F3-42F9-A01B-BF55AA2E438B}"}},{"type":"Feature","id":95,"geometry":{"type":"Point","coordinates":[197422.3702999996,1884177.5351999998]},"properties":{"OBJECTID":95,"Asset_ID":"CO95","Name":"مقاولات بناء وتشييد","District_ID":"Dahariz al Shamaliyya","Gov_ID":"Dhofar Governorate","Wlyt_ID":"Salalah","Road_ID":"100069","Latitude":17.02191586,"Longitude":54.158022379999998,"GlobalID":"{5C76770C-069D-4FAE-8D0F-9A011A9101F1}"}},{"type":"Feature","id":96,"geometry":{"type":"Point","coordinates":[197227.06539999973,1884109.6886]},"properties":{"OBJECTID":96,"Asset_ID":"CO96","Name":"مقاولات بناء وتشييد","District_ID":"Dahariz al Shamaliyya","Gov_ID":"Dhofar Governorate","Wlyt_ID":"Salalah","Road_ID":"100007","Latitude":17.021277680000001,"Longitude":54.156198869999997,"GlobalID":"{4E72A31A-927B-4D22-B45C-E628A7ACA0B8}"}},{"type":"Feature","id":97,"geometry":{"type":"Point","coordinates":[193626.7631000001,1883800.7360999994]},"properties":{"OBJECTID":97,"Asset_ID":"CO97","Name":"مقاولات بناء وتشييد","District_ID":"al Huseela","Gov_ID":"Dhofar Governorate","Wlyt_ID":"Salalah","Road_ID":"103824","Latitude":17.018012980000002,"Longitude":54.122456460000002,"GlobalID":"{FFB315A1-46E8-4207-B5FB-367B70988A06}"}},{"type":"Feature","id":98,"geometry":{"type":"Point","coordinates":[193827.47049999982,1884156.8973999992]},"properties":{"OBJECTID":98,"Asset_ID":"CO98","Name":"مقاولات بناء وتشييد","District_ID":"al Huseela","Gov_ID":"Dhofar Governorate","Wlyt_ID":"Salalah","Road_ID":"103867","Latitude":17.02125508,"Longitude":54.124290690000002,"GlobalID":"{8D980A67-18C3-4D29-9E71-14B0FC781F0F}"}},{"type":"Feature","id":99,"geometry":{"type":"Point","coordinates":[193666.01070000045,1884196.2847000007]},"properties":{"OBJECTID":99,"Asset_ID":"CO99","Name":"مقاولات بناء وتشييد وتنظيف مباني","District_ID":"al Huseela","Gov_ID":"Dhofar Governorate","Wlyt_ID":"Salalah","Road_ID":"103866","Latitude":17.02158923,"Longitude":54.12277014,"GlobalID":"{67BB1D91-A2BB-4017-80D3-F4153DEDE49D}"}},{"type":"Feature","id":100,"geometry":{"type":"Point","coordinates":[193669.92150000017,1884197.2623999994]},"properties":{"OBJECTID":100,"Asset_ID":"CO100","Name":"مقاولات بناء وتشييد وتنظيف مباني","District_ID":"al Huseela","Gov_ID":"Dhofar Governorate","Wlyt_ID":"Salalah","Road_ID":"103866","Latitude":17.021598579999999,"Longitude":54.122806699999998,"GlobalID":"{53D24918-99C3-41D2-8EB3-466EF7A13C55}"}},{"type":"Feature","id":101,"geometry":{"type":"Point","coordinates":[199500.55379999988,1892255.5972000007]},"properties":{"OBJECTID":101,"Asset_ID":"CO101","Name":"مقاولات ابناء والتشييد","District_ID":"Sahalnout al Shamaliyya","Gov_ID":"Dhofar Governorate","Wlyt_ID":"Salalah","Road_ID":"102882","Latitude":17.095120090000002,"Longitude":54.176427740000001,"GlobalID":"{663C7C9C-0569-4A7A-A933-C9EB7ACFE688}"}},{"type":"Feature","id":102,"geometry":{"type":"Point","coordinates":[199497.3574000001,1892255.5972000007]},"properties":{"OBJECTID":102,"Asset_ID":"CO102","Name":"مقاولات البناء والتشييد","District_ID":"Sahalnout al Shamaliyya","Gov_ID":"Dhofar Governorate","Wlyt_ID":"Salalah","Road_ID":"102882","Latitude":17.095119669999999,"Longitude":54.176397729999998,"GlobalID":"{DBE7905A-0A65-4E13-A34B-7E4C5425898A}"}},{"type":"Feature","id":103,"geometry":{"type":"Point","coordinates":[199487.75739999954,1892256.2339999992]},"properties":{"OBJECTID":103,"Asset_ID":"CO103","Name":"مقاولات البناء والتشييد","District_ID":"Sahalnout al Shamaliyya","Gov_ID":"Dhofar Governorate","Wlyt_ID":"Salalah","Road_ID":"102882","Latitude":17.095124160000001,"Longitude":54.176307520000002,"GlobalID":"{91C01FA2-C9F8-48EB-B0D9-9EE2A8D68530}"}},{"type":"Feature","id":104,"geometry":{"type":"Point","coordinates":[197713.60680000018,1890595.8779000007]},"properties":{"OBJECTID":104,"Asset_ID":"CO104","Name":"أساس العقار","District_ID":"al Sada al Shamaliyya","Gov_ID":"Dhofar Governorate","Wlyt_ID":"Salalah","Road_ID":"100003","Latitude":17.079901039999999,"Longitude":54.159879220000001,"GlobalID":"{D7F4B461-8730-4A04-971B-5CE5FD870042}"}},{"type":"Feature","id":105,"geometry":{"type":"Point","coordinates":[182155.01370000001,1883718.2171999998]},"properties":{"OBJECTID":105,"Asset_ID":"CO105","Name":"مقاولات بناء وتشييد ","District_ID":"Auqad al Shamaliyya","Gov_ID":"Dhofar Governorate","Wlyt_ID":"Salalah","Road_ID":"105813","Latitude":17.015716040000001,"Longitude":54.014826859999999,"GlobalID":"{11F90E85-4C79-40FD-B38F-4FA78637675E}"}},{"type":"Feature","id":106,"geometry":{"type":"Point","coordinates":[202873.21399999969,1885511.3958000001]},"properties":{"OBJECTID":106,"Asset_ID":"CO106","Name":"Nasr Al Seeb Branch Office\r\n","District_ID":"Razat","Gov_ID":"Dhofar Governorate","Wlyt_ID":"Salalah","Road_ID":null,"Latitude":17.034667689999999,"Longitude":54.208996429999999,"GlobalID":"{8D21C448-22B2-434B-BCF0-36D6783EC39D}"}},{"type":"Feature","id":107,"geometry":{"type":"Point","coordinates":[202779.75050000008,1885502.9945999999]},"properties":{"OBJECTID":107,"Asset_ID":"CO107","Name":"AL DUQHM AL BALUSHI CO LLC\r\n","District_ID":"Razat","Gov_ID":"Dhofar Governorate","Wlyt_ID":"Salalah","Road_ID":null,"Latitude":17.034579789999999,"Longitude":54.208120389999998,"GlobalID":"{CB6C4D32-0061-4B83-B25C-2D1B31FCCAFC}"}}]
}