{
  "type" : "FeatureCollection",
  "crs" : {
    "type" : "name",
    "properties" : {
      "name" : "EPSG:32640"
    }
  },
  "features" : [{"type":"Feature","id":1,"geometry":{"type":"Polygon","coordinates":[[[182622.63150000013,1879948.8741999995],[182389.70859999955,1880289.5349000003],[181474.16750000045,1879299.8819999993],[181625.2313000001,1879038.4190999996],[182480.79930000007,1879849.5228000004],[182545.68250000011,1879873.9398999996],[182622.63150000013,1879948.8741999995]]]},"properties":{"OBJECTID":1,"NSDIFID":"16324","NAMEAR":"ريسوت","NAMEEN":"Raysut","DISTRICTCO":"002","WILLAYAT":"0201","GOVERNORAT":"02","FEATURELOA":1496793600000,"FEATUREUPD":1522540800000,"FEATUREPRO":"SH43","SOURCEFID":"Dhofar Mun","FEATUREOWN":"SH43","TOWN":"صلالة - Salalah","SHAPE_Leng":3418.5043401100002,"Shape_Length":3418.5043401126763,"Shape_Area":456833.00674791238}},{"type":"Feature","id":2,"geometry":{"type":"Polygon","coordinates":[[[182389.70859999955,1880289.5349000003],[181714.09850000031,1881224.8420000002],[181566.25710000005,1881131.1154999994],[181095.22449999955,1881706.7640000004],[181184.76640000008,1882092.6454000007],[181128.80260000005,1882288.3823000006],[180753.84509999957,1882534.4516000003],[180401.96129999962,1882947.4877000004],[179804.4243999999,1882251.8253000006],[179959.02570000011,1881922.3057000004],[181474.16750000045,1879299.8819999993],[182389.70859999955,1880289.5349000003]]]},"properties":{"OBJECTID":2,"NSDIFID":"16325","NAMEAR":"وادي أدهان","NAMEEN":"Wadi Adhan","DISTRICTCO":"004","WILLAYAT":"0201","GOVERNORAT":"02","FEATURELOA":1496793600000,"FEATUREUPD":1522540800000,"FEATUREPRO":"SH43","SOURCEFID":"Dhofar Mun","FEATUREOWN":"SH43","TOWN":"صلالة - Salalah","SHAPE_Leng":9321.3523556700002,"Shape_Length":9321.3523556777,"Shape_Area":3668039.7317968942}},{"type":"Feature","id":3,"geometry":{"type":"Polygon","coordinates":[[[184318.12839999981,1881924.2690999992],[184896.01730000041,1882504.9520999994],[184767.8685999997,1882675.3170999996],[184674.57210000046,1882947.2074999996],[184496.69809999969,1883370.6379000004],[184362.86110000033,1883706.6943999995],[184215.44979999959,1884222.0037999991],[183884.31699999981,1885173.7881000005],[183730.21109999996,1885406.5768999998],[182923.78890000004,1884859.7414999995],[182331.70129999984,1884447.0698000006],[181024.77309999987,1883536.1701999996],[180720.81450000033,1883248.8682000004],[180401.96129999962,1882947.4877000004],[180753.84509999957,1882534.4516000003],[181128.80260000005,1882288.3823000006],[181184.76640000008,1882092.6454000007],[181095.22449999955,1881706.7640000004],[181566.25710000005,1881131.1154999994],[181714.09850000031,1881224.8420000002],[182389.70859999955,1880289.5349000003],[183324.14140000008,1880925.4762999993],[184318.12839999981,1881924.2690999992]]]},"properties":{"OBJECTID":3,"NSDIFID":"16326","NAMEAR":"عوقد الشمالية","NAMEEN":"Auqad al Shamaliyya","DISTRICTCO":"06","WILLAYAT":"0201","GOVERNORAT":"02","FEATURELOA":1496793600000,"FEATUREUPD":1522540800000,"FEATUREPRO":"SH43","SOURCEFID":"Dhofar Mun","FEATUREOWN":"SH43","TOWN":"صلالة - Salalah","SHAPE_Leng":14312.737842299999,"Shape_Length":14312.73784229008,"Shape_Area":12276460.970155908}},{"type":"Feature","id":4,"geometry":{"type":"Polygon","coordinates":[[[183730.21109999996,1885406.5768999998],[185823.78509999998,1886490.8090000004],[185662.59260000009,1886834.7423],[185600.06780000031,1886900.9201999996],[185547.16399999987,1886989.9455999993],[185535.50719999988,1887025.6767999995],[185497.36830000021,1887142.5833000001],[185455.53450000007,1887175.5543000009],[185261.26530000009,1887191.0295000002],[185227.04530000035,1887221.5352999996],[185082.86919999961,1887490.3405000009],[183088.85400000028,1886462.1282000002],[181712.83000000007,1885502.5874000005],[180063.66810000036,1884353.4265999999],[179673.72510000039,1883976.9776000008],[179747.20239999983,1883900.8663999997],[179892.69290000014,1883865.8972999994],[180000.57579999976,1883970.1546],[180082.77070000023,1883955.4558000006],[180099.16889999993,1883931.9221999999],[180148.36319999956,1883861.3213999998],[180164.69579999987,1883794.2457999997],[180135.02280000038,1883568.8161999993],[180167.29800000042,1883517.3738000002],[180322.79040000029,1883465.9713000003],[180374.82440000027,1883391.3272999991],[180278.93709999975,1883088.3271999992],[180401.96129999962,1882947.4877000004],[180720.81450000033,1883248.8682000004],[181024.77309999987,1883536.1701999996],[183730.21109999996,1885406.5768999998]]]},"properties":{"OBJECTID":4,"NSDIFID":"16327","NAMEAR":"إمتداد عوقد الشمالية","NAMEEN":"Auqad al Shamaliyya Extension","DISTRICTCO":"052","WILLAYAT":"0201","GOVERNORAT":"02","FEATURELOA":1496793600000,"FEATUREUPD":1522540800000,"FEATUREPRO":"SH43","SOURCEFID":"Dhofar Mun","FEATUREOWN":"SH43","TOWN":" ","SHAPE_Leng":16031.228131600001,"Shape_Length":16031.228131591914,"Shape_Area":7839827.5262937648}},{"type":"Feature","id":5,"geometry":{"type":"Polygon","coordinates":[[[185125.5915000001,1882852.5737999994],[185317.00999999978,1883034.0971000008],[185559.40020000003,1883160.4986000005],[186854.07660000026,1883835.6458000001],[186763.62409999967,1884024.5510000009],[186712.85120000038,1884130.5874000005],[186709.13239999954,1884214.2058000006],[186707.0111999996,1884261.9003999997],[186715.35099999979,1884304.0662999991],[186983.43209999986,1885659.4865000006],[187298.85089999996,1887254.2465000004],[183730.21109999996,1885406.5768999998],[183884.31699999981,1885173.7881000005],[184215.44979999959,1884222.0037999991],[184362.86110000033,1883706.6943999995],[184496.69809999969,1883370.6379000004],[184767.8685999997,1882675.3170999996],[184896.01730000041,1882504.9520999994],[185125.5915000001,1882852.5737999994]]]},"properties":{"OBJECTID":5,"NSDIFID":"16328","NAMEAR":"منطقة الورش الصناعية","NAMEEN":"New Industrial Area","DISTRICTCO":"11","WILLAYAT":"0201","GOVERNORAT":"02","FEATURELOA":1496793600000,"FEATUREUPD":1522540800000,"FEATUREPRO":"SH43","SOURCEFID":"Dhofar Mun","FEATUREOWN":"SH43","TOWN":"صلالة - Salalah","SHAPE_Leng":13085.387468000001,"Shape_Length":13085.387467990246,"Shape_Area":8731581.36391096}},{"type":"Feature","id":6,"geometry":{"type":"Polygon","coordinates":[[[182852.90450000018,1880054.9077000003],[183087.59439999983,1880160.0241],[183281.65629999992,1880234],[183421.53129999992,1880282.125],[183557.90629999992,1880322.375],[183713.64070000034,1880351.75],[183847.21879999992,1880370.875],[183895.01040000003,1880381.7248999998],[184934.96499999985,1880773.0852000006],[187131.44159999955,1881187.1280000005],[187649.71129999962,1881244.6757999994],[187633.27350000013,1881367.8725000005],[187585.14979999978,1881415.9627999999],[187530.1512000002,1881515.5782999992],[187526.71380000003,1881591.1487000007],[187541.67559999973,1881649.1953999996],[187585.14969999995,1881817.8600999992],[187642.35140000004,1881946.8406000007],[187716.92980000004,1882115.0026999991],[187719.20889999997,1882120.1416999996],[187708.41530000046,1882123.8590999991],[187552.93010000046,1882177.4093999993],[187236.79540000018,1882272.3640999999],[187119.66810000036,1882306.1922999993],[187119.65930000041,1882306.1949000005],[186988.85410000011,1882343.9734000005],[186870.45590000041,1882370.4740999993],[186810.16289999988,1882383.9692000002],[184964.85840000026,1882454.8040999994],[184896.01730000041,1882504.9520999994],[184318.12839999981,1881924.2690999992],[183324.14140000008,1880925.4762999993],[182389.70859999955,1880289.5349000003],[182622.63150000013,1879948.8741999995],[182852.90450000018,1880054.9077000003]]]},"properties":{"OBJECTID":6,"NSDIFID":"16329","NAMEAR":"عوقد الجنوبية","NAMEEN":"Auqad al Janubiyya","DISTRICTCO":"05","WILLAYAT":"0201","GOVERNORAT":"02","FEATURELOA":1496793600000,"FEATUREUPD":1522540800000,"FEATUREPRO":"SH43","SOURCEFID":"Dhofar Mun","FEATUREOWN":"SH43","TOWN":"صلالة - Salalah","SHAPE_Leng":12815.5238646,"Shape_Length":12815.523864554414,"Shape_Area":6094083.5451076692}},{"type":"Feature","id":7,"geometry":{"type":"Polygon","coordinates":[[[186799.43429999985,1882662.1495999992],[186799.85250000004,1882747.2260999996],[186801.2137000002,1883024.1396999992],[186805.01860000007,1883193.7138],[186819.31709999964,1883716.2430000007],[186854.07660000026,1883835.6458000001],[185559.40020000003,1883160.4986000005],[185317.00999999978,1883034.0971000008],[185221.86529999971,1882957.7346999999],[185125.5915000001,1882852.5737999994],[184896.01730000041,1882504.9520999994],[184964.85840000026,1882454.8040999994],[186810.16289999988,1882383.9692000002],[186799.43429999985,1882662.1495999992]]]},"properties":{"OBJECTID":7,"NSDIFID":"16330","NAMEAR":"مستشفى السلطان قابوس","NAMEEN":"Mustashfa al Sultan Qboos","DISTRICTCO":"10","WILLAYAT":"0201","GOVERNORAT":"02","FEATURELOA":1496793600000,"FEATUREUPD":1522540800000,"FEATUREPRO":"SH43","SOURCEFID":"Dhofar Mun","FEATUREOWN":"SH43","TOWN":"صلالة - Salalah","SHAPE_Leng":5803.5861021800001,"Shape_Length":5803.5861021834789,"Shape_Area":1653643.8790444157}},{"type":"Feature","id":8,"geometry":{"type":"Polygon","coordinates":[[[187730.15199999977,1882188.7544999998],[187802.55950000044,1882712.8555999994],[188014.49380000029,1882782.6835999992],[188359.30059999973,1882896.2903000005],[188354.69959999993,1883297.4440000001],[188644.74600000028,1883299.7585000005],[188642.92800000031,1883502.9227000009],[188634.46760000009,1884448.3955000006],[188348.49399999995,1884443.1469999999],[188220.1799999997,1884433.7778999992],[188151.86799999978,1884421.7940999996],[188021.34200000018,1884398.8959999997],[188013.34669999965,1884396.8096999992],[188013.34229999967,1884396.8084999993],[187902.81099999975,1884367.966],[187892.29949999973,1884364.4260000009],[187815.77369999979,1884338.6538999993],[187803.57660000026,1884333.8462000005],[187627.8618999999,1884264.5850000009],[187528.42850000039,1884212.0830000006],[187482.91629999969,1884187.0969999991],[187482.90840000007,1884187.0925999992],[187333.21169999987,1884104.9096000008],[187266.47369999997,1884066.8277000003],[187201.34339999966,1884029.6631000005],[186854.07660000026,1883835.6458000001],[186819.31709999964,1883716.2430000007],[186805.01860000007,1883193.7138],[186801.2137000002,1883024.1396999992],[186797.1425999999,1882842.7017000001],[186799.85250000004,1882747.2260999996],[186810.16289999988,1882383.9692000002],[186870.45590000041,1882370.4740999993],[187119.65930000041,1882306.1949000005],[187119.66810000036,1882306.1922999993],[187552.93010000046,1882177.4093999993],[187708.41530000046,1882123.8590999991],[187719.20889999997,1882120.1416999996],[187730.15199999977,1882188.7544999998]]]},"properties":{"OBJECTID":8,"NSDIFID":"16331","NAMEAR":"الوادي","NAMEEN":"al Wadi","DISTRICTCO":"13","WILLAYAT":"0201","GOVERNORAT":"02","FEATURELOA":1496793600000,"FEATUREUPD":1522540800000,"FEATUREPRO":"SH43","SOURCEFID":"Dhofar Mun","FEATUREOWN":"SH43","TOWN":"صلالة - Salalah","SHAPE_Leng":7346.4122200600004,"Shape_Length":7346.4122200596594,"Shape_Area":3011698.8235059259}},{"type":"Feature","id":9,"geometry":{"type":"Polygon","coordinates":[[[188482.89759999979,1881693.3126999997],[188341.03419999965,1881697.8205999993],[188239.33270000014,1881712.7415999994],[188179.90390000027,1881735.2084999997],[188127.63559999969,1881768.6414000001],[188062.26209999993,1881832.7039000001],[187962.18340000045,1881938.1801999994],[187847.11110000033,1882047.5979999993],[187787.61560000014,1882087.8429000005],[187719.20889999997,1882120.1416999996],[187716.92980000004,1882115.0026999991],[187642.35140000004,1881946.8406000007],[187585.14969999995,1881817.8600999992],[187541.67559999973,1881649.1953999996],[187526.71380000003,1881591.1487000007],[187530.1512000002,1881515.5782999992],[187585.14979999978,1881415.9627999999],[187633.27350000013,1881367.8725000005],[187649.71129999962,1881244.6757999994],[189228.72860000003,1881420.0072000008],[189268.61070000008,1881425.9011000004],[189276.10929999966,1881427.25],[189282.46310000028,1881427.9483000003],[189539.13499999978,1881465.8802000005],[189559.67179999966,1881472.5],[189610.34260000009,1881476.4035],[189837.34839999955,1881509.9513000008],[189909.24089999963,1881523.1980000008],[190000,1881536],[190019.3359000003,1881536.8461000007],[190683.91949999984,1881635.0606999993],[190680.00739999954,1881736.7079000007],[190680.0159,1881736.7087999992],[190709.16029999964,1881739.6213000007],[190709.1473000003,1881739.8422999997],[190705.89759999979,1881795.1239999998],[190653.76970000006,1881792.0598000009],[190647.93919999991,1881857.6081000008],[190647.95880000014,1881857.6096999999],[190701.87200000044,1881861.9779000003],[190701.85649999976,1881862.1989999991],[190691.6671000002,1882007.6610000003],[190543.97329999972,1881983.7798999995],[190543.96100000013,1881983.7780000009],[190287.97740000021,1881942.3871999998],[189667.41540000029,1881844.2006999999],[189163.38080000039,1881779.8303999994],[189041.02089999989,1881764.2038000003],[188960.19259999972,1881753.3333000001],[188670.49189999979,1881714.3717],[188486.27759999968,1881693.2052999996],[188482.89759999979,1881693.3126999997]]]},"properties":{"OBJECTID":9,"NSDIFID":"16332","NAMEAR":"حي الشاطي","NAMEEN":"Hay al Shati","DISTRICTCO":"15","WILLAYAT":"0201","GOVERNORAT":"02","FEATURELOA":1496793600000,"FEATUREUPD":1522540800000,"FEATUREPRO":"SH43","SOURCEFID":"Dhofar Mun","FEATUREOWN":"SH43","TOWN":"صلالة - Salalah","SHAPE_Leng":7656.5139019799999,"Shape_Length":7656.5139019776389,"Shape_Area":1324386.7365526429}},{"type":"Feature","id":10,"geometry":{"type":"Polygon","coordinates":[[[190177.16930000018,1883223.2031999994],[190148.32359999977,1883457.5678000003],[189617.77400000021,1883289.7664999999],[189083.46690000035,1883120.7766999993],[188014.49380000029,1882782.6835999992],[187791.12829999998,1882712.0379000008],[187708.41530000046,1882123.8590999991],[187707.77759999968,1882119.3239999991],[187716.92980000004,1882115.0026999991],[187776.18439999968,1882087.0252],[187835.67980000004,1882046.7803000007],[187950.75210000016,1881937.3625000007],[188050.83079999965,1881831.8861999996],[188116.20430000033,1881767.8235999998],[188168.47259999998,1881734.3906999994],[188227.90139999986,1881711.9239000008],[188329.60290000029,1881697.0028000008],[188382.15560000017,1881695.3329000007],[188474.84630000032,1881692.3875999991],[188482.89759999979,1881693.3126999997],[188603.7703999998,1881707.2010999992],[188783.91119999997,1881730.3450000007],[188960.19259999972,1881753.3333000001],[189163.38080000039,1881779.8303999994],[189401.55119999964,1881810.8893999998],[190144.28050000034,1881920.6421000008],[190543.96100000013,1881983.7780000009],[190543.97329999972,1881983.7798999995],[190529.51339999959,1882153.4048999995],[190514.39209999982,1882224.8051999994],[190495.77080000006,1882290.0813999996],[190481.44099999964,1882327.5682999995],[190453.73149999976,1882359.0066999998],[190398.30829999968,1882416.0057999995],[190377.17540000007,1882451.3182999995],[190370.48790000007,1882512.9431999996],[190374.72130000032,1882642.0405000001],[190372.29449999984,1882740.8072999995],[190367.74839999992,1882766.6439999994],[190315.84269999992,1883061.6359000001],[190290.20729999989,1883059.6052000001],[190287.3041000003,1883137.9359000009],[190250.65409999993,1883143.9321999997],[190239.22470000014,1883193.2895],[190239.21349999961,1883193.3378999997],[190206.86039999966,1883175.5559999999],[190206.78650000039,1883175.5153999999],[190177.16930000018,1883223.2031999994]]]},"properties":{"OBJECTID":10,"NSDIFID":"16333","NAMEAR":"صلالة الغربية","NAMEEN":"Salalah al Gharbiyya","DISTRICTCO":"17","WILLAYAT":"0201","GOVERNORAT":"02","FEATURELOA":1496793600000,"FEATUREUPD":1522540800000,"FEATUREPRO":"SH43","SOURCEFID":"Dhofar Mun","FEATUREOWN":"SH43","TOWN":"صلالة - Salalah","SHAPE_Leng":7728.1467718800004,"Shape_Length":7728.1467718836275,"Shape_Area":3364662.318231673}},{"type":"Feature","id":11,"geometry":{"type":"Polygon","coordinates":[[[190296.65510000009,1884465.7738000005],[190276.34690000024,1884565.6537999995],[190161.84100000001,1884547.7180000003],[190123.70440000016,1884537.8757000007],[190123.69089999981,1884537.8721999992],[189962.42870000005,1884496.2534999996],[189947.56390000042,1884493.3673999999],[189860.89169999957,1884476.5395999998],[189845.93080000021,1884473.6348000001],[189800.10520000011,1884468.1557999998],[189766.74370000046,1884464.1670999993],[189671.37440000009,1884452.7645999994],[189650.69930000044,1884451.4934999999],[189556.60699999984,1884445.7090000007],[189076.12069999985,1884447.1087999996],[188634.46760000009,1884448.3955000006],[188642.92800000031,1883502.9227000009],[188644.74600000028,1883299.7585000005],[188354.69959999993,1883297.4440000001],[188359.30059999973,1882896.2903000005],[189083.46690000035,1883120.7766999993],[189188.68589999992,1883153.3937999997],[189617.77400000021,1883289.7664999999],[189863.1557,1883367.7535999995],[190148.32359999977,1883458.3855000008],[190286.88320000004,1883504.2007999998],[190381.05750000011,1883545.8493000008],[190475.23170000035,1883587.4978],[190296.65510000009,1884465.7738000005]]]},"properties":{"OBJECTID":11,"NSDIFID":"16334","NAMEAR":"صلالة الجديدة","NAMEEN":"Salalah al Jadida","DISTRICTCO":"18","WILLAYAT":"0201","GOVERNORAT":"02","FEATURELOA":1496793600000,"FEATUREUPD":1522540800000,"FEATUREPRO":"SH43","SOURCEFID":"Dhofar Mun","FEATUREOWN":"SH43","TOWN":"صلالة - Salalah","SHAPE_Leng":6718.6806966599997,"Shape_Length":6718.6806966631639,"Shape_Area":2218513.5412311764}},{"type":"Feature","id":12,"geometry":{"type":"Polygon","coordinates":[[[190581.93030000012,1883611.6280000005],[190866.58710000012,1883676.0393000003],[190990.69230000023,1883702.5505999997],[191322.11840000004,1883773.3496000003],[191357.56879999954,1883781.1712999996],[191670.76049999986,1883850.2734999992],[191647.38819999993,1883960.4853000008],[191647.39360000007,1883960.4864000008],[191690.95179999992,1883969.3021000009],[191690.94930000044,1883969.3289000001],[191650.63839999959,1884408.7765999995],[191591.22530000005,1884409.1629000008],[191482.81759999972,1884409.8676999994],[191307.15799999982,1884430.5903999992],[191234.21059999987,1884439.1961000003],[190877.41079999972,1884483.6076999996],[190834.77479999978,1884488.9145999998],[190433.11330000032,1884544.1108999997],[190433.11000000034,1884544.1114000008],[190276.34690000024,1884565.6537999995],[190296.65510000009,1884465.7738000005],[190475.23170000035,1883587.4978],[190581.93030000012,1883611.6280000005]]]},"properties":{"OBJECTID":12,"NSDIFID":"16335","NAMEAR":"مركز المدينة","NAMEEN":"Markaz al Madena","DISTRICTCO":"21","WILLAYAT":"0201","GOVERNORAT":"02","FEATURELOA":1496793600000,"FEATUREUPD":1522540800000,"FEATUREPRO":"SH43","SOURCEFID":"Dhofar Mun","FEATUREOWN":"SH43","TOWN":"صلالة - Salalah","SHAPE_Leng":4205.0321097400001,"Shape_Length":4205.0321097370588,"Shape_Area":980885.78209105448}},{"type":"Feature","id":13,"geometry":{"type":"Polygon","coordinates":[[[190984.19429999962,1883359.0423000008],[191047.7882000003,1883363.2796999998],[191072.51499999966,1883364.9273000006],[191205.00090000033,1883373.7552000005],[191284.59169999976,1883378.7480999995],[191309.78920000046,1883380.3288000003],[191458.88069999963,1883389.6816000007],[191546.51190000027,1883395.1149000004],[191650.18479999993,1883406.5910999998],[191772.06479999982,1883424.4445999991],[191892.04870000016,1883442.0201999992],[191892.05109999981,1883442.0205000006],[191892.43570000026,1883442.0768999998],[191903.97919999994,1883513.3970999997],[191915.52280000038,1883598.9722000007],[191917.65869999956,1883665.1395999994],[191919.45370000042,1883720.7498000003],[191919.79449999984,1883731.307],[191921.58509999979,1883747.4108000007],[191930.80810000002,1883830.3605000004],[191929.82820000034,1883903.8050999995],[191929.43740000017,1883903.7213000003],[191357.56879999954,1883781.1712999996],[190990.69230000023,1883702.5505999997],[190866.9793999996,1883676.0392000005],[190876.61739999987,1883627.8826000001],[190895.14859999996,1883535.2910999991],[190887.04640000034,1883464.5731000006],[190896.95170000009,1883410.1909999996],[190907.27180000022,1883353.5320999995],[190984.19429999962,1883359.0423000008]]]},"properties":{"OBJECTID":13,"NSDIFID":"16336","NAMEAR":"الزاوية","NAMEEN":"al Zaweya","DISTRICTCO":"24","WILLAYAT":"0201","GOVERNORAT":"02","FEATURELOA":1496793600000,"FEATUREUPD":1522540800000,"FEATUREPRO":"SH43","SOURCEFID":"Dhofar Mun","FEATUREOWN":"SH43","TOWN":"صلالة - Salalah","SHAPE_Leng":2868.4213328000001,"Shape_Length":2868.4213327974871,"Shape_Area":411797.879287405}},{"type":"Feature","id":14,"geometry":{"type":"Polygon","coordinates":[[[190858.67839999963,1883341.2805000003],[190907.27180000022,1883353.5320999995],[190896.95170000009,1883410.1909999996],[190887.04640000034,1883464.5731000006],[190889.60280000046,1883487.7241999991],[190894.85539999977,1883535.2909999993],[190866.68620000035,1883676.0393000003],[190475.33079999965,1883587.4977000002],[190352.64589999989,1883533.2404999994],[190286.98230000027,1883504.2007999998],[190227.61899999995,1883484.5721000005],[190148.4227,1883458.3855000008],[190177.26850000024,1883223.2031999994],[190206.86039999966,1883175.5559999999],[190206.88559999969,1883175.5154999997],[190239.22470000014,1883193.2895],[190239.31280000042,1883193.3378999997],[190250.75320000015,1883143.9321999997],[190287.40319999959,1883137.9359000009],[190288.92760000005,1883097.6246000007],[190290.20729999989,1883059.6052000001],[190315.84269999992,1883061.6359000001],[190348.9896999998,1882867.6752000004],[190367.74839999992,1882766.6439999994],[190372.3936999999,1882741.625],[190374.82039999962,1882642.0405999999],[190370.58710000012,1882512.9432999995],[190377.27460000012,1882451.3182999995],[190398.40739999991,1882416.0057999995],[190453.83059999999,1882359.0066],[190481.5401999997,1882327.5682999995],[190495.87000000011,1882290.0814999994],[190514.49120000005,1882224.8051999994],[190529.56369999982,1882153.6359999999],[190529.61259999964,1882153.4048999995],[190631.07299999986,1882171.0695999991],[190627.26169999968,1882269.0954],[190627.16999999993,1882269.1220999993],[190581.52529999986,1882282.4191999994],[190581.55190000031,1882282.6050000004],[190589.14809999987,1882335.7147000004],[190733.97950000037,1882344.2800999992],[190845.39719999954,1882370.9123999998],[190845.46150000021,1882370.9277999997],[190851.14549999963,1882332.1336000003],[190851.17860000022,1882331.9079],[190966.41930000018,1882337.6154999994],[190966.47200000007,1882337.6181000005],[190985.48190000001,1882245.5296],[190985.52869999968,1882245.3026999999],[191011.67520000041,1882247.8033000007],[191087.81620000023,1882255.0852000006],[191087.83920000028,1882255.0874000005],[191084.77130000014,1882301.9436000008],[191081.84570000041,1882346.6256000008],[191073.31680000015,1882407.8542999998],[191069.25789999962,1882436.9923],[191050.26750000007,1882505.6108999997],[191036.97360000014,1882553.6461999994],[191028.56089999992,1882601.7767999992],[191016.75549999997,1882669.3170999996],[191013.75810000021,1882710.8848000001],[191010.99010000005,1882749.2708999999],[191010.2631000001,1882796.8319000006],[191010.20330000017,1882800.7407000009],[191014.96320000011,1882868.4244999997],[190908.12770000007,1882890.2126000002],[190858.67839999963,1883341.2805000003]]]},"properties":{"OBJECTID":14,"NSDIFID":"16337","NAMEAR":"صلالة الوسطى","NAMEEN":"Salalah al Wousta","DISTRICTCO":"20","WILLAYAT":"0201","GOVERNORAT":"02","FEATURELOA":1496793600000,"FEATUREUPD":1522540800000,"FEATUREPRO":"SH43","SOURCEFID":"Dhofar Mun","FEATUREOWN":"SH43","TOWN":"صلالة - Salalah","SHAPE_Leng":4710.0420108600001,"Shape_Length":4710.0420108690278,"Shape_Area":846685.55732328119}},{"type":"Feature","id":15,"geometry":{"type":"Polygon","coordinates":[[[191687.05950000044,1882540.125],[191688.10109999962,1882563.3518000003],[191691.74110000022,1882644.5171000008],[191692.05530000012,1882651.5241],[191692.7368999999,1882658.4484000001],[191702.72039999999,1882759.8698999994],[191702.87110000011,1882761.4004999995],[191703.6202999996,1882766.5239000004],[191717.9478000002,1882864.5052000005],[191718.12980000023,1882865.75],[191723.3842000002,1882984.7927999999],[191723.62849999964,1882984.8322999999],[191904.43020000029,1883014.0678000003],[191904.43049999978,1883014.0951000005],[191904.46490000002,1883016.0623000003],[191906.19710000046,1883115.5919000003],[191907.32409999985,1883263.6070000008],[191899.36440000031,1883362.1472999994],[191897.99309999961,1883379.1239],[191892.12629999965,1883441.1987999994],[191892.04870000016,1883442.0201999992],[191892.04330000002,1883442.0769999996],[191599.74789999984,1883401.0513000004],[191546.11959999986,1883395.1149000004],[191458.48840000015,1883389.6815000009],[191321.08189999964,1883381.0617999993],[191309.78920000046,1883380.3288000003],[191072.51499999966,1883364.9273000006],[191057.33380000014,1883363.9419],[191047.7882000003,1883363.2796999998],[190907.27180000022,1883353.5320999995],[190880.68879999965,1883346.8435999993],[190858.57930000033,1883341.2806000002],[190908.02859999985,1882890.2126000002],[191014.86400000006,1882868.4243999999],[191010.10410000011,1882800.7407000009],[191010.2631000001,1882796.8319000006],[191013.75810000021,1882710.8848000001],[191013.88640000019,1882707.7294999994],[191016.65629999992,1882669.3170999996],[191028.46160000004,1882601.7767999992],[191036.87440000009,1882553.6462999992],[191055.06280000042,1882487.9257999994],[191069.15880000032,1882436.9923999999],[191076.87959999964,1882381.5656000003],[191087.74010000005,1882255.0873000007],[191087.81620000023,1882255.0852000006],[191093.69990000036,1882254.9232000001],[191095.64419999998,1882254.8696999997],[191096.5532999998,1882244.3970999997],[191153.72369999997,1882248.2039999999],[191165.15770000033,1882268.1897],[191197.08669999987,1882287.898],[191225.22879999969,1882297.2435999997],[191255.49679999985,1882249.0521000009],[191261.58519999962,1882216.9958999995],[191282.57579999976,1882219.6643000003],[191303.94799999986,1882230.3377],[191303.93800000008,1882230.5548999999],[191302.80310000014,1882255.1152999997],[191296.31510000024,1882283.3236999996],[191281.8125,1882302.3834000006],[191281.84619999956,1882302.5614999998],[191290.41380000021,1882347.8953000009],[191312.91359999962,1882353.5281000007],[191333.62280000001,1882345.1994000003],[191361.64360000007,1882353.0964000002],[191369.52190000005,1882291.4608999994],[191407.79719999991,1882295.1129999999],[191407.79000000004,1882295.3345999997],[191406.75250000041,1882327.4605],[191406.75970000029,1882327.4605],[191537.34119999968,1882327.4604000002],[191558.23539999966,1882304.5042000003],[191559.28019999992,1882295.1129000001],[191574.95079999976,1882297.1997999996],[191574.91810000036,1882297.4177999999],[191571.81659999955,1882318.0692999996],[191571.84420000017,1882318.1078999992],[191577.0401999997,1882325.3735000007],[191576.99380000029,1882325.5309999995],[191550.92239999957,1882414.0682999995],[191550.98629999999,1882414.0734999999],[191602.11319999956,1882418.2421000004],[191607.3367999997,1882407.8074999992],[191613.60500000045,1882406.7641000003],[191620.91810000036,1882433.8942000009],[191685.1102,1882405.9727999996],[191685.11209999956,1882406.1015000008],[191687.05950000044,1882540.125]]]},"properties":{"OBJECTID":15,"NSDIFID":"16338","NAMEAR":"صلالة الشرقية","NAMEEN":"Salalah al Sharqiyya","DISTRICTCO":"23","WILLAYAT":"0201","GOVERNORAT":"02","FEATURELOA":1496793600000,"FEATUREUPD":1522540800000,"FEATUREPRO":"SH43","SOURCEFID":"Dhofar Mun","FEATUREOWN":"SH43","TOWN":"صلالة - Salalah","SHAPE_Leng":4524.9528866399996,"Shape_Length":4524.9528866424507,"Shape_Area":865474.55697252543}},{"type":"Feature","id":16,"geometry":{"type":"Polygon","coordinates":[[[191620.91810000036,1882434.1164999995],[191613.60510000028,1882406.9864000008],[191607.3367999997,1882408.0298999995],[191602.11330000032,1882418.4646000005],[191550.92239999957,1882414.2905999999],[191550.98629999999,1882414.0734999999],[191577.0401999997,1882325.5957999993],[191576.99380000029,1882325.5309999995],[191571.81659999955,1882318.2916000001],[191571.84420000017,1882318.1078999992],[191574.95079999976,1882297.4221999999],[191574.91810000036,1882297.4177999999],[191559.28010000009,1882295.3352000006],[191558.23529999983,1882304.7265000008],[191537.34130000044,1882327.6828000005],[191406.75250000041,1882327.6828000005],[191406.75970000029,1882327.4605],[191407.79719999991,1882295.3353000004],[191407.79000000004,1882295.3345999997],[191369.52190000005,1882291.6831999999],[191361.64360000007,1882353.3188000005],[191333.62280000001,1882345.4217000008],[191312.91359999962,1882353.7504999992],[191290.41380000021,1882348.1175999995],[191281.8125,1882302.6056999993],[191281.84619999956,1882302.5614999998],[191296.31510000024,1882283.5460000001],[191302.80310000014,1882255.3376000002],[191303.94809999969,1882230.5600000005],[191303.93800000008,1882230.5548999999],[191282.57579999976,1882219.8866000008],[191261.58519999962,1882217.2182],[191255.49679999985,1882249.2743999995],[191225.22879999969,1882297.4659000002],[191197.08669999987,1882288.1203000005],[191165.15770000033,1882268.4122000001],[191153.72369999997,1882248.4263000004],[191096.5532999998,1882244.6194000002],[191095.64429999981,1882255.0920000002],[191093.69990000036,1882254.9232000001],[191011.67520000041,1882247.8033000007],[190985.48190000001,1882245.5296],[190985.42960000038,1882245.5251000002],[190966.41930000018,1882337.6154999994],[190966.37289999984,1882337.8403999992],[190851.14549999963,1882332.1336000003],[190851.07949999999,1882332.1303000003],[190845.39719999954,1882370.9123999998],[190845.36239999998,1882371.1501000002],[190733.88040000014,1882344.5023999996],[190589.04899999965,1882335.9371000007],[190581.42619999964,1882282.6415999997],[190581.55190000031,1882282.6050000004],[190627.1623999998,1882269.3177000005],[190627.16999999993,1882269.1220999993],[190630.9737999998,1882171.2919999994],[190529.56369999982,1882153.6359999999],[190529.51339999959,1882153.6272],[190543.97329999972,1881984.0022],[190691.6671000002,1882007.8834000006],[190701.87200000044,1881862.2003000006],[190701.85649999976,1881862.1989999991],[190647.93919999991,1881857.8303999994],[190647.95880000014,1881857.6096999999],[190653.76970000006,1881792.2820999995],[190705.89759999979,1881795.3465],[190709.16019999981,1881739.8435999993],[190709.1473000003,1881739.8422999997],[190680.00739999954,1881736.9301999994],[190680.0159,1881736.7087999992],[190683.92800000031,1881635.0620000008],[191870.92960000038,1881810.4813999999],[191872.74969999958,1881940.5373],[191841.46380000003,1881940.9751999993],[191816.90799999982,1882017.2398000006],[191805.83939999994,1882051.7166000009],[191784.70720000006,1882117.7620999999],[191737.90149999969,1882109.7569999993],[191707.60230000038,1882220.0203000009],[191687.34860000014,1882294.0973000005],[191686.88360000029,1882317.3819999993],[191686.37330000009,1882342.9353999998],[191685.11209999956,1882406.1015000008],[191685.1102,1882406.1951000001],[191620.91810000036,1882434.1164999995]]]},"properties":{"OBJECTID":16,"NSDIFID":"16339","NAMEAR":"الحصن","NAMEEN":"al Husn","DISTRICTCO":"19","WILLAYAT":"0201","GOVERNORAT":"02","FEATURELOA":1496793600000,"FEATUREUPD":1522540800000,"FEATUREPRO":"SH43","SOURCEFID":"Dhofar Mun","FEATUREOWN":"SH43","TOWN":"صلالة - Salalah","SHAPE_Leng":4745.6824536499998,"Shape_Length":4745.6824536526192,"Shape_Area":702461.70456298371}},{"type":"Feature","id":17,"geometry":{"type":"Polygon","coordinates":[[[193818.12550000008,1882999.8587999996],[193818.67219999991,1883001.8620999996],[193722.31520000007,1883019.5998],[193717.38640000019,1883073.7792000007],[193717.24380000029,1883075.3465999998],[193763.76109999977,1883121.8628000002],[193764.42509999964,1883122.5267999992],[193706.13279999979,1883365.0272000004],[193706.08970000036,1883365.2064999994],[193705.63819999993,1883367.0846999995],[193678.36679999996,1883362.4039999992],[193561.19489999954,1883318.5288999993],[193494.81199999992,1883303.4039999992],[193428.42920000013,1883288.2789999992],[193330.38389999978,1883274.1402000003],[192916.14790000021,1883198.9038999993],[192700.60539999977,1883160.2188000008],[192576.80590000004,1883141.2800999992],[192394.94489999954,1883123.6539999992],[192332.47119999956,1883109.8256999999],[192250.7276999997,1883082.9759999998],[192250.47549999971,1883082.8931000009],[192237.91459999979,1883078.7673000004],[192144.62480000034,1883049.3088000007],[192105.58530000038,1883044.9291999992],[191904.76290000044,1883016.1105000004],[191904.46490000002,1883016.0623000003],[191904.45299999975,1883016.0603999998],[191723.71690000035,1882986.8355],[191723.62849999964,1882984.8322999999],[191721.53519999981,1882937.4094999991],[191718.46239999961,1882867.7927999999],[191717.9478000002,1882864.5052000005],[191710.03399999999,1882813.9491000008],[191703.6202999996,1882766.5239000004],[191702.72039999999,1882759.8698999994],[191696.92140000034,1882716.9897000007],[191692.7368999999,1882658.4484000001],[191691.74110000022,1882644.5171000008],[191688.78160000034,1882603.1143999994],[191688.10109999962,1882563.3518000003],[191685.44280000031,1882408.0154999997],[191687.68120000046,1882295.9177999999],[191738.2341,1882111.5772999991],[191785.03980000038,1882119.5823999997],[191841.79629999958,1881942.7954999991],[191873.08229999989,1881942.3575999998],[191871.23739999998,1881810.5269000009],[193242.69629999995,1882013.2061000001],[193301.42640000023,1882025.5427000001],[193332.28789999988,1882026.4463],[193804.36890000012,1882096.2122000009],[193805.38269999996,1882096.3619999997],[193807.7555999998,1882193.1767999995],[193805.50420000032,1882296.3599999994],[193792.23950000014,1882364.5291000009],[193659.89269999973,1882328.1930999998],[193495.71059999987,1882318.0917000007],[193496.02639999986,1882328.4201999996],[193496.08490000013,1882330.3340000007],[193595.64630000014,1882377.1537999995],[193678.99600000028,1882497.3006999996],[193679.2081000004,1882497.6064999998],[193696.9581000004,1882753.5351999998],[193649.04970000032,1882806.4495999999],[193648.77940000035,1882806.7481999993],[193693.23070000019,1882935.3332000002],[193795.85080000013,1882918.2418000009],[193818.12550000008,1882999.8587999996]]]},"properties":{"OBJECTID":17,"NSDIFID":"16340","NAMEAR":"الحافة","NAMEEN":"al Hafa","DISTRICTCO":"22","WILLAYAT":"0201","GOVERNORAT":"02","FEATURELOA":1496793600000,"FEATUREUPD":1522540800000,"FEATUREPRO":"SH43","SOURCEFID":"Dhofar Mun","FEATUREOWN":"SH43","TOWN":"صلالة - Salalah","SHAPE_Leng":7226.0938665499998,"Shape_Length":7226.0938665458216,"Shape_Area":2438080.295132509}},{"type":"Feature","id":18,"geometry":{"type":"Polygon","coordinates":[[[192370.09649999999,1883966.4392000008],[192375.1222000001,1884012.6221999992],[192390.81199999992,1884156.8034000006],[192395.43020000029,1884187.6078999992],[192400.3515999997,1884210.3834000006],[192417.00960000046,1884287.4738999996],[192452.6671000002,1884478.1764000002],[192454.6754999999,1884489.4618999995],[192473.63929999992,1884596.0238000005],[192473.64429999981,1884596.0519999992],[192397.97400000039,1884581.3531999998],[192120.90170000028,1884512.8478999995],[191822.73199999984,1884439.1262999997],[191798.35790000018,1884433.1556000002],[191784.78940000013,1884429.8319000006],[191767.82050000038,1884425.6752000004],[191714.79229999986,1884415.5409999993],[191712.70100000035,1884415.1413000003],[191650.63839999959,1884408.8037999999],[191650.6409,1884408.7769000009],[191653.46499999985,1884377.9889000002],[191690.95170000009,1883969.3293999992],[191690.94930000044,1883969.3289000001],[191647.3881000001,1883960.5124999993],[191647.39360000007,1883960.4864000008],[191670.76049999986,1883850.3007999994],[191929.43589999992,1883903.8322999999],[191929.43740000017,1883903.7213000003],[191929.83650000021,1883873.8061999995],[191930.41579999961,1883830.3877000008],[191922.59630000032,1883760.0603999998],[191921.58509999979,1883747.4108000007],[191919.45370000042,1883720.7498000003],[191918.79430000018,1883712.5010000002],[191915.13049999997,1883598.9995000008],[191892.04339999985,1883442.1041999999],[191892.05109999981,1883442.0205000006],[191892.12629999965,1883441.1987999994],[191899.36440000031,1883362.1472999994],[191899.38239999954,1883361.9508999996],[191907.32430000044,1883263.6341999993],[191907.32409999985,1883263.6070000008],[191904.45299999975,1883016.0603999998],[191904.43049999978,1883014.0951000005],[191977.55730000045,1883024.5890999995],[192144.29229999986,1883047.2932999991],[192250.4944000002,1883081.8748000003],[192250.47549999971,1883082.8931000009],[192249.44010000024,1883138.5401000008],[192249.39570000023,1883179.0605999995],[192249.09489999991,1883453.5100999996],[192249.05680000037,1883488.2972999997],[192273.64639999997,1883617.7979000006],[192341.69969999976,1883722.4971999992],[192361.54970000032,1883893.0183000006],[192370.09649999999,1883966.4392000008]]]},"properties":{"OBJECTID":18,"NSDIFID":"16341","NAMEAR":"القوف","NAMEEN":"al Qoaf","DISTRICTCO":"25","WILLAYAT":"0201","GOVERNORAT":"02","FEATURELOA":1496793600000,"FEATUREUPD":1522540800000,"FEATUREPRO":"SH43","SOURCEFID":"Dhofar Mun","FEATUREOWN":"SH43","TOWN":"صلالة - Salalah","SHAPE_Leng":4501.1129339700001,"Shape_Length":4501.1129339702729,"Shape_Area":764289.77393220365}},{"type":"Feature","id":19,"geometry":{"type":"Polygon","coordinates":[[[193474.18950000033,1884539.1331999991],[193446.0717000002,1884540.2022999991],[193432.92109999992,1884541.2895999998],[192850.28589999955,1884589.4638999999],[192606.82809999958,1884595.3011000007],[192474.16000000015,1884596.1941],[192474.12930000015,1884596.0215000007],[192460.39230000041,1884518.8310000002],[192454.6754999999,1884489.4618999995],[192400.3515999997,1884210.3834000006],[192395.9458999997,1884187.7499000002],[192387.3097000001,1884120.0219999999],[192375.1222000001,1884012.6221999992],[192361.54970000032,1883893.0183000006],[192342.2154000001,1883722.6392000001],[192274.16199999955,1883617.9398999996],[192249.57259999961,1883488.4394000005],[192249.09489999991,1883453.5100999996],[192247.35489999969,1883326.2736000009],[192249.39570000023,1883179.0605999995],[192250.7276999997,1883082.9759999998],[192250.74129999988,1883081.9982999992],[192332.7182,1883108.5716999993],[192395.19180000015,1883122.5233999994],[192479.5652999999,1883130.7120999992],[192576.80580000021,1883140.1494999994],[192641.92349999957,1883148.7977000009],[192872.69319999963,1883188.6963],[193112.8060999997,1883232.7156000007],[193355.53129999992,1883275.8668000009],[193461.42250000034,1883293.8812000006],[193561.37789999973,1883316.6555000003],[193610.56730000023,1883335.0745000001],[193678.54980000015,1883360.5306000002],[193705.82129999995,1883365.2113000005],[193706.08970000036,1883365.2064999994],[193966.54980000015,1883360.5305000003],[194107.97159999982,1883392.9870999996],[194442.63179999962,1883429.8475000001],[194443.15919999965,1883429.9056000002],[194403.90230000019,1883802.8597999997],[194354.62229999993,1883914.3658000007],[194342.35230000038,1883942.6894000005],[194324.11589999963,1884048.5494999997],[194294.53650000039,1884220.2533999998],[194252.42700000014,1884464.6937000006],[193825.53600000031,1884498.5902999993],[193792.20940000005,1884587.3552000001],[193791.69419999979,1884587.1845999993],[193665.96430000011,1884545.3095999993],[193658.25999999978,1884544.2863999996],[193587.12330000009,1884534.8390999995],[193474.18950000033,1884539.1331999991]]]},"properties":{"OBJECTID":19,"NSDIFID":"16342","NAMEAR":"الحصيلة","NAMEEN":"al Huseela","DISTRICTCO":"27","WILLAYAT":"0201","GOVERNORAT":"02","FEATURELOA":1496793600000,"FEATUREUPD":1522540800000,"FEATUREPRO":"SH43","SOURCEFID":"Dhofar Mun","FEATUREOWN":"SH43","TOWN":"صلالة - Salalah","SHAPE_Leng":6684.5372841199996,"Shape_Length":6684.5372841244243,"Shape_Area":2561786.7563489983}},{"type":"Feature","id":20,"geometry":{"type":"Polygon","coordinates":[[[195738.94039999973,1883360.6111999992],[195638.11220000032,1883361.3613000009],[195604.87060000002,1883369.3314999994],[195559.83100000024,1883390.9861999992],[195477.97159999982,1883440.1111999992],[195438.28409999982,1883464.9861999992],[195370.75289999973,1883506.2361999992],[195288.19039999973,1883544.7363000009],[195262.53419999965,1883551.7361999992],[195198.9402999999,1883561.8613000009],[195155.83100000024,1883562.1113000009],[195119.90909999982,1883558.3611999992],[195075.51850000024,1883547.3613000009],[195048.29970000032,1883536.3613000009],[195042.61649999954,1883533.5322999991],[195016.65909999982,1883520.6113000009],[194971.94489999954,1883503.8285000008],[194938.61230000015,1883490.6113000009],[194866.8777999999,1883477.7363000009],[194813.4402999999,1883470.3613000009],[194695.74820000026,1883456.8666999992],[194695.74100000039,1883456.8658000007],[194549.07309999969,1883440.0488000009],[194442.64350000024,1883429.7363000009],[194162.3356999997,1883398.8624000009],[194088.1799999997,1883388.3939999994],[193966.03409999982,1883360.3613000009],[193706.13279999979,1883365.0272000004],[193705.30559999961,1883365.0420999993],[193763.76109999977,1883121.8628000002],[193764.09250000026,1883120.4839999992],[193717.38640000019,1883073.7792000007],[193716.91110000014,1883073.3038999997],[193721.98249999993,1883017.5570999999],[193818.12550000008,1882999.8587999996],[193818.33970000036,1882999.8193999995],[193795.51819999982,1882916.1991000008],[193692.89809999987,1882933.2905999999],[193649.04970000032,1882806.4495999999],[193648.44680000003,1882804.7054999992],[193696.62540000025,1882751.4924999997],[193678.99600000028,1882497.3006999996],[193678.87550000008,1882495.5636999998],[193595.31369999982,1882375.1110999994],[193496.02639999986,1882328.4201999996],[193495.75229999982,1882328.2913000006],[193495.37799999956,1882316.0490000006],[193659.56010000035,1882326.1502999999],[193791.90689999983,1882362.4864000008],[193805.17150000017,1882294.3172999993],[193804.36890000012,1882096.2122000009],[193805.38269999996,1882096.3619999997],[194758.76800000016,1882237.2567999996],[194765.33860000037,1882239.3006999996],[194889.03010000009,1882261.2425999995],[195036.15830000024,1882284.3450000007],[195138.07739999983,1882305.9140000008],[195228.2388000004,1882319.8889000006],[195344.01559999958,1882332.5],[195473.125,1882353.625],[195557.71879999992,1882372.75],[195656.39609999955,1882386.9412999991],[195786.00719999988,1882407.4080999997],[195893.64059999958,1882424.375],[195904.39059999958,1882424.5],[195973.01559999958,1882444.875],[195946.6875,1882667.9023000002],[196242.94049999956,1882900.6494999994],[196195.08380000014,1883242.1126000006],[195996.92750000022,1883180.1283999998],[195965.97310000006,1883239.1627999991],[195948.17709999997,1883265.0172000006],[195914.52630000003,1883298.1970000006],[195886.39250000007,1883317.9955000002],[195870.92470000032,1883327.1111999992],[195843.17470000032,1883339.8611999992],[195821.58100000024,1883347.3613000009],[195775.17480000015,1883359.1113000009],[195738.94039999973,1883360.6111999992]]]},"properties":{"OBJECTID":20,"NSDIFID":"16343","NAMEAR":"البليد","NAMEEN":"al Baleed","DISTRICTCO":"30","WILLAYAT":"0201","GOVERNORAT":"02","FEATURELOA":1496793600000,"FEATUREUPD":1522540800000,"FEATUREPRO":"SH43","SOURCEFID":"Dhofar Mun","FEATUREOWN":"SH43","TOWN":"صلالة - Salalah","SHAPE_Leng":7756.8627393899997,"Shape_Length":7756.8627393903598,"Shape_Area":2744063.4824191215}},{"type":"Feature","id":21,"geometry":{"type":"Polygon","coordinates":[[[199207.59609999973,1884023.5677000005],[198923.12909999955,1883991.5374999996],[198919.95330000017,1884056.5947999991],[198856.1129999999,1884053.8991999999],[198850.4561999999,1884005.8490999993],[198812.25329999998,1884002.0315000005],[198810.45249999966,1883912.0524000004],[198601.10649999976,1883881.4376999997],[198597.99859999958,1883900.8485000003],[198355.5831000004,1883856.5919000003],[198380.44629999995,1883960.6337000001],[198360.07490000036,1884072.2214000002],[198041.07330000028,1884017.3323999997],[198046.61569999997,1883986.8714000005],[197970.60819999967,1883970.2563000005],[197967.04540000018,1883991.2228999995],[197887.47510000039,1883982.1242999993],[197873.93919999991,1884027.4779000003],[197539.33040000033,1883849.8939999994],[197420.93310000002,1883787.3403999992],[197254.86560000014,1883698.9225999992],[197143.83150000032,1883639.9945],[196844.26410000026,1883481.0077],[196564.20179999992,1883339.8499999996],[196234.70610000007,1883252.1688999999],[196195.08380000014,1883242.1126000006],[196242.94049999956,1882900.6494999994],[195946.6875,1882667.9023000002],[195973.01559999958,1882444.875],[196096.14059999958,1882471.375],[196194.25769999996,1882487.0092999991],[196297.74990000017,1882503.5],[196393.02329999954,1882515.4865000006],[196475.59370000008,1882525.875],[196553.3591,1882540.1120999996],[196668.75,1882556.125],[196825.76539999992,1882577.1367000006],[197021.71779999975,1882603.3295000009],[197142.45889999997,1882613.3593000006],[197273.44730000012,1882629.1054999996],[197414.625,1882638.5],[197494.17040000018,1882663.6303000003],[197648.57809999958,1882690.125],[197706.26570000034,1882691.75],[197758.04690000042,1882710.5],[197906.54690000042,1882732.5],[198123.98440000042,1882771.125],[198442.89059999958,1882820.125],[198879.51559999958,1882874.375],[199219.26559999958,1882909.125],[199308.83829999994,1882909.6827000007],[199467.85149999987,1882933.1822999995],[199419.82419999968,1883499.3923000004],[199285.48869999964,1883879.7446999997],[199207.59609999973,1884023.5677000005]]]},"properties":{"OBJECTID":21,"NSDIFID":"16344","NAMEAR":"الدهاريز الجنوبية","NAMEEN":"Dahariz al Janubiyya","DISTRICTCO":"32","WILLAYAT":"0201","GOVERNORAT":"02","FEATURELOA":1496793600000,"FEATUREUPD":1522540800000,"FEATUREPRO":"SH43","SOURCEFID":"Dhofar Mun","FEATUREOWN":"SH43","TOWN":"صلالة - Salalah","SHAPE_Leng":9347.6199419900004,"Shape_Length":9347.6199419939148,"Shape_Area":3460223.3612182299}},{"type":"Feature","id":22,"geometry":{"type":"Polygon","coordinates":[[[199288.87349999975,1884522.5909000002],[199288.87339999992,1884638.1789999995],[199288.87349999975,1884830.3764999993],[199266.42140000034,1884939.7541000005],[199227.31359999999,1885130.2721999995],[199190.40770000033,1885310.0633000005],[199264.25710000005,1885453.5592999998],[199260.15429999959,1885679.0529999994],[199168.66199999955,1885685.0489000008],[199146.97119999956,1885686.4704],[197701.29040000029,1885754.4556000009],[197037.22240000032,1885785.1971000005],[196571.80530000012,1885804.3052999992],[196427.66229999997,1885771.5682999995],[196305.79609999992,1885708.7136000004],[195787.46760000009,1885336.7107999995],[195833.70390000008,1885019.4412999991],[195883.64659999963,1884676.7394999992],[196077.53029999975,1884675.0384],[196901.73940000031,1884667.8069000002],[196882.89240000024,1884496.2130999994],[196944.12150000036,1884486.2991000004],[196950.31350000016,1884410.9837999996],[196933.00820000004,1884412.6258000005],[196817.16490000021,1884223.4532999992],[196786.28799999971,1884200.1262999997],[196780.55730000045,1884021.9931000005],[196605.30819999985,1883969.6186999995],[196476.41940000001,1883911.9274000004],[196491.79839999974,1883815.8757000007],[196093.49679999985,1883753.4301999994],[196195.08380000014,1883242.1126000006],[196564.20179999992,1883339.8499999996],[197873.93919999991,1884027.4779000003],[197887.47510000039,1883982.1242999993],[197967.04540000018,1883991.2228999995],[197970.60819999967,1883970.2563000005],[198046.61569999997,1883986.8714000005],[198041.07330000028,1884017.3323999997],[198360.07490000036,1884072.2214000002],[198380.44629999995,1883960.6337000001],[198355.5831000004,1883856.5919000003],[198597.99859999958,1883900.8485000003],[198601.10649999976,1883881.4376999997],[198810.45249999966,1883912.0524000004],[198812.25329999998,1884002.0315000005],[198850.4561999999,1884005.8490999993],[198856.1129999999,1884053.8991999999],[198919.95330000017,1884056.5947999991],[198923.12909999955,1883991.5374999996],[199207.59609999973,1884023.5677000005],[199174.22200000007,1884118.0615999997],[199174.22200000007,1884215.4789000005],[199254.26460000034,1884321.9989999998],[199288.87349999975,1884522.5909000002]]]},"properties":{"OBJECTID":22,"NSDIFID":"16345","NAMEAR":"الدهاريز الشمالية","NAMEEN":"Dahariz al Shamaliyya","DISTRICTCO":"33","WILLAYAT":"0201","GOVERNORAT":"02","FEATURELOA":1496793600000,"FEATUREUPD":1522540800000,"FEATUREPRO":"SH43","SOURCEFID":"Dhofar Mun","FEATUREOWN":"SH43","TOWN":"صلالة - Salalah","SHAPE_Leng":12862.724407600001,"Shape_Length":12862.724407578073,"Shape_Area":5837508.7352587897}},{"type":"Feature","id":23,"geometry":{"type":"Polygon","coordinates":[[[200547.66420000046,1883092.7609999999],[200978.8125,1883164.625],[201134.93759999983,1883179.5504000001],[204982.31730000023,1883748.1302000005],[205906.36340000015,1885395.6612],[205915.49199999962,1887047.9408999998],[205620.14759999979,1887101.6113000009],[205098.60989999957,1887152.5914999992],[204908.00119999982,1887170.6999999993],[204555.27350000013,1887204.2104000002],[204434.70160000026,1887223.0369000006],[204299.27379999962,1887244.1830000002],[203948.9682,1887388.2905999999],[203422.84250000026,1887037.5160000008],[202999.29330000002,1886755.1304000001],[202999.18329999968,1886755.057],[201404.73699999973,1885692.0196000002],[201352.09530000016,1885658.0851000007],[200813.57909999974,1885310.9412999991],[200615.58640000038,1885167.5651999991],[200449.65579999983,1885081.1261999998],[199948.82380000036,1884901.2482999992],[199288.87339999992,1884638.1789999995],[199288.87349999975,1884522.5909000002],[199254.26460000034,1884321.9989999998],[199174.22200000007,1884215.4789000005],[199174.22200000007,1884118.0615999997],[199207.59609999973,1884023.5677000005],[199285.48869999964,1883879.7446999997],[199419.82419999968,1883499.3923000004],[199467.85149999987,1882933.1822999995],[200547.66420000046,1883092.7609999999]]]},"properties":{"OBJECTID":23,"NSDIFID":"16346","NAMEAR":"رزات","NAMEEN":"Razat","DISTRICTCO":"36","WILLAYAT":"0201","GOVERNORAT":"02","FEATURELOA":1496793600000,"FEATUREUPD":1522540800000,"FEATUREPRO":"SH43","SOURCEFID":"Dhofar Mun","FEATUREOWN":"SH43","TOWN":" ","SHAPE_Leng":18344.3420463,"Shape_Length":18344.342046349622,"Shape_Area":18241386.937058378}},{"type":"Feature","id":24,"geometry":{"type":"Polygon","coordinates":[[[205915.49199999962,1888912.8438000008],[203889.40220000036,1893133.5898000002],[203782.73660000041,1893133.5106000006],[203784.41789999977,1889267.3524999991],[203615.52960000001,1888415.4224999994],[203605.43240000028,1888217.3522999994],[203637.6950000003,1888090.8322000001],[203685.02539999969,1887905.2227999996],[203752.03729999997,1887773.9800000004],[203948.9682,1887388.2905999999],[204299.27379999962,1887244.1830000002],[204434.70160000026,1887223.0369000006],[204908.00119999982,1887170.6999999993],[205620.14759999979,1887101.6113000009],[205915.49199999962,1887047.9408999998],[205915.49199999962,1888912.8438000008]]]},"properties":{"OBJECTID":24,"NSDIFID":"16347","NAMEAR":"المعمورة","NAMEEN":"al Mamura","DISTRICTCO":"039","WILLAYAT":"0201","GOVERNORAT":"02","FEATURELOA":1496793600000,"FEATUREUPD":1522540800000,"FEATUREPRO":"SH43","SOURCEFID":"Dhofar Mun","FEATUREOWN":"SH43","TOWN":" ","SHAPE_Leng":14496.664092000001,"Shape_Length":14496.66409198811,"Shape_Area":8513035.9190034103}},{"type":"Feature","id":25,"geometry":{"type":"Polygon","coordinates":[[[193832.68369999994,1884605.7083999999],[193832.30620000046,1884606.6921999995],[193513.23319999967,1885438.2993999999],[193215.73419999983,1886213.6773000006],[193080.76549999975,1886565.4495999999],[193172.62469999958,1886908.7017999999],[193331.34169999976,1887501.7829999998],[193403.78320000041,1887772.4763999991],[192617.23919999972,1887917.6495999992],[191950.13750000019,1888040.7772000004],[191514.04750000034,1888121.2667999994],[191013.0493999999,1888716.8087000009],[190682.32199999969,1889109.9480000008],[190460.50129999965,1888987.4389999993],[187591.81769999955,1887403.0985000003],[187298.85089999996,1887254.2465000004],[186983.43209999986,1885659.4865000006],[186715.35099999979,1884304.0662999991],[186709.13239999954,1884214.2058000006],[186712.85120000038,1884130.5874000005],[186763.62409999967,1884024.5510000009],[186854.07660000026,1883835.6458000001],[187266.47369999997,1884066.8277000003],[187482.90840000007,1884187.0925999992],[187482.91629999969,1884187.0969999991],[187627.8618999999,1884264.5850000009],[187723.8964999998,1884304.7905000001],[187803.57660000026,1884333.8462000005],[187892.29949999973,1884364.4260000009],[188013.34229999967,1884396.8084999993],[188013.34669999965,1884396.8096999992],[188151.86799999978,1884421.7940999996],[188220.1799999997,1884433.7778999992],[188348.49399999995,1884443.1469999999],[188634.46760000009,1884448.3955000006],[189076.12069999985,1884447.1087999996],[189556.60699999984,1884445.7090000007],[189650.69930000044,1884451.4934999999],[189766.74370000046,1884464.1670999993],[189800.10520000011,1884468.1557999998],[189860.89169999957,1884476.5395999998],[189947.56390000042,1884493.3673999999],[190123.69089999981,1884537.8721999992],[190123.70440000016,1884537.8757000007],[190161.84100000001,1884547.7180000003],[190276.34690000024,1884565.6537999995],[190433.11000000034,1884544.1114000008],[190433.11330000032,1884544.1108999997],[190877.41079999972,1884483.6076999996],[191307.15799999982,1884430.5903999992],[191482.81759999972,1884409.8676999994],[191591.22530000005,1884409.1629000008],[191650.63839999959,1884408.7765999995],[191650.6409,1884408.7769000009],[191712.70100000035,1884415.1140000001],[191714.79229999986,1884415.5409999993],[191784.78940000013,1884429.8319000006],[191785.45799999963,1884429.9683999997],[191798.35790000018,1884433.1556000002],[192120.90170000028,1884512.8478999995],[192278.93599999975,1884551.8940999992],[192457.30159999989,1884592.8502999991],[192473.63929999992,1884596.0238000005],[192473.64419999998,1884596.0248000007],[192474.12930000015,1884596.0215000007],[192552.61490000039,1884595.4932000004],[192667.79260000028,1884593.6577000003],[192755.55319999997,1884591.5536000002],[192817.14829999954,1884590.0767999999],[192849.77020000014,1884589.2946000006],[192926.59140000027,1884582.9428000003],[193003.12430000026,1884576.6148000006],[193070.2918999996,1884571.0611000005],[193230.64250000007,1884557.8027999997],[193313.66839999985,1884550.9378999993],[193369.7407999998,1884546.3016999997],[193425.95770000014,1884541.6535],[193432.92109999992,1884541.2895999998],[193474.18950000033,1884539.1331999991],[193487.4606999997,1884538.4397],[193549.82050000038,1884536.0686000008],[193586.60759999976,1884534.6698000003],[193621.94010000024,1884539.3621999994],[193657.69890000019,1884544.1111999992],[193658.25999999978,1884544.2863999996],[193732.44479999971,1884567.4531999994],[193791.69419999979,1884587.1845999993],[193832.68369999994,1884605.7083999999]]]},"properties":{"OBJECTID":25,"NSDIFID":"16348","NAMEAR":"منطقة المطار","NAMEEN":"Salalah Airport","DISTRICTCO":"14","WILLAYAT":"0201","GOVERNORAT":"02","FEATURELOA":1496793600000,"FEATUREUPD":1522540800000,"FEATUREPRO":"SH43","SOURCEFID":"Dhofar Mun","FEATUREOWN":"SH43","TOWN":"صلالة - Salalah","SHAPE_Leng":21101.977211400001,"Shape_Length":21101.977211421468,"Shape_Area":23590243.174606901}},{"type":"Feature","id":26,"geometry":{"type":"Polygon","coordinates":[[[196115.26190000027,1888871.5731000006],[196185.57689999975,1889114.0461999997],[196258.43670000043,1889386.0672999993],[196309.66770000011,1889671.5888999999],[196354.69010000024,1889922.5090999994],[196366.48770000041,1890036.6290000007],[196407.06390000042,1890429.1298999991],[196431.29140000045,1890671.227],[196431.29569999967,1890671.2694000006],[196448.11110000033,1890839.3010000009],[196467.49569999985,1891159.1265999991],[196467.49610000011,1891159.1322000008],[196478.37050000019,1891338.5497999992],[196472.47149999999,1891668.2642999999],[196469.99519999977,1891806.6688000001],[196471.21019999962,1892254.8807999995],[196487.01140000019,1892458.8231000006],[190682.32199999969,1889109.9480000008],[191013.0493999999,1888716.8087000009],[191514.04750000034,1888121.2667999994],[191950.13750000019,1888040.7772000004],[192617.23919999972,1887917.6495999992],[193403.78320000041,1887772.4763999991],[193331.34169999976,1887501.7829999998],[195353.15039999969,1888244.6641000006],[195871.00200000033,1888081.3833000008],[196115.26190000027,1888871.5731000006]]]},"properties":{"OBJECTID":26,"NSDIFID":"16349","NAMEAR":"منطقة أبار صلالة","NAMEEN":"Salalah Wellfield","DISTRICTCO":"29","WILLAYAT":"0201","GOVERNORAT":"02","FEATURELOA":1496793600000,"FEATUREUPD":1522540800000,"FEATUREPRO":"SH43","SOURCEFID":"Dhofar Mun","FEATUREOWN":"SH43","TOWN":"صلالة - Salalah","SHAPE_Leng":17341.098507300001,"Shape_Length":17341.098507269111,"Shape_Area":15100609.39845762}},{"type":"Feature","id":27,"geometry":{"type":"Polygon","coordinates":[[[193832.30620000046,1884606.6921999995],[194150.79150000028,1884759.6616999991],[195158.26559999958,1885129.2182999998],[195569.20459999982,1885241.4717999995],[195787.46760000009,1885336.7107999995],[195621.45529999956,1885775.1765000001],[195589.58139999956,1885926.6701999996],[195547.78519999981,1886125.3228999991],[195542.51840000041,1886265.8488999996],[195529.10680000018,1886623.6853999998],[195552.14020000026,1886785.6502999999],[195606.3722000001,1887166.9957999997],[195656.31190000009,1887376.6907000002],[195691.13069999963,1887522.8936999999],[195871.00200000033,1888081.3833000008],[195353.15039999969,1888244.6641000006],[193331.34169999976,1887501.7829999998],[193172.62469999958,1886908.7017999999],[193080.76549999975,1886565.4495999999],[193791.69419999979,1884587.1845999993],[193832.30620000046,1884606.6921999995]]]},"properties":{"OBJECTID":27,"NSDIFID":"16350","NAMEAR":"مزارع جرزيز","NAMEEN":"Jerziz Farm","DISTRICTCO":"28","WILLAYAT":"0201","GOVERNORAT":"02","FEATURELOA":1496793600000,"FEATUREUPD":1522540800000,"FEATUREPRO":"SH43","SOURCEFID":"Dhofar Mun","FEATUREOWN":"SH43","TOWN":"صلالة - Salalah","SHAPE_Leng":10730.7182433,"Shape_Length":10730.718243309062,"Shape_Area":6919674.6684981417}},{"type":"Feature","id":28,"geometry":{"type":"Polygon","coordinates":[[[197631.87339999992,1889215.9989999998],[197622.67140000034,1889216.9691000003],[197375.70969999954,1889243.0033],[196776.68450000044,1889290.4165000003],[196664.12760000024,1889290.5874000005],[196258.43670000043,1889386.0672999993],[195871.00200000033,1888081.3833000008],[195656.31190000009,1887376.6907000002],[195552.14020000026,1886785.6502999999],[195542.51840000041,1886265.8488999996],[195589.58139999956,1885926.6701999996],[195787.46760000009,1885336.7107999995],[196305.79609999992,1885708.7136000004],[196427.66229999997,1885771.5682999995],[196571.80530000012,1885804.3052999992],[199168.66199999955,1885685.0489000008],[199532.62060000002,1885668.3346999995],[199532.62050000019,1886050.9858999997],[198268.41839999985,1889223.6827000007],[197728.09900000039,1889209.4507999998],[197631.87339999992,1889215.9989999998]]]},"properties":{"OBJECTID":28,"NSDIFID":"16351","NAMEAR":"السعادة الجنوبية","NAMEEN":"al Sada al Janubiyya","DISTRICTCO":"34","WILLAYAT":"0201","GOVERNORAT":"02","FEATURELOA":1496793600000,"FEATUREUPD":1522540800000,"FEATUREPRO":"SH43","SOURCEFID":"Dhofar Mun","FEATUREOWN":"SH43","TOWN":"صلالة - Salalah","SHAPE_Leng":13891.983352900001,"Shape_Length":13891.983352890671,"Shape_Area":11332582.902566843}},{"type":"Feature","id":29,"geometry":{"type":"Polygon","coordinates":[[[198268.41839999985,1889223.6827000007],[198376.96439999994,1890322.8476999998],[198269.74949999992,1890909.4170999993],[198058.28529999964,1891557.0015999991],[197648.27720000036,1892812.6039000005],[196487.01140000019,1892458.8231000006],[196472.47149999999,1891668.2642999999],[196467.49610000011,1891159.1322000008],[196467.49569999985,1891159.1265999991],[196431.29569999967,1890671.2694000006],[196431.29140000045,1890671.227],[196366.48770000041,1890036.6290000007],[196309.66770000011,1889671.5888999999],[196258.43670000043,1889386.0672999993],[196664.12760000024,1889290.5874000005],[196776.68450000044,1889290.4165000003],[197375.70969999954,1889243.0033],[197567.75999999978,1889220.8848999999],[197622.67140000034,1889216.9691000003],[197728.09900000039,1889209.4507999998],[198268.41839999985,1889223.6827000007]]]},"properties":{"OBJECTID":29,"NSDIFID":"16352","NAMEAR":"السعادة الشمالية","NAMEEN":"al Sada al Shamaliyya","DISTRICTCO":"35","WILLAYAT":"0201","GOVERNORAT":"02","FEATURELOA":1496793600000,"FEATUREUPD":1522540800000,"FEATUREPRO":"SH43","SOURCEFID":"Dhofar Mun","FEATUREOWN":"SH43","TOWN":"صلالة - Salalah","SHAPE_Leng":10028.1595232,"Shape_Length":10028.159523233671,"Shape_Area":5852880.2571908962}},{"type":"Feature","id":30,"geometry":{"type":"Polygon","coordinates":[[[203784.41789999977,1889267.3524999991],[203782.73660000041,1893133.5106000006],[198662.92050000001,1893131.2809999995],[197648.27720000036,1892812.6039000005],[198058.28529999964,1891557.0015999991],[198269.74949999992,1890909.4170999993],[198376.96439999994,1890322.8476999998],[198268.41839999985,1889223.6827000007],[203784.41789999977,1889267.3524999991]]]},"properties":{"OBJECTID":30,"NSDIFID":"16353","NAMEAR":"صحلنوت الشمالية","NAMEEN":"Sahalnout al Shamaliyya","DISTRICTCO":"38","WILLAYAT":"0201","GOVERNORAT":"02","FEATURELOA":1496793600000,"FEATUREUPD":1522540800000,"FEATUREPRO":"SH43","SOURCEFID":"Dhofar Mun","FEATUREOWN":"SH43","TOWN":"صلالة - Salalah","SHAPE_Leng":19268.543555299999,"Shape_Length":19268.543555270044,"Shape_Area":21969258.587729871}},{"type":"Feature","id":31,"geometry":{"type":"Polygon","coordinates":[[[202999.18329999968,1886755.057],[202999.29330000002,1886755.1304000001],[203422.84250000026,1887037.5160000008],[203948.9682,1887388.2905999999],[203752.03729999997,1887773.9800000004],[203685.02539999969,1887905.2227999996],[203637.6950000003,1888090.8322000001],[203605.43240000028,1888217.3522999994],[203784.41789999977,1889267.3524999991],[198268.41839999985,1889223.6827000007],[199532.62050000019,1886050.9858999997],[199532.62060000002,1885668.3346999995],[199260.15429999959,1885679.0529999994],[199264.25710000005,1885453.5592999998],[199190.40770000033,1885310.0633000005],[199227.31359999999,1885130.2721999995],[199266.42140000034,1884939.7541000005],[199288.87339999992,1884638.1789999995],[199948.82380000036,1884901.2482999992],[200449.65579999983,1885081.1261999998],[200615.58640000038,1885167.5651999991],[201352.09530000016,1885658.0851000007],[202999.18329999968,1886755.057]]]},"properties":{"OBJECTID":31,"NSDIFID":"16354","NAMEAR":"صحلنوت الجنوبية","NAMEEN":"Sahalnout al Janubiyya","DISTRICTCO":"37","WILLAYAT":"0201","GOVERNORAT":"02","FEATURELOA":1496793600000,"FEATUREUPD":1522540800000,"FEATUREPRO":"SH43","SOURCEFID":"Dhofar Mun","FEATUREOWN":"SH43","TOWN":"صلالة - Salalah","SHAPE_Leng":18056.907483300001,"Shape_Length":18056.907483308652,"Shape_Area":16437983.141337793}},{"type":"Feature","id":32,"geometry":{"type":"Polygon","coordinates":[[[196944.12150000036,1884486.2991000004],[196882.89240000024,1884496.2130999994],[196901.73940000031,1884667.8069000002],[196077.53029999975,1884675.0384],[195883.64659999963,1884676.7394999992],[195833.70390000008,1885019.4412999991],[195787.46760000009,1885336.7107999995],[195569.20459999982,1885241.4717999995],[195158.26559999958,1885129.2182999998],[194150.79150000028,1884759.6616999991],[193832.68369999994,1884605.7083999999],[193791.69419999979,1884587.1845999993],[193825.02029999997,1884498.4210000001],[194251.9112999998,1884464.5244999994],[194341.83660000004,1883942.5201999992],[194403.38659999985,1883802.6906000003],[194442.63179999962,1883429.8475000001],[194442.64350000024,1883429.7363000009],[194695.74100000039,1883456.8658000007],[194695.74820000026,1883456.8666999992],[194866.8777999999,1883477.7363000009],[194971.94489999954,1883503.8285000008],[195042.61649999954,1883533.5322999991],[195075.51850000024,1883547.3613000009],[195198.9402999999,1883561.8613000009],[195288.19039999973,1883544.7363000009],[195438.28409999982,1883464.9861999992],[195638.11220000032,1883361.3613000009],[195775.17480000015,1883359.1113000009],[195886.39250000007,1883317.9955000002],[195948.17709999997,1883265.0172000006],[195996.92750000022,1883180.1283999998],[196195.08380000014,1883242.1126000006],[196093.49679999985,1883753.4301999994],[196491.79839999974,1883815.8757000007],[196476.41940000001,1883911.9274000004],[196605.30819999985,1883969.6186999995],[196780.55730000045,1884021.9931000005],[196786.28799999971,1884200.1262999997],[196817.16490000021,1884223.4532999992],[196933.00820000004,1884412.6258000005],[196950.31350000016,1884410.9837999996],[196944.12150000036,1884486.2991000004]]]},"properties":{"OBJECTID":32,"NSDIFID":"16355","NAMEAR":"الرباط","NAMEEN":"al Robat","DISTRICTCO":"31","WILLAYAT":"0201","GOVERNORAT":"02","FEATURELOA":1496793600000,"FEATUREUPD":1522540800000,"FEATUREPRO":"SH43","SOURCEFID":"Dhofar Mun","FEATUREOWN":"SH43","TOWN":"صلالة - Salalah","SHAPE_Leng":9413.7969484999994,"Shape_Length":9413.7969484949153,"Shape_Area":3555962.9309922378}}]
}