{
  "type" : "FeatureCollection",
  "crs" : {
    "type" : "name",
    "properties" : {
      "name" : "EPSG:32640"
    }
  },
  "features" : [{"type":"Feature","id":1,"geometry":{"type":"Point","coordinates":[193083.31439999957,1892794.5363999996]},"properties":{"OBJECTID":1,"Asset_ID":"EEC1","Name":"اصلاح و صيانة الاجهزة الكهربائية","District_ID":null,"Gov_ID":"Dhofar Governorate","Wlyt_ID":"Salalah","Road_ID":"102189","Latitude":17.09913667,"Longitude":54.116109760000001,"GlobalID":"{4C622071-23FA-4BE6-B4BD-932DA3B59FB8}"}},{"type":"Feature","id":2,"geometry":{"type":"Point","coordinates":[196385.25459999964,1892670.4695999995]},"properties":{"OBJECTID":2,"Asset_ID":"EEC2","Name":"The Perfect Star For Business","District_ID":null,"Gov_ID":"Dhofar Governorate","Wlyt_ID":"Salalah","Road_ID":"102167","Latitude":17.098455749999999,"Longitude":54.147124789999999,"GlobalID":"{952CE22C-30D2-4A69-86D2-8839B86AF6A2}"}},{"type":"Feature","id":3,"geometry":{"type":"Point","coordinates":[197967.14589999989,1884103.4640999995]},"properties":{"OBJECTID":3,"Asset_ID":"EEC3","Name":"M2 SHOP","District_ID":"Dahariz al Shamaliyya","Gov_ID":"Dhofar Governorate","Wlyt_ID":"Salalah","Road_ID":"100059","Latitude":17.021318529999999,"Longitude":54.163144729999999,"GlobalID":"{E64B7324-60D9-4376-89B6-D90AEA035BCE}"}},{"type":"Feature","id":4,"geometry":{"type":"Point","coordinates":[197756.01099999994,1885822.4638999999]},"properties":{"OBJECTID":4,"Asset_ID":"EEC4","Name":"AL UFUQ SYSTEMS","District_ID":"al Sada al Janubiyya","Gov_ID":"Dhofar Governorate","Wlyt_ID":"Salalah","Road_ID":"100353","Latitude":17.036810630000002,"Longitude":54.16092913,"GlobalID":"{D2020005-24D1-4401-943F-F257B13E6D12}"}},{"type":"Feature","id":5,"geometry":{"type":"Point","coordinates":[197787.27599999961,1885701.0910999998]},"properties":{"OBJECTID":5,"Asset_ID":"EEC5","Name":"NAS info pulse","District_ID":"Dahariz al Shamaliyya","Gov_ID":"Dhofar Governorate","Wlyt_ID":"Salalah","Road_ID":"100124","Latitude":17.035718930000002,"Longitude":54.161239090000002,"GlobalID":"{E56514EC-26A9-46A4-8836-1682BBC3572C}"}},{"type":"Feature","id":6,"geometry":{"type":"Point","coordinates":[190058.99309999961,1883789.3877000008]},"properties":{"OBJECTID":6,"Asset_ID":"EEC6","Name":"Internet cafe","District_ID":"Salalah al Jadida","Gov_ID":"Dhofar Governorate","Wlyt_ID":"Salalah","Road_ID":"104187","Latitude":17.017459299999999,"Longitude":54.088980739999997,"GlobalID":"{E90A1EBA-D234-428E-9F4C-DF3DD09002E7}"}},{"type":"Feature","id":7,"geometry":{"type":"Point","coordinates":[189818.77419999987,1883810.3764999993]},"properties":{"OBJECTID":7,"Asset_ID":"EEC7","Name":"بيع برامج و و مستلزمات الحاسب الالي","District_ID":"Salalah al Jadida","Gov_ID":"Dhofar Governorate","Wlyt_ID":"Salalah","Road_ID":"104187","Latitude":17.017671799999999,"Longitude":54.086712249999998,"GlobalID":"{46F2C8BB-B05D-45CA-A37C-3676175D6646}"}},{"type":"Feature","id":8,"geometry":{"type":"Point","coordinates":[189831.21250000037,1883845.8925999999]},"properties":{"OBJECTID":8,"Asset_ID":"EEC8","Name":"بيع برامج و مستلزمات الحاسب الألي و اصلاح و صيانة الهواتف النقالة","District_ID":"Salalah al Jadida","Gov_ID":"Dhofar Governorate","Wlyt_ID":"Salalah","Road_ID":"104187","Latitude":17.017913419999999,"Longitude":54.086834590000002,"GlobalID":"{9B322F51-B78C-45A0-B54A-E31C7287593F}"}},{"type":"Feature","id":9,"geometry":{"type":"Point","coordinates":[189882.37349999975,1883839.7086999994]},"properties":{"OBJECTID":9,"Asset_ID":"EEC9","Name":"خالد استور","District_ID":"Salalah al Jadida","Gov_ID":"Dhofar Governorate","Wlyt_ID":"Salalah","Road_ID":"104187","Latitude":17.01786448,"Longitude":54.087315510000003,"GlobalID":"{D09B8FF6-93DF-4834-96FA-76CFA4A2D97E}"}},{"type":"Feature","id":10,"geometry":{"type":"Point","coordinates":[189568.53259999957,1884168.0681999996]},"properties":{"OBJECTID":10,"Asset_ID":"EEC10","Name":"بيع الادوات الكهربائية و تمديداتها","District_ID":"Salalah al Jadida","Gov_ID":"Dhofar Governorate","Wlyt_ID":"Salalah","Road_ID":"104189","Latitude":17.020786619999999,"Longitude":54.084324700000003,"GlobalID":"{35B2540C-D090-4CE7-889C-6D9BE6A7847C}"}},{"type":"Feature","id":11,"geometry":{"type":"Point","coordinates":[189580.2089999998,1884033.1754000001]},"properties":{"OBJECTID":11,"Asset_ID":"EEC11","Name":"AL NOOR ELECTRONICS","District_ID":"Salalah al Jadida","Gov_ID":"Dhofar Governorate","Wlyt_ID":"Salalah","Road_ID":"104266","Latitude":17.01957041,"Longitude":54.084453140000001,"GlobalID":"{0E200FBD-7103-4248-A327-26831B4C5D52}"}},{"type":"Feature","id":12,"geometry":{"type":"Point","coordinates":[189635.97900000028,1883613.7478999998]},"properties":{"OBJECTID":12,"Asset_ID":"EEC12","Name":"SMART INFORMATION TECHNOLOGY","District_ID":"Salalah al Jadida","Gov_ID":"Dhofar Governorate","Wlyt_ID":"Salalah","Road_ID":"104189","Latitude":17.015791419999999,"Longitude":54.085035099999999,"GlobalID":"{21DFB26F-414D-4C8E-9E4E-DA655B49DA89}"}},{"type":"Feature","id":13,"geometry":{"type":"Point","coordinates":[189671.92989999987,1883601.3034000006]},"properties":{"OBJECTID":13,"Asset_ID":"EEC13","Name":"بيع برامج و مستلزمات الحاسب الألي","District_ID":"Salalah al Jadida","Gov_ID":"Dhofar Governorate","Wlyt_ID":"Salalah","Road_ID":"104189","Latitude":17.01568391,"Longitude":54.085374180000002,"GlobalID":"{D1CCE383-9A99-425F-9AE0-1D70C4CD7409}"}},{"type":"Feature","id":14,"geometry":{"type":"Point","coordinates":[189692.05630000029,1883492.0679000001]},"properties":{"OBJECTID":14,"Asset_ID":"EEC14","Name":"مسار الخليج للحاسب الالي واللكترونيات\r\n","District_ID":"Salalah al Jadida","Gov_ID":"Dhofar Governorate","Wlyt_ID":"Salalah","Road_ID":"104189","Latitude":17.01470046,"Longitude":54.085578300000002,"GlobalID":"{A3119516-32E6-484F-89F9-FD652B9345D3}"}},{"type":"Feature","id":15,"geometry":{"type":"Point","coordinates":[189664.86270000041,1883439.9850999992]},"properties":{"OBJECTID":15,"Asset_ID":"EEC15","Name":"MODI المواد الكهربائية","District_ID":"Salalah al Jadida","Gov_ID":"Dhofar Governorate","Wlyt_ID":"Salalah","Road_ID":"104189","Latitude":17.014226610000001,"Longitude":54.085330419999998,"GlobalID":"{2B08EC98-C860-4FE1-B71A-A241B4EB041E}"}},{"type":"Feature","id":16,"geometry":{"type":"Point","coordinates":[189854.75729999971,1883502.3615000006]},"properties":{"OBJECTID":16,"Asset_ID":"EEC16","Name":"اصلاح و صيانة الاجهزة الألكترونية","District_ID":"Salalah al Jadida","Gov_ID":"Dhofar Governorate","Wlyt_ID":"Salalah","Road_ID":"104201","Latitude":17.014815259999999,"Longitude":54.087103519999999,"GlobalID":"{662A6ECD-F3AD-4004-933F-182E6A3C726D}"}},{"type":"Feature","id":17,"geometry":{"type":"Point","coordinates":[189706.19089999981,1883400.1932999995]},"properties":{"OBJECTID":17,"Asset_ID":"EEC17","Name":"ONE PUNCH","District_ID":"Salalah al Jadida","Gov_ID":"Dhofar Governorate","Wlyt_ID":"Salalah","Road_ID":"104189","Latitude":17.013872939999999,"Longitude":54.085723770000001,"GlobalID":"{94B2DEAF-3134-4E55-AA26-931A65827F48}"}},{"type":"Feature","id":18,"geometry":{"type":"Point","coordinates":[189983.73510000017,1883425.3127999995]},"properties":{"OBJECTID":18,"Asset_ID":"EEC18","Name":"الرامي للحاسب الألي","District_ID":"Salalah al Jadida","Gov_ID":"Dhofar Governorate","Wlyt_ID":"Salalah","Road_ID":"103812","Latitude":17.01413702,"Longitude":54.088324499999999,"GlobalID":"{927E9A9B-2940-44A7-B420-FD2240E7B103}"}},{"type":"Feature","id":19,"geometry":{"type":"Point","coordinates":[188480.01840000041,1883143.0826999992]},"properties":{"OBJECTID":19,"Asset_ID":"EEC19","Name":"بيع كاميرات المراقبة و انظمة التحكم عن بعد","District_ID":"Salalah al Jadida","Gov_ID":"Dhofar Governorate","Wlyt_ID":"Salalah","Road_ID":"104318","Latitude":17.011386609999999,"Longitude":54.074254549999999,"GlobalID":"{953E334C-E876-4833-8EE6-DF4395A5FBE4}"}},{"type":"Feature","id":20,"geometry":{"type":"Point","coordinates":[188318.70010000002,1882966.1702999994]},"properties":{"OBJECTID":20,"Asset_ID":"EEC20","Name":"بيع الاجهزة الالكترونية","District_ID":"al Wadi","Gov_ID":"Dhofar Governorate","Wlyt_ID":"Salalah","Road_ID":"104322","Latitude":17.009767719999999,"Longitude":54.072765740000001,"GlobalID":"{E090F930-64C7-4A15-AD80-071F7CCBE618}"}},{"type":"Feature","id":21,"geometry":{"type":"Point","coordinates":[188328.99380000029,1883034.3848999999]},"properties":{"OBJECTID":21,"Asset_ID":"EEC21","Name":"بيع الهواتف النقالة و مستلزماتها","District_ID":"al Wadi","Gov_ID":"Dhofar Governorate","Wlyt_ID":"Salalah","Road_ID":"104319","Latitude":17.010384930000001,"Longitude":54.072852750000003,"GlobalID":"{5F7A36C8-D22B-4E2A-A5BE-A034F54BC3AA}"}},{"type":"Feature","id":22,"geometry":{"type":"Point","coordinates":[188315.78100000042,1882909.4783999994]},"properties":{"OBJECTID":22,"Asset_ID":"EEC22","Name":"اصلاح و صيانة الهواتف النقالة","District_ID":"al Wadi","Gov_ID":"Dhofar Governorate","Wlyt_ID":"Salalah","Road_ID":"104323","Latitude":17.009255530000001,"Longitude":54.072746309999999,"GlobalID":"{451CAC07-9D39-4EB3-9637-B6F073E5CBFB}"}},{"type":"Feature","id":23,"geometry":{"type":"Point","coordinates":[188020.33810000028,1882805.8507000003]},"properties":{"OBJECTID":23,"Asset_ID":"EEC23","Name":"بيع بالتجزئة في المتاجر المتخصصة لبرامج و مستلزمات الحاسب الالي و الهواتف النقالة","District_ID":"al Wadi","Gov_ID":"Dhofar Governorate","Wlyt_ID":"Salalah","Road_ID":"104326","Latitude":17.00828009,"Longitude":54.069988789999996,"GlobalID":"{A933DFE6-849C-43F2-AFBD-2A06D477F327}"}},{"type":"Feature","id":24,"geometry":{"type":"Point","coordinates":[187947.13040000014,1882781.7296999991]},"properties":{"OBJECTID":24,"Asset_ID":"EEC24","Name":"اصلاح و صيانة الاجهزة الالكترونية","District_ID":"al Wadi","Gov_ID":"Dhofar Governorate","Wlyt_ID":"Salalah","Road_ID":"104327","Latitude":17.00805244,"Longitude":54.069305290000003,"GlobalID":"{022E6037-BF01-4417-AC77-217979ABAD90}"}},{"type":"Feature","id":25,"geometry":{"type":"Point","coordinates":[187296.24949999992,1882561.1845999993]},"properties":{"OBJECTID":25,"Asset_ID":"EEC25","Name":"بيع و اصلاح و صيانة الهواتف النقالة و مستلزماتها","District_ID":"al Wadi","Gov_ID":"Dhofar Governorate","Wlyt_ID":"Salalah","Road_ID":"103812","Latitude":17.00597337,"Longitude":54.063229319999998,"GlobalID":"{A6E7E420-D01C-4A8D-BA73-58A2D70DC4EF}"}},{"type":"Feature","id":26,"geometry":{"type":"Point","coordinates":[187298.70770000014,1882529.8428000007]},"properties":{"OBJECTID":26,"Asset_ID":"EEC26","Name":"بيع الهواتف النقالة و مستلزماتها","District_ID":"al Wadi","Gov_ID":"Dhofar Governorate","Wlyt_ID":"Salalah","Road_ID":"103812","Latitude":17.00569076,"Longitude":54.063256799999998,"GlobalID":"{3A72BC2C-9174-4D3B-AF85-978EF08DBA72}"}},{"type":"Feature","id":27,"geometry":{"type":"Point","coordinates":[186912.42729999963,1882498.0784000009]},"properties":{"OBJECTID":27,"Asset_ID":"EEC27","Name":"اصلاح و صيانة الاجهزة الالكترونية","District_ID":"al Wadi","Gov_ID":"Dhofar Governorate","Wlyt_ID":"Salalah","Road_ID":"105466","Latitude":17.005351650000001,"Longitude":54.059636980000001,"GlobalID":"{AE97A024-E01B-478F-BFF5-887B9679F552}"}},{"type":"Feature","id":28,"geometry":{"type":"Point","coordinates":[189194.00540000014,1883788.0100999996]},"properties":{"OBJECTID":28,"Asset_ID":"EEC28","Name":"البرتقالي للحاسب الآلي و الالكترونيات","District_ID":"Salalah al Jadida","Gov_ID":"Dhofar Governorate","Wlyt_ID":"Salalah","Road_ID":"104187","Latitude":17.017305109999999,"Longitude":54.080863569999998,"GlobalID":"{D12B37C9-9DC5-47A5-9712-6097E1FEBA91}"}},{"type":"Feature","id":29,"geometry":{"type":"Point","coordinates":[189154.05989999976,1883910.6118999999]},"properties":{"OBJECTID":29,"Asset_ID":"EEC29","Name":"بيع و صيانة اجهزة البث التلفزيوني","District_ID":"Salalah al Jadida","Gov_ID":"Dhofar Governorate","Wlyt_ID":"Salalah","Road_ID":"104210","Latitude":17.018406550000002,"Longitude":54.080471580000001,"GlobalID":"{DBA3CAC2-8076-4894-B8BD-2197563977AA}"}},{"type":"Feature","id":30,"geometry":{"type":"Point","coordinates":[188901.67360000033,1884164.8034000006]},"properties":{"OBJECTID":30,"Asset_ID":"EEC30","Name":"Mustahili phones","District_ID":"Salalah al Jadida","Gov_ID":"Dhofar Governorate","Wlyt_ID":"Salalah","Road_ID":"104316","Latitude":17.020667289999999,"Longitude":54.07806772,"GlobalID":"{08F0746B-087E-42BD-925F-09E06FB20C9F}"}},{"type":"Feature","id":31,"geometry":{"type":"Point","coordinates":[188656.62349999975,1883839.0942000002]},"properties":{"OBJECTID":31,"Asset_ID":"EEC31","Name":"Abraj Muscat Almayt Electronics","District_ID":"Salalah al Jadida","Gov_ID":"Dhofar Governorate","Wlyt_ID":"Salalah","Road_ID":"104287","Latitude":17.017693820000002,"Longitude":54.075814010000002,"GlobalID":"{8A212D99-9538-46FC-AD32-8063BE9891D6}"}},{"type":"Feature","id":32,"geometry":{"type":"Point","coordinates":[189489.71710000001,1883784.1690999996]},"properties":{"OBJECTID":32,"Asset_ID":"EEC32","Name":"صمد ستور","District_ID":"Salalah al Jadida","Gov_ID":"Dhofar Governorate","Wlyt_ID":"Salalah","Road_ID":"104187","Latitude":17.017310259999999,"Longitude":54.08363885,"GlobalID":"{E576B67D-3914-4AE5-AAA6-EF60E6D4BCA5}"}},{"type":"Feature","id":33,"geometry":{"type":"Point","coordinates":[189503.77489999961,1883818.3532999996]},"properties":{"OBJECTID":33,"Asset_ID":"EEC33","Name":"اصلاح الاجهزة الالكترونية","District_ID":"Salalah al Jadida","Gov_ID":"Dhofar Governorate","Wlyt_ID":"Salalah","Road_ID":"104272","Latitude":17.01762076,"Longitude":54.083765980000003,"GlobalID":"{0E032806-1041-4021-A7E8-44998D89A4B9}"}},{"type":"Feature","id":34,"geometry":{"type":"Point","coordinates":[189209.48419999983,1883756.1305]},"properties":{"OBJECTID":34,"Asset_ID":"EEC34","Name":"بيع برامج و مستلزمات الحاسب الآلي","District_ID":"Salalah al Jadida","Gov_ID":"Dhofar Governorate","Wlyt_ID":"Salalah","Road_ID":"104187","Latitude":17.017019399999999,"Longitude":54.08101327,"GlobalID":"{34D581EA-9D31-4425-9E55-8F76060AAD6E}"}},{"type":"Feature","id":35,"geometry":{"type":"Point","coordinates":[189112.07870000042,1883735.8505000006]},"properties":{"OBJECTID":35,"Asset_ID":"EEC35","Name":"بيع و صيانة أجهزة البث التلفزيوني و الأجهزة المنزلية","District_ID":"Salalah al Jadida","Gov_ID":"Dhofar Governorate","Wlyt_ID":"Salalah","Road_ID":"104187","Latitude":17.01682319,"Longitude":54.08010213,"GlobalID":"{06ED480C-08E6-423D-98F7-FEE97C42B32E}"}},{"type":"Feature","id":36,"geometry":{"type":"Point","coordinates":[189699.81500000041,1883800.8790000007]},"properties":{"OBJECTID":36,"Asset_ID":"EEC36","Name":"dot net","District_ID":"Salalah al Jadida","Gov_ID":"Dhofar Governorate","Wlyt_ID":"Salalah","Road_ID":"104187","Latitude":17.01752231,"Longitude":54.085607420000002,"GlobalID":"{D0255AF3-5DEA-4CA4-929D-5E1DD4A90AEA}"}},{"type":"Feature","id":37,"geometry":{"type":"Point","coordinates":[189706.49810000043,1883802.0313000008]},"properties":{"OBJECTID":37,"Asset_ID":"EEC37","Name":"شركة التقنية الذكية السريعة","District_ID":"Salalah al Jadida","Gov_ID":"Dhofar Governorate","Wlyt_ID":"Salalah","Road_ID":"104187","Latitude":17.017533610000001,"Longitude":54.085669969999998,"GlobalID":"{509C4AFF-D1C1-41CA-A253-0DCDFD35628B}"}},{"type":"Feature","id":38,"geometry":{"type":"Point","coordinates":[189715.94680000003,1883804.5662999991]},"properties":{"OBJECTID":38,"Asset_ID":"EEC38","Name":"اصلاح و صيانة الأجهزة الالكترونية","District_ID":"Salalah al Jadida","Gov_ID":"Dhofar Governorate","Wlyt_ID":"Salalah","Road_ID":"104187","Latitude":17.017557759999999,"Longitude":54.08575828,"GlobalID":"{07C6FD2E-D1D3-4AC6-A904-3FB74A3AB6B1}"}},{"type":"Feature","id":39,"geometry":{"type":"Point","coordinates":[189747.51910000015,1883842.8967000004]},"properties":{"OBJECTID":39,"Asset_ID":"EEC39","Name":"البيع بالجملة للحواسب (الكمبيوتر) و لوازمها","District_ID":"Salalah al Jadida","Gov_ID":"Dhofar Governorate","Wlyt_ID":"Salalah","Road_ID":"104187","Latitude":17.017875119999999,"Longitude":54.086049680000002,"GlobalID":"{117C3C5C-05FB-4D5E-A36F-0BDE62F06B12}"}},{"type":"Feature","id":40,"geometry":{"type":"Point","coordinates":[189772.7762000002,1883806.6109999996]},"properties":{"OBJECTID":40,"Asset_ID":"EEC40","Name":"بيع برامج و مستلزمات الحاسب الألي","District_ID":"Salalah al Jadida","Gov_ID":"Dhofar Governorate","Wlyt_ID":"Salalah","Road_ID":"104187","Latitude":17.017589739999998,"Longitude":54.086283369999997,"GlobalID":"{B63D9893-CC0B-484F-953C-568782C8DABE}"}},{"type":"Feature","id":41,"geometry":{"type":"Point","coordinates":[189774.79260000028,1883807.3024000004]},"properties":{"OBJECTID":41,"Asset_ID":"EEC41","Name":"بيع و اصلاح الاجهزة الالكترونية","District_ID":"Salalah al Jadida","Gov_ID":"Dhofar Governorate","Wlyt_ID":"Salalah","Road_ID":"104187","Latitude":17.01759625,"Longitude":54.086302189999998,"GlobalID":"{7F43A0B4-B17A-4730-AE61-1BB5C0806795}"}},{"type":"Feature","id":42,"geometry":{"type":"Point","coordinates":[189777.44290000014,1883807.8784999996]},"properties":{"OBJECTID":42,"Asset_ID":"EEC42","Name":"الهواتف و الهواتف النقالةو لوازمها","District_ID":"Salalah al Jadida","Gov_ID":"Dhofar Governorate","Wlyt_ID":"Salalah","Road_ID":"104187","Latitude":17.017601809999999,"Longitude":54.086326980000003,"GlobalID":"{D056D9A6-3638-447A-BC96-B71958E90781}"}},{"type":"Feature","id":43,"geometry":{"type":"Point","coordinates":[187825.88889999967,1883791.9060999993]},"properties":{"OBJECTID":43,"Asset_ID":"EEC43","Name":"الملاهي و ألعاب التسلية","District_ID":"al Wadi","Gov_ID":"Dhofar Governorate","Wlyt_ID":"Salalah","Road_ID":"104343","Latitude":17.017155559999999,"Longitude":54.068025679999998,"GlobalID":"{65AF6CE9-BB36-462F-AD01-BB2593F42E1B}"}},{"type":"Feature","id":44,"geometry":{"type":"Point","coordinates":[187656.56060000043,1883733.5746999998]},"properties":{"OBJECTID":44,"Asset_ID":"EEC44","Name":"بيع الهواتف النقالة و مستلزماتها","District_ID":"al Wadi","Gov_ID":"Dhofar Governorate","Wlyt_ID":"Salalah","Road_ID":"104343","Latitude":17.016606039999999,"Longitude":54.066445049999999,"GlobalID":"{6F3FC677-7039-4697-9921-D9BF6E03CCDD}"}},{"type":"Feature","id":45,"geometry":{"type":"Point","coordinates":[187608.72690000013,1883720.1579999998]},"properties":{"OBJECTID":45,"Asset_ID":"EEC45","Name":"بيع الأجهزة المنزلية","District_ID":"al Wadi","Gov_ID":"Dhofar Governorate","Wlyt_ID":"Salalah","Road_ID":"104343","Latitude":17.016478450000001,"Longitude":54.065998110000002,"GlobalID":"{01AF827E-7E1B-4CE0-BBEA-F47C51782CB3}"}},{"type":"Feature","id":46,"geometry":{"type":"Point","coordinates":[187587.33779999986,1883711.2134000007]},"properties":{"OBJECTID":46,"Asset_ID":"EEC46","Name":"اصلاح و صيانة الاجهزة الالكترونية","District_ID":"al Wadi","Gov_ID":"Dhofar Governorate","Wlyt_ID":"Salalah","Road_ID":"104343","Latitude":17.0163948,"Longitude":54.06579867,"GlobalID":"{4EE15732-F1B0-4A20-8708-0115817E05C3}"}},{"type":"Feature","id":47,"geometry":{"type":"Point","coordinates":[187516.75389999989,1883725.9912999999]},"properties":{"OBJECTID":47,"Asset_ID":"EEC47","Name":"اصلاح الاجهزة الالكترونية","District_ID":"al Wadi","Gov_ID":"Dhofar Governorate","Wlyt_ID":"Salalah","Road_ID":"104343","Latitude":17.016518649999998,"Longitude":54.065134299999997,"GlobalID":"{48B82F29-2A21-462B-AF27-5CE6D9C45646}"}},{"type":"Feature","id":48,"geometry":{"type":"Point","coordinates":[189814.37650000025,1883809.4931000005]},"properties":{"OBJECTID":48,"Asset_ID":"EEC48","Name":"اصلاح و صيانة الهواتف النقالة","District_ID":"Salalah al Jadida","Gov_ID":"Dhofar Governorate","Wlyt_ID":"Salalah","Road_ID":"104187","Latitude":17.017663240000001,"Longitude":54.086671109999997,"GlobalID":"{7C9B429A-E9C5-4E9C-86BC-B0CC99659145}"}},{"type":"Feature","id":49,"geometry":{"type":"Point","coordinates":[189732.53509999998,1883798.4647000004]},"properties":{"OBJECTID":49,"Asset_ID":"EEC49","Name":"بوشنكي","District_ID":"Salalah al Jadida","Gov_ID":"Dhofar Governorate","Wlyt_ID":"Salalah","Road_ID":"104187","Latitude":17.017498830000001,"Longitude":54.08590865,"GlobalID":"{FBF58C2F-78E1-4B4C-87EF-B4E63FF7B109}"}},{"type":"Feature","id":50,"geometry":{"type":"Point","coordinates":[189769.17389999982,1883806.9583999999]},"properties":{"OBJECTID":50,"Asset_ID":"EEC50","Name":"بيع و اصلاح و صيانة الهواتف النقالة","District_ID":"Salalah al Jadida","Gov_ID":"Dhofar Governorate","Wlyt_ID":"Salalah","Road_ID":"104187","Latitude":17.017592390000001,"Longitude":54.086249520000003,"GlobalID":"{A49AAF06-762B-4E40-A226-976571846DEB}"}},{"type":"Feature","id":51,"geometry":{"type":"Point","coordinates":[189861.86180000007,1883351.2838000003]},"properties":{"OBJECTID":51,"Asset_ID":"EEC51","Name":"جوال صلالة","District_ID":"Salalah al Gharbiyya","Gov_ID":"Dhofar Governorate","Wlyt_ID":"Salalah","Road_ID":"103812","Latitude":17.01347075,"Longitude":54.087184880000002,"GlobalID":"{23719F65-04C1-4EFD-AA74-3D3A5BB40DD4}"}},{"type":"Feature","id":52,"geometry":{"type":"Point","coordinates":[187432.55009999964,1882604.2760000005]},"properties":{"OBJECTID":52,"Asset_ID":"EEC52","Name":"satellit ellite television equipment sale","District_ID":"al Wadi","Gov_ID":"Dhofar Governorate","Wlyt_ID":"Salalah","Road_ID":"103812","Latitude":17.006380839999998,"Longitude":54.064502109999999,"GlobalID":"{F92262A5-A3D3-4667-B2AE-E43E6E175FD5}"}},{"type":"Feature","id":53,"geometry":{"type":"Point","coordinates":[189584.92540000007,1883976.8192999996]},"properties":{"OBJECTID":53,"Asset_ID":"EEC53","Name":"السفير العربي","District_ID":"Salalah al Jadida","Gov_ID":"Dhofar Governorate","Wlyt_ID":"Salalah","Road_ID":"104189","Latitude":17.019062269999999,"Longitude":54.084505280000002,"GlobalID":"{E7D96CDE-4824-4129-A13E-8498207D4B65}"}},{"type":"Feature","id":54,"geometry":{"type":"Point","coordinates":[189583.20280000009,1884011.7649000008]},"properties":{"OBJECTID":54,"Asset_ID":"EEC54","Name":"اوكسجين","District_ID":"Salalah al Jadida","Gov_ID":"Dhofar Governorate","Wlyt_ID":"Salalah","Road_ID":"104189","Latitude":17.019377519999999,"Longitude":54.08448422,"GlobalID":"{E4A8D04B-4A90-4F8D-9DB6-147C0DEF8C94}"}},{"type":"Feature","id":55,"geometry":{"type":"Point","coordinates":[189603.87480000034,1884129.2756999992]},"properties":{"OBJECTID":55,"Asset_ID":"EEC55","Name":"اصلاح و صيانة الأجهزة الالكترونية","District_ID":"Salalah al Jadida","Gov_ID":"Dhofar Governorate","Wlyt_ID":"Salalah","Road_ID":"104189","Latitude":17.020441160000001,"Longitude":54.084661760000003,"GlobalID":"{E31B0E53-CAC6-4381-9A3B-6E41675A0537}"}},{"type":"Feature","id":56,"geometry":{"type":"Point","coordinates":[189337.35300000012,1883770.0987]},"properties":{"OBJECTID":56,"Asset_ID":"EEC56","Name":"الميرا لألعاب التسلية","District_ID":"Salalah al Jadida","Gov_ID":"Dhofar Governorate","Wlyt_ID":"Salalah","Road_ID":"104225","Latitude":17.017162720000002,"Longitude":54.082211139999998,"GlobalID":"{1FD4EDAA-7654-47BD-B0F7-06F6B854821B}"}},{"type":"Feature","id":57,"geometry":{"type":"Point","coordinates":[189157.08770000003,1883851.4333999995]},"properties":{"OBJECTID":57,"Asset_ID":"EEC57","Name":"بيع اجهزة البث التلفزيوني","District_ID":"Salalah al Jadida","Gov_ID":"Dhofar Governorate","Wlyt_ID":"Salalah","Road_ID":"104210","Latitude":17.017872709999999,"Longitude":54.080508270000003,"GlobalID":"{0616C686-F9DC-47B3-B7B1-9AF61A471734}"}},{"type":"Feature","id":58,"geometry":{"type":"Point","coordinates":[189154.46270000003,1883673.4650999997]},"properties":{"OBJECTID":58,"Asset_ID":"EEC58","Name":"Alraadcom","District_ID":"Salalah al Jadida","Gov_ID":"Dhofar Governorate","Wlyt_ID":"Salalah","Road_ID":"104210","Latitude":17.016265700000002,"Longitude":54.080508569999999,"GlobalID":"{3F351B37-8E0D-49AE-9298-419650FF44E5}"}},{"type":"Feature","id":59,"geometry":{"type":"Point","coordinates":[189172.83789999969,1883593.4019000009]},"properties":{"OBJECTID":59,"Asset_ID":"EEC59","Name":"مقهى الغبيراء اللانترنت و اصلاح و صيانة الحاسوب و المعدات الطرفية للحاسوب","District_ID":"Salalah al Jadida","Gov_ID":"Dhofar Governorate","Wlyt_ID":"Salalah","Road_ID":"104210","Latitude":17.01554539,"Longitude":54.080692200000001,"GlobalID":"{C3FFA7A6-1C57-4B86-A20A-609AA502B0F2}"}},{"type":"Feature","id":60,"geometry":{"type":"Point","coordinates":[189762.40060000028,1883804.9119000006]},"properties":{"OBJECTID":60,"Asset_ID":"EEC60","Name":"Desert Jewel","District_ID":"Salalah al Jadida","Gov_ID":"2","Wlyt_ID":"Salalah","Road_ID":"104187","Latitude":17.01757301,"Longitude":54.086186249999997,"GlobalID":"{0E9AA939-97DD-4894-A078-637E57321718}"}},{"type":"Feature","id":61,"geometry":{"type":"Point","coordinates":[187817.18080000021,1883789.0106000006]},"properties":{"OBJECTID":61,"Asset_ID":"EEC61","Name":"اصلاح الأجهزة الالكترونية","District_ID":"al Wadi","Gov_ID":"2","Wlyt_ID":"Salalah","Road_ID":"104343","Latitude":17.017128240000002,"Longitude":54.067944369999999,"GlobalID":"{19D14F68-88B1-491C-A8B8-9045B01790B7}"}},{"type":"Feature","id":62,"geometry":{"type":"Point","coordinates":[197565.07239999995,1884194.8960999995]},"properties":{"OBJECTID":62,"Asset_ID":"EEC62","Name":"Mobile Accessories Store","District_ID":"Dahariz al Shamaliyya","Gov_ID":"2","Wlyt_ID":"Salalah","Road_ID":"100010","Latitude":17.02209131,"Longitude":54.15935915,"GlobalID":"{453FBB75-E05A-4A9E-87A3-5F8555862068}"}},{"type":"Feature","id":63,"geometry":{"type":"Point","coordinates":[197571.86959999986,1884195.6729000006]},"properties":{"OBJECTID":63,"Asset_ID":"EEC63","Name":"اصلاح و صيانة الاجهزة الالكترونية","District_ID":"Dahariz al Shamaliyya","Gov_ID":"2","Wlyt_ID":"Salalah","Road_ID":"100010","Latitude":17.022099220000001,"Longitude":54.159422829999997,"GlobalID":"{FBF50CE3-5AAB-46F4-8BEA-BEEC3C0BB68A}"}},{"type":"Feature","id":64,"geometry":{"type":"Point","coordinates":[197507.26040000003,1884174.9967999998]},"properties":{"OBJECTID":64,"Asset_ID":"EEC64","Name":"متجر أجهزة إلكترونية","District_ID":"Dahariz al Shamaliyya","Gov_ID":"2","Wlyt_ID":"Salalah","Road_ID":"100022","Latitude":17.021909090000001,"Longitude":54.158835209999999,"GlobalID":"{7324D0C1-8391-449A-9CD6-C9E6100D6867}"}},{"type":"Feature","id":65,"geometry":{"type":"Point","coordinates":[197421.26290000044,1884180.2335999999]},"properties":{"OBJECTID":65,"Asset_ID":"EEC65","Name":"Mobile Servicing senter","District_ID":"Dahariz al Shamaliyya","Gov_ID":"2","Wlyt_ID":"Salalah","Road_ID":"100010","Latitude":17.021940069999999,"Longitude":54.158011620000003,"GlobalID":"{42FE41CA-0EC5-41BD-874C-05064F65367F}"}},{"type":"Feature","id":66,"geometry":{"type":"Point","coordinates":[197273.01130000036,1884181.4269999992]},"properties":{"OBJECTID":66,"Asset_ID":"EEC66","Name":"اصلاح و صيانة الاجهزه الالكترونية","District_ID":"Dahariz al Shamaliyya","Gov_ID":"2","Wlyt_ID":"Salalah","Road_ID":"100007","Latitude":17.021934120000001,"Longitude":54.156601530000003,"GlobalID":"{7153C792-3D55-4D13-AC4E-436C1835487F}"}},{"type":"Feature","id":67,"geometry":{"type":"Point","coordinates":[197265.31859999988,1884272.5876000002]},"properties":{"OBJECTID":67,"Asset_ID":"EEC67","Name":"اصلاح الساعات و تغيير البطاريات","District_ID":"Dahariz al Shamaliyya","Gov_ID":"2","Wlyt_ID":"Salalah","Road_ID":"100007","Latitude":17.02275341,"Longitude":54.15653562,"GlobalID":"{C53C0691-EA95-41C3-9275-66702F15A7B2}"}},{"type":"Feature","id":68,"geometry":{"type":"Point","coordinates":[189664.29069999978,1883052.3182999995]},"properties":{"OBJECTID":68,"Asset_ID":"EEC70","Name":"صيانة و اصلاح الاجهزة الالكترونية","District_ID":"Salalah al Gharbiyya","Gov_ID":"2","Wlyt_ID":"Salalah","Road_ID":"104480","Latitude":17.010726760000001,"Longitude":54.085379240000002,"GlobalID":"{803DA73D-F193-429C-9190-5C6F91B15225}"}},{"type":"Feature","id":69,"geometry":{"type":"Point","coordinates":[189735.75499999989,1883265.2095999997]},"properties":{"OBJECTID":69,"Asset_ID":"EEC71","Name":"بيع و اصلاح الاجهزة الالكترونية","District_ID":"Salalah al Gharbiyya","Gov_ID":"2","Wlyt_ID":"Salalah","Road_ID":"104561","Latitude":17.012658309999999,"Longitude":54.086020040000001,"GlobalID":"{2DE97287-CA74-4D02-9644-00E36872DD87}"}},{"type":"Feature","id":70,"geometry":{"type":"Point","coordinates":[189423.99590000045,1882993.3361000009]},"properties":{"OBJECTID":70,"Asset_ID":"EEC72","Name":"محلات الرصيف للتجارة و تصليح الاجهزة الالكترونية","District_ID":"Salalah al Gharbiyya","Gov_ID":"2","Wlyt_ID":"Salalah","Road_ID":"103824","Latitude":17.010161960000001,"Longitude":54.083132810000002,"GlobalID":"{F0BCECD5-B183-47C6-B113-0E801F62E359}"}},{"type":"Feature","id":71,"geometry":{"type":"Point","coordinates":[189417.69620000012,1882992.3104999997]},"properties":{"OBJECTID":71,"Asset_ID":"EEC73","Name":"اصلاح و صيانة الاجهزة الالكترونية","District_ID":"Salalah al Gharbiyya","Gov_ID":"2","Wlyt_ID":"Salalah","Road_ID":"103824","Latitude":17.01015185,"Longitude":54.083073839999997,"GlobalID":"{CAE0CC00-B6B7-46FC-8481-7C9CEE7D2DCE}"}},{"type":"Feature","id":72,"geometry":{"type":"Point","coordinates":[189403.19240000006,1883016.3370999992]},"properties":{"OBJECTID":72,"Asset_ID":"EEC74","Name":"النجم الساطع للالكترونيات","District_ID":"Salalah al Gharbiyya","Gov_ID":"2","Wlyt_ID":"Salalah","Road_ID":"103824","Latitude":17.010366810000001,"Longitude":54.082934389999998,"GlobalID":"{08FB5718-8529-4323-BE0F-E1262BEC70AF}"}},{"type":"Feature","id":73,"geometry":{"type":"Point","coordinates":[189390.88609999977,1883013.8465]},"properties":{"OBJECTID":73,"Asset_ID":"EEC75","Name":"اصلاح و صيانة الاجهزة الالكترونية","District_ID":"Salalah al Gharbiyya","Gov_ID":"2","Wlyt_ID":"Salalah","Road_ID":"103824","Latitude":17.01034267,"Longitude":54.082819270000002,"GlobalID":"{54E39752-AA69-4AAF-B2EA-BBADD4ADBE34}"}},{"type":"Feature","id":74,"geometry":{"type":"Point","coordinates":[189434.83710000012,1882999.6357000005]},"properties":{"OBJECTID":74,"Asset_ID":"EEC76","Name":"اصلاح و صيتنة الاجهزه الالكترونية","District_ID":"Salalah al Gharbiyya","Gov_ID":"2","Wlyt_ID":"Salalah","Road_ID":"103824","Latitude":17.010220289999999,"Longitude":54.083233649999997,"GlobalID":"{7D269A2F-2516-4928-9E5C-06FBCF2FAB72}"}},{"type":"Feature","id":75,"geometry":{"type":"Point","coordinates":[189438.93919999991,1883000.6612]},"properties":{"OBJECTID":75,"Asset_ID":"EEC77","Name":"بيع الاجهزة المنزلية","District_ID":"Salalah al Gharbiyya","Gov_ID":"2","Wlyt_ID":"Salalah","Road_ID":"103824","Latitude":17.010230100000001,"Longitude":54.08327199,"GlobalID":"{9D39AC5E-B026-4C9A-8DA0-B6462D0E3D2C}"}},{"type":"Feature","id":76,"geometry":{"type":"Point","coordinates":[197512.65280000027,1884142.8568999991]},"properties":{"OBJECTID":76,"Asset_ID":"EEC76","Name":"اصلاح الاجهزه الالكترونية","District_ID":"Dahariz al Shamaliyya","Gov_ID":"2","Wlyt_ID":"Salalah","Road_ID":"100022","Latitude":17.021619619999999,"Longitude":54.158890190000001,"GlobalID":"{EA3E8D4E-8C13-418D-8CC0-A889393007B4}"}},{"type":"Feature","id":77,"geometry":{"type":"Point","coordinates":[197539.62210000027,1884126.9240000006]},"properties":{"OBJECTID":77,"Asset_ID":"EEC79","Name":"بيع و صيانة الاجهزه الالكترونية","District_ID":"Dahariz al Shamaliyya","Gov_ID":"2","Wlyt_ID":"Salalah","Road_ID":"100022","Latitude":17.021474300000001,"Longitude":54.159129589999999,"GlobalID":"{B6B8880A-EF96-4AB4-AB76-EC578C3D0070}"}},{"type":"Feature","id":78,"geometry":{"type":"Point","coordinates":[197515.0334999999,1884112.8878000006]},"properties":{"OBJECTID":78,"Asset_ID":"EEC78","Name":"بيع الادوات الكهربائية و تصليحها","District_ID":"Dahariz al Shamaliyya","Gov_ID":"2","Wlyt_ID":"Salalah","Road_ID":"100022","Latitude":17.021349359999999,"Longitude":54.158916619999999,"GlobalID":"{1967FCE8-E7CA-408E-96CB-82A93B58EEAF}"}},{"type":"Feature","id":79,"geometry":{"type":"Point","coordinates":[197550.60989999957,1884046.3043000009]},"properties":{"OBJECTID":79,"Asset_ID":"EEC81","Name":"اصلاح الاجهزه الالكترونية","District_ID":"Dahariz al Shamaliyya","Gov_ID":"2","Wlyt_ID":"Salalah","Road_ID":"100022","Latitude":17.020747879999998,"Longitude":54.159243689999997,"GlobalID":"{C59C244A-4765-4E7E-B2E0-ECB7153DA509}"}},{"type":"Feature","id":80,"geometry":{"type":"Point","coordinates":[197552.39829999954,1884029.8512999993]},"properties":{"OBJECTID":80,"Asset_ID":"EEC82","Name":"اصلاح الاجهزه الالكترونية","District_ID":"Dahariz al Shamaliyya","Gov_ID":"2","Wlyt_ID":"Salalah","Road_ID":"100022","Latitude":17.020599570000002,"Longitude":54.15926271,"GlobalID":"{D3656633-4D8D-4C51-BFF1-AB0F38CB92F1}"}},{"type":"Feature","id":81,"geometry":{"type":"Point","coordinates":[197861.92949999962,1884056.9915999994]},"properties":{"OBJECTID":81,"Asset_ID":"EEC83","Name":"بيع و صيانة الاجهزه الالكترونية ","District_ID":"Dahariz al Shamaliyya","Gov_ID":"2","Wlyt_ID":"Salalah","Road_ID":"100002","Latitude":17.02088517,"Longitude":54.16216369,"GlobalID":"{B6DE3CD6-23D0-4674-9D8E-6331561D7ED7}"}},{"type":"Feature","id":82,"geometry":{"type":"Point","coordinates":[197376.34420000017,1883900.4907000009]},"properties":{"OBJECTID":82,"Asset_ID":"EEC84","Name":"بيع الهواتف النقالة و اصلاحها","District_ID":"Dahariz al Shamaliyya","Gov_ID":"2","Wlyt_ID":"Salalah","Road_ID":"100007","Latitude":17.019408559999999,"Longitude":54.157628250000002,"GlobalID":"{91C0EC37-F874-4635-A483-EC790E7ECA79}"}},{"type":"Feature","id":83,"geometry":{"type":"Point","coordinates":[197698.20519999973,1884212.2603999991]},"properties":{"OBJECTID":83,"Asset_ID":"EEC83","Name":"بيع الاجهزه الالكترونية","District_ID":"Dahariz al Shamaliyya","Gov_ID":"2","Wlyt_ID":"Salalah","Road_ID":"100010","Latitude":17.022285020000002,"Longitude":54.160607390000003,"GlobalID":"{3D3A85AE-5961-450C-BB38-27DB786E26B1}"}},{"type":"Feature","id":84,"geometry":{"type":"Point","coordinates":[184551.11730000004,1885572.6842]},"properties":{"OBJECTID":84,"Asset_ID":"EEC98","Name":"اصلاح و صيانة الهواتف","District_ID":"New Industrial Area","Gov_ID":"2","Wlyt_ID":"Salalah","Road_ID":"105234","Latitude":17.032785860000001,"Longitude":54.037045200000001,"GlobalID":"{496BDCB5-3033-4919-864E-B8C378993478}"}},{"type":"Feature","id":85,"geometry":{"type":"Point","coordinates":[192960.20440000016,1884323.2337999996]},"properties":{"OBJECTID":85,"Asset_ID":"EEC85","Name":"اصلاح و صيانة الاجهزة الالكترونية","District_ID":"al Huseela","Gov_ID":"2","Wlyt_ID":"Salalah","Road_ID":"103816","Latitude":17.0226428,"Longitude":54.116155290000002,"GlobalID":"{8E2CDC31-4D2F-453D-B91A-4FE684834746}"}},{"type":"Feature","id":86,"geometry":{"type":"Point","coordinates":[192960.54360000044,1884318.1453000009]},"properties":{"OBJECTID":86,"Asset_ID":"EEC86","Name":"اصلاح و صيانة الاجهزة الالكترونية","District_ID":"al Huseela","Gov_ID":"2","Wlyt_ID":"Salalah","Road_ID":"103816","Latitude":17.0225969,"Longitude":54.116159170000003,"GlobalID":"{3F983B2E-1036-45AE-BDD6-985316125F97}"}},{"type":"Feature","id":87,"geometry":{"type":"Point","coordinates":[193015.4561999999,1884214.0065000001]},"properties":{"OBJECTID":87,"Asset_ID":"EEC87","Name":"اصلاح الاجهزة الالكترونية","District_ID":"al Huseela","Gov_ID":"2","Wlyt_ID":"Salalah","Road_ID":"103816","Latitude":17.021658009999999,"Longitude":54.116647520000001,"GlobalID":"{2CE4A3F8-DC68-4296-BB49-A06D816ED566}"}},{"type":"Feature","id":88,"geometry":{"type":"Point","coordinates":[193012.6771999998,1884227.0678000003]},"properties":{"OBJECTID":88,"Asset_ID":"EEC88","Name":"تصليح اجهزة الكترونية","District_ID":"al Huseela","Gov_ID":"2","Wlyt_ID":"Salalah","Road_ID":"103816","Latitude":17.021775559999998,"Longitude":54.116619630000002,"GlobalID":"{4D6FBF45-DD76-4E4B-AF39-60345C58D6F4}"}},{"type":"Feature","id":89,"geometry":{"type":"Point","coordinates":[193011.70449999999,1884232.2089000009]},"properties":{"OBJECTID":89,"Asset_ID":"EEC89","Name":"اصلاح و صيانة الاجهزة الالكترونية","District_ID":"al Huseela","Gov_ID":"2","Wlyt_ID":"Salalah","Road_ID":"103816","Latitude":17.021821840000001,"Longitude":54.116609789999998,"GlobalID":"{A54E10BD-F86E-4CE1-9021-04BD17661399}"}},{"type":"Feature","id":90,"geometry":{"type":"Point","coordinates":[193011.00980000012,1884234.8489999995]},"properties":{"OBJECTID":90,"Asset_ID":"EEC90","Name":"اصلاح و صيانة الاجهزة الالكترونية","District_ID":"al Huseela","Gov_ID":"2","Wlyt_ID":"Salalah","Road_ID":"103816","Latitude":17.021845590000002,"Longitude":54.116602909999997,"GlobalID":"{132DF534-DB33-4A92-8931-B91B4113A7FA}"}},{"type":"Feature","id":91,"geometry":{"type":"Point","coordinates":[193031.88389999978,1884216.2248999998]},"properties":{"OBJECTID":91,"Asset_ID":"EEC91","Name":"اصلاح و صيانة الاجهزة الالكترونية","District_ID":"al Huseela","Gov_ID":"2","Wlyt_ID":"Salalah","Road_ID":"103816","Latitude":17.02167283,"Longitude":54.116807700000003,"GlobalID":"{27FEBAE3-570D-4B9F-8DB6-89BAD041ED66}"}},{"type":"Feature","id":92,"geometry":{"type":"Point","coordinates":[193035.91339999996,1884213.4459000006]},"properties":{"OBJECTID":92,"Asset_ID":"EEC92","Name":"اصلاح و صيانة الاجهزة الالكترونية","District_ID":"al Huseela","Gov_ID":"2","Wlyt_ID":"Salalah","Road_ID":"103816","Latitude":17.021648280000001,"Longitude":54.116845900000001,"GlobalID":"{87493993-4EE9-46C5-A3AC-28F3D9DFC0C3}"}},{"type":"Feature","id":93,"geometry":{"type":"Point","coordinates":[193020.95579999965,1884183.7067000009]},"properties":{"OBJECTID":93,"Asset_ID":"EEC93","Name":"اصلاح و صيانة الاجهزة الالكترونية","District_ID":"al Huseela","Gov_ID":"2","Wlyt_ID":"Salalah","Road_ID":"103816","Latitude":17.021385129999999,"Longitude":54.116698649999996,"GlobalID":"{5626727A-032A-459F-A599-61F797857D02}"}},{"type":"Feature","id":94,"geometry":{"type":"Point","coordinates":[193023.56109999958,1884172.6340999994]},"properties":{"OBJECTID":94,"Asset_ID":"EEC94","Name":"تصليح اجهزة كهربائية","District_ID":"al Huseela","Gov_ID":"2","Wlyt_ID":"Salalah","Road_ID":"103816","Latitude":17.021285509999998,"Longitude":54.11672463,"GlobalID":"{0045E623-CF3A-4671-9186-F5909AEE7184}"}},{"type":"Feature","id":95,"geometry":{"type":"Point","coordinates":[193027.25189999957,1884150.2719000001]},"properties":{"OBJECTID":95,"Asset_ID":"EEC95","Name":"اصلاح و صيانة الاجهزة الالكترونية و كهربائية","District_ID":"al Huseela","Gov_ID":"2","Wlyt_ID":"Salalah","Road_ID":"103816","Latitude":17.021084120000001,"Longitude":54.116762360000003,"GlobalID":"{111AC74A-CB71-4BB7-8D99-172DF81FACD0}"}},{"type":"Feature","id":96,"geometry":{"type":"Point","coordinates":[193077.8543999996,1884135.8362000007]},"properties":{"OBJECTID":96,"Asset_ID":"EEC115","Name":"اصلاح الاجهزة الالكترونية و الكهربائية","District_ID":"al Huseela","Gov_ID":"2","Wlyt_ID":"Salalah","Road_ID":"103981","Latitude":17.0209653,"Longitude":54.117259349999998,"GlobalID":"{D64D1AA2-71EF-4763-9D16-0CA8F3478F3B}"}},{"type":"Feature","id":97,"geometry":{"type":"Point","coordinates":[193943.90309999976,1883893.5856999997]},"properties":{"OBJECTID":97,"Asset_ID":"EEC116","Name":"اصلاح اجهزة الحاسوب و المعدات الطرفية للحاسوب ","District_ID":"al Huseela","Gov_ID":"2","Wlyt_ID":"Salalah","Road_ID":"103903","Latitude":17.018893330000001,"Longitude":54.12541959,"GlobalID":"{CEE1DD9F-23E1-4C63-9162-D8A313BEE4A8}"}},{"type":"Feature","id":98,"geometry":{"type":"Point","coordinates":[193888.32320000045,1883874.2630000003]},"properties":{"OBJECTID":98,"Asset_ID":"EEC117","Name":"اصلاح و صيانة الاجهزه الالكترونية","District_ID":"al Huseela","Gov_ID":"2","Wlyt_ID":"Salalah","Road_ID":"103824","Latitude":17.018711509999999,"Longitude":54.124900709999999,"GlobalID":"{5A312BAE-8330-47B6-B829-002E909E0736}"}},{"type":"Feature","id":99,"geometry":{"type":"Point","coordinates":[194226.37330000009,1883925.1648999993]},"properties":{"OBJECTID":99,"Asset_ID":"EEC118","Name":"العاب تسلية","District_ID":"al Huseela","Gov_ID":"2","Wlyt_ID":"Salalah","Road_ID":"103824","Latitude":17.019215890000002,"Longitude":54.12806587,"GlobalID":"{689937F4-E69F-4628-A9FD-FD2D30948C47}"}},{"type":"Feature","id":100,"geometry":{"type":"Point","coordinates":[193173.38239999954,1884339.4712000005]},"properties":{"OBJECTID":100,"Asset_ID":"EEC100","Name":"الجزيرة للألعاب التسلية","District_ID":"al Huseela","Gov_ID":"2","Wlyt_ID":"Salalah","Road_ID":"103814","Latitude":17.022836550000001,"Longitude":54.118127289999997,"GlobalID":"{99432FB0-F7F6-48D1-86E2-05FF7EA0DD72}"}},{"type":"Feature","id":101,"geometry":{"type":"Point","coordinates":[197254.84080000035,1891108.5351]},"properties":{"OBJECTID":101,"Asset_ID":"EEC120","Name":"ببع الهواتف النقالة و صيانتها","District_ID":"al Sada al Shamaliyya","Gov_ID":"2","Wlyt_ID":"Salalah","Road_ID":"100003","Latitude":17.084469049999999,"Longitude":54.155502519999999,"GlobalID":"{52E5F498-D502-4FA9-B7C7-09DFAC7623EC}"}},{"type":"Feature","id":102,"geometry":{"type":"Point","coordinates":[197619.17879999988,1890372.8811000008]},"properties":{"OBJECTID":102,"Asset_ID":"EEC121","Name":"بيع و صيانة الهواتف النقالة","District_ID":"al Sada al Shamaliyya","Gov_ID":"2","Wlyt_ID":"Salalah","Road_ID":"102603","Latitude":17.077875330000001,"Longitude":54.159023320000003,"GlobalID":"{2A6B20CE-5CA6-4077-9208-A1CCDD0497E0}"}},{"type":"Feature","id":103,"geometry":{"type":"Point","coordinates":[197654.5354000004,1890371.0269000009]},"properties":{"OBJECTID":103,"Asset_ID":"EEC123","Name":"ببع و اصلاح الاجهزة الالكترونية","District_ID":"al Sada al Shamaliyya","Gov_ID":"2","Wlyt_ID":"Salalah","Road_ID":"102472","Latitude":17.077863239999999,"Longitude":54.159355470000001,"GlobalID":"{72C10B66-933D-4C24-9E93-5C79DA3C5732}"}},{"type":"Feature","id":104,"geometry":{"type":"Point","coordinates":[197680.33779999986,1890359.0716999993]},"properties":{"OBJECTID":104,"Asset_ID":"EEC124","Name":"العاب تسلية","District_ID":"al Sada al Shamaliyya","Gov_ID":"2","Wlyt_ID":"Salalah","Road_ID":"102472","Latitude":17.0777587,"Longitude":54.159599309999997,"GlobalID":"{737668C4-84A9-4C02-A8FF-16DE5FE0BC9E}"}},{"type":"Feature","id":105,"geometry":{"type":"Point","coordinates":[197696.55099999998,1890390.2643999998]},"properties":{"OBJECTID":105,"Asset_ID":"EEC125","Name":"اصلاح و صيانة الاجهزة الالكترونية و المنزلية","District_ID":"al Sada al Shamaliyya","Gov_ID":"2","Wlyt_ID":"Salalah","Road_ID":"102472","Latitude":17.078042450000002,"Longitude":54.159747240000002,"GlobalID":"{F6E24C9A-B79D-4262-9577-0E0970749449}"}},{"type":"Feature","id":106,"geometry":{"type":"Point","coordinates":[197706.70189999975,1890393.9723000005]},"properties":{"OBJECTID":106,"Asset_ID":"EEC126","Name":"بيع و اصلاح الاجهزة الالكترونية","District_ID":"al Sada al Shamaliyya","Gov_ID":"2","Wlyt_ID":"Salalah","Road_ID":"102472","Latitude":17.078077260000001,"Longitude":54.159842019999999,"GlobalID":"{85C194DD-34BE-48E8-AB24-CA5B426F1A0A}"}},{"type":"Feature","id":107,"geometry":{"type":"Point","coordinates":[197030.22429999989,1890850.0493000001]},"properties":{"OBJECTID":107,"Asset_ID":"EEC127","Name":"اصلاح و صيانة الاجهزة الالكترونية","District_ID":"al Sada al Shamaliyya","Gov_ID":"2","Wlyt_ID":"Salalah","Road_ID":"102616","Latitude":17.082105760000001,"Longitude":54.153429439999996,"GlobalID":"{353EC85C-199F-4332-94EC-B20621129031}"}},{"type":"Feature","id":108,"geometry":{"type":"Point","coordinates":[197098.24920000043,1890771.9792999998]},"properties":{"OBJECTID":108,"Asset_ID":"EEC128","Name":"اصلاح الاجهزة الالكترونية ","District_ID":"al Sada al Shamaliyya","Gov_ID":"2","Wlyt_ID":"Salalah","Road_ID":"102616","Latitude":17.08140989,"Longitude":54.154078699999999,"GlobalID":"{0DF499E8-5DF3-47CF-9561-4EA26CF2A1C1}"}},{"type":"Feature","id":109,"geometry":{"type":"Point","coordinates":[196567.26730000041,1889633.4323999994]},"properties":{"OBJECTID":109,"Asset_ID":"EEC129","Name":"اصلاح و صيانة الاجهزة الالكترونية","District_ID":"al Sada al Shamaliyya","Gov_ID":"2","Wlyt_ID":"Salalah","Road_ID":"102500","Latitude":17.071060769999999,"Longitude":54.149250610000003,"GlobalID":"{95302EBD-86B8-4116-990E-DD114B8718FE}"}},{"type":"Feature","id":110,"geometry":{"type":"Point","coordinates":[197332.7368999999,1891946.9225999992]},"properties":{"OBJECTID":110,"Asset_ID":"EEC130","Name":"الابطال لالعاب التسلية","District_ID":"al Sada al Shamaliyya","Gov_ID":"2","Wlyt_ID":"Salalah","Road_ID":"102558","Latitude":17.092048510000001,"Longitude":54.15611887,"GlobalID":"{33AD5AF4-F359-4807-AC42-EFEC1B72B44C}"}},{"type":"Feature","id":111,"geometry":{"type":"Point","coordinates":[197306.2313000001,1891949.3598999996]},"properties":{"OBJECTID":111,"Asset_ID":"EEC131","Name":"أنشطة العاب تسلية","District_ID":"al Sada al Shamaliyya","Gov_ID":"2","Wlyt_ID":"Salalah","Road_ID":"102547","Latitude":17.092067020000002,"Longitude":54.155869709999997,"GlobalID":"{B1D48DD1-7CA6-45A8-BAAC-F732D7962D21}"}},{"type":"Feature","id":112,"geometry":{"type":"Point","coordinates":[197760.48259999976,1891190.1417999994]},"properties":{"OBJECTID":112,"Asset_ID":"EEC132","Name":"العاب تسلية","District_ID":"al Sada al Shamaliyya","Gov_ID":"2","Wlyt_ID":"Salalah","Road_ID":"102559","Latitude":17.085272400000001,"Longitude":54.160237960000003,"GlobalID":"{1C8BCCC9-51FF-4382-A63D-1C717E12D31A}"}},{"type":"Feature","id":113,"geometry":{"type":"Point","coordinates":[198510.45729999989,1892974.9980999995]},"properties":{"OBJECTID":113,"Asset_ID":"EEC133","Name":"العاب تسلية","District_ID":"Sahalnout al Shamaliyya","Gov_ID":"2","Wlyt_ID":"Salalah","Road_ID":"102658","Latitude":17.101485279999999,"Longitude":54.167034530000002,"GlobalID":"{21EB4501-3BBC-4F88-94B4-EEFA0BCD7943}"}},{"type":"Feature","id":114,"geometry":{"type":"Point","coordinates":[198629.98840000015,1893038.5949000008]},"properties":{"OBJECTID":114,"Asset_ID":"EEC134","Name":"العاب تسلية","District_ID":"Sahalnout al Shamaliyya","Gov_ID":"2","Wlyt_ID":"Salalah","Road_ID":"102913","Latitude":17.102075150000001,"Longitude":54.168148029999998,"GlobalID":"{A1E62638-553D-4CE6-B55C-B2BB0950CF3C}"}},{"type":"Feature","id":115,"geometry":{"type":"Point","coordinates":[182784.76290000044,1882934.4372000005]},"properties":{"OBJECTID":115,"Asset_ID":"EEC135","Name":"اصلاح و صيانة الاجهزه الالكترونية","District_ID":"Auqad al Shamaliyya","Gov_ID":"2","Wlyt_ID":"Salalah","Road_ID":"105791","Latitude":17.008727329999999,"Longitude":54.02084756,"GlobalID":"{CC507E7D-F740-4988-A996-0E5BFBEBC721}"}},{"type":"Feature","id":116,"geometry":{"type":"Point","coordinates":[182789.35099999979,1882984.2866999991]},"properties":{"OBJECTID":116,"Asset_ID":"EEC136","Name":"بيع الهواتف و مستلزماتها","District_ID":"Auqad al Shamaliyya","Gov_ID":"2","Wlyt_ID":"Salalah","Road_ID":"105926","Latitude":17.009177959999999,"Longitude":54.020883490000003,"GlobalID":"{233BC0F2-9E74-48FD-A446-83DECAF4CB68}"}},{"type":"Feature","id":117,"geometry":{"type":"Point","coordinates":[182802.46839999966,1883018.7557999995]},"properties":{"OBJECTID":117,"Asset_ID":"EEC137","Name":"تصليح الاجهزه الالكترونية","District_ID":"Auqad al Shamaliyya","Gov_ID":"2","Wlyt_ID":"Salalah","Road_ID":"105926","Latitude":17.009490920000001,"Longitude":54.021001640000001,"GlobalID":"{BAFAE4C3-AC95-4D50-97AF-88B87F7138B8}"}},{"type":"Feature","id":118,"geometry":{"type":"Point","coordinates":[183174.92659999989,1883068.9558000006]},"properties":{"OBJECTID":118,"Asset_ID":"EEC138","Name":"العاب تسلية","District_ID":"Auqad al Shamaliyya","Gov_ID":"2","Wlyt_ID":"Salalah","Road_ID":"105730","Latitude":17.009995249999999,"Longitude":54.024489029999998,"GlobalID":"{C1237692-D7C7-44AB-A8FB-441C15D83584}"}},{"type":"Feature","id":119,"geometry":{"type":"Point","coordinates":[182597.1046000002,1883100.9997000005]},"properties":{"OBJECTID":119,"Asset_ID":"EEC139","Name":"بيع الهواتف و مستلزماتها","District_ID":"Auqad al Shamaliyya","Gov_ID":"2","Wlyt_ID":"Salalah","Road_ID":"105777","Latitude":17.010205129999999,"Longitude":54.019063080000002,"GlobalID":"{577B4354-A202-4361-8E4C-A92D488C293B}"}},{"type":"Feature","id":120,"geometry":{"type":"Point","coordinates":[182587.8498999998,1883111.6881000008]},"properties":{"OBJECTID":120,"Asset_ID":"EEC140","Name":"بيع الهواتف و مستلزماتها","District_ID":"Auqad al Shamaliyya","Gov_ID":"2","Wlyt_ID":"Salalah","Road_ID":"105777","Latitude":17.010300340000001,"Longitude":54.018974720000003,"GlobalID":"{63ABF8E6-522A-46A7-839E-03502212F93E}"}},{"type":"Feature","id":121,"geometry":{"type":"Point","coordinates":[182463.51510000043,1883335.3311000001]},"properties":{"OBJECTID":121,"Asset_ID":"EEC141","Name":"بيع الهواتف و مستلزماتها","District_ID":"Auqad al Shamaliyya","Gov_ID":"2","Wlyt_ID":"Salalah","Road_ID":"105818","Latitude":17.012302120000001,"Longitude":54.017776179999998,"GlobalID":"{5DDF8B85-AAC6-499A-B838-FB21470D79A9}"}},{"type":"Feature","id":122,"geometry":{"type":"Point","coordinates":[181395.63640000019,1882882.8841999993]},"properties":{"OBJECTID":122,"Asset_ID":"EEC142","Name":"كوكب المشاهير العاب تسلية","District_ID":"Auqad al Shamaliyya","Gov_ID":"2","Wlyt_ID":"Salalah","Road_ID":"105566","Latitude":17.008070629999999,"Longitude":54.00782178,"GlobalID":"{77DD7B5B-B131-4278-A13F-AF83196A6386}"}},{"type":"Feature","id":123,"geometry":{"type":"Point","coordinates":[183912.07849999983,1882114.5980999991]},"properties":{"OBJECTID":123,"Asset_ID":"EEC143","Name":"بيع اجهزة البث التلفزيوني","District_ID":"Auqad al Shamaliyya","Gov_ID":"2","Wlyt_ID":"Salalah","Road_ID":"105566","Latitude":17.001481009999999,"Longitude":54.031541140000002,"GlobalID":"{0B31EEEE-6BD1-4B4E-9342-40879C714B38}"}},{"type":"Feature","id":124,"geometry":{"type":"Point","coordinates":[181755.80800000019,1883085.1651000008]},"properties":{"OBJECTID":124,"Asset_ID":"EEC144","Name":"انشطة مدن التسلية للالعاب","District_ID":"Auqad al Shamaliyya","Gov_ID":"2","Wlyt_ID":"Salalah","Road_ID":"105907","Latitude":17.009946339999999,"Longitude":54.011172000000002,"GlobalID":"{871D6474-A3BC-4A1F-B197-2EFCE7EFBDC1}"}},{"type":"Feature","id":125,"geometry":{"type":"Point","coordinates":[181742.79409999959,1883096.1767999995]},"properties":{"OBJECTID":125,"Asset_ID":"EEC145","Name":"اصلاح و صيانة الاجهزة الالكترونية","District_ID":"Auqad al Shamaliyya","Gov_ID":"2","Wlyt_ID":"Salalah","Road_ID":"105907","Latitude":17.01004395,"Longitude":54.01104832,"GlobalID":"{94C05B43-5412-4D71-BE16-4A1DC6AE8205}"}},{"type":"Feature","id":126,"geometry":{"type":"Point","coordinates":[181717.14340000041,1883119.0329]},"properties":{"OBJECTID":126,"Asset_ID":"EEC146","Name":"الصدارة الفضية لالعاب التسلية","District_ID":"Auqad al Shamaliyya","Gov_ID":"2","Wlyt_ID":"Salalah","Road_ID":"105907","Latitude":17.010246739999999,"Longitude":54.010804380000003,"GlobalID":"{FF30034A-F73B-4561-A63E-78D8CA1B10A5}"}}]
}