{
  "type" : "FeatureCollection",
  "crs" : {
    "type" : "name",
    "properties" : {
      "name" : "EPSG:32640"
    }
  },
  "features" : [{"type":"Feature","id":1,"geometry":{"type":"Point","coordinates":[201154.73589999974,1893480.0112999994]},"properties":{"OBJECTID":1,"Asset_ID":"EvH1","Name":"قاعه الأحقاف","District_ID":null,"Gov_ID":"2","Wlyt_ID":"Salalah","Road_ID":"102005","Latitude":17.106390699999999,"Longitude":54.191791440000003,"GlobalID":"{F9852915-D3EC-4300-89A9-1D5289921039}"}},{"type":"Feature","id":2,"geometry":{"type":"Point","coordinates":[202784.43450000044,1893868.0566000007]},"properties":{"OBJECTID":2,"Asset_ID":"EvH2","Name":"قاعة دار السلطان للمناسبات","District_ID":null,"Gov_ID":"2","Wlyt_ID":"Salalah","Road_ID":"101865","Latitude":17.110105950000001,"Longitude":54.207039930000001,"GlobalID":"{E870F71B-A9A5-4674-95E2-9692266C6949}"}},{"type":"Feature","id":3,"geometry":{"type":"Point","coordinates":[197120.70689999964,1885968.7619000003]},"properties":{"OBJECTID":3,"Asset_ID":"EvH3","Name":"Royal Ballroom","District_ID":"al Sada al Janubiyya","Gov_ID":"2","Wlyt_ID":"Salalah","Road_ID":"100196","Latitude":17.038048020000002,"Longitude":54.154946879999997,"GlobalID":"{BDDF8F05-5368-4BBF-8FB0-F5A5628CF1A2}"}},{"type":"Feature","id":4,"geometry":{"type":"Point","coordinates":[198918.88910000026,1884755.3366999999]},"properties":{"OBJECTID":4,"Asset_ID":"EvH4","Name":"Regency Halls","District_ID":"Dahariz al Shamaliyya","Gov_ID":"2","Wlyt_ID":"Salalah","Road_ID":"100124","Latitude":17.02758708,"Longitude":54.172044190000001,"GlobalID":"{8E718ADA-C2BC-4B56-B798-CC28144ACDBC}"}},{"type":"Feature","id":6,"geometry":{"type":"Point","coordinates":[190392.88030000031,1892111.4688000008]},"properties":{"OBJECTID":6,"Asset_ID":"EvH6","Name":"قاعة النجر للمناسبات","District_ID":null,"Gov_ID":"2","Wlyt_ID":"Salalah","Road_ID":"102263","Latitude":17.092608760000001,"Longitude":54.090948969999999,"GlobalID":"{87E04303-7441-4D49-8B05-CE91E9017203}"}},{"type":"Feature","id":7,"geometry":{"type":"Point","coordinates":[187935.48589999974,1882997.6216000002]},"properties":{"OBJECTID":7,"Asset_ID":"EvH7","Name":"مجلس الوادي","District_ID":"al Wadi","Gov_ID":"2","Wlyt_ID":"Salalah","Road_ID":"104379","Latitude":17.010075759999999,"Longitude":54.069141399999999,"GlobalID":"{DF520DE4-F569-40BF-9B3B-4893F28020FA}"}},{"type":"Feature","id":8,"geometry":{"type":"Point","coordinates":[186973.51860000007,1886537.0832000002]},"properties":{"OBJECTID":8,"Asset_ID":"EvH8","Name":"قاعة الزمردة للمناسبات والافراح","District_ID":"New Industrial Area","Gov_ID":"2","Wlyt_ID":"Salalah","Road_ID":"105210","Latitude":17.0418223,"Longitude":54.059640299999998,"GlobalID":"{A3D04833-9A98-49D5-B32B-B8D56755A024}"}},{"type":"Feature","id":9,"geometry":{"type":"Point","coordinates":[183655.85589999985,1885264.7809999995]},"properties":{"OBJECTID":9,"Asset_ID":"EvH9","Name":"قاعة اللبان","District_ID":"Auqad al Shamaliyya","Gov_ID":"2","Wlyt_ID":"Salalah","Road_ID":"105715","Latitude":17.02988362,"Longitude":54.02868831,"GlobalID":"{2A3525FF-3736-4E38-AE01-0D1CF5245291}"}},{"type":"Feature","id":10,"geometry":{"type":"Point","coordinates":[197546.08189999964,1891355.9296000004]},"properties":{"OBJECTID":10,"Asset_ID":"EvH10","Name":"قاعة النور للمناسبات","District_ID":"al Sada al Shamaliyya","Gov_ID":"2","Wlyt_ID":"Salalah","Road_ID":"102558","Latitude":17.08674096,"Longitude":54.158202609999996,"GlobalID":"{FCEB565D-F025-4232-B245-A795FCFCB208}"}},{"type":"Feature","id":11,"geometry":{"type":"Point","coordinates":[183182.29860000033,1884868.1885000002]},"properties":{"OBJECTID":11,"Asset_ID":"EvH11","Name":"قاعة قصر ظفار","District_ID":"Auqad al Shamaliyya","Gov_ID":"2","Wlyt_ID":"Salalah","Road_ID":"105681","Latitude":17.026238429999999,"Longitude":54.024301360000003,"GlobalID":"{D1CF7EAE-685E-4D09-A012-57FFB03749FA}"}},{"type":"Feature","id":12,"geometry":{"type":"Point","coordinates":[183135.35950000025,1883078.9339000005]},"properties":{"OBJECTID":12,"Asset_ID":"EvH12","Name":"قاعة ريدان","District_ID":"Auqad al Shamaliyya","Gov_ID":"2","Wlyt_ID":"Salalah","Road_ID":"105730","Latitude":17.01007989,"Longitude":54.024116370000002,"GlobalID":"{237C98BD-C6BB-4711-9B65-AAC179F914F8}"}}]
}