{
  "type" : "FeatureCollection",
  "crs" : {
    "type" : "name",
    "properties" : {
      "name" : "EPSG:32640"
    }
  },
  "features" : [{"type":"Feature","id":5,"geometry":{"type":"Point","coordinates":[190080.03870000038,1883420.2871000003]},"properties":{"OBJECTID":5,"Asset_ID":"Flr5","Name":"La Flor","District_ID":"Salalah al Gharbiyya","Gov_ID":"Dhofar Governorate","Wlyt_ID":" Salalah","Road_ID":"103812","Latitude":17.014104580000001,"Longitude":54.089228839999997,"GlobalID":"{CB42364A-7F6E-4F1F-8892-0D269C64A9A4}"}},{"type":"Feature","id":6,"geometry":{"type":"Point","coordinates":[190026.93879999965,1883403.0188999996]},"properties":{"OBJECTID":6,"Asset_ID":"Flr6","Name":"ART TOUCHES","District_ID":"Salalah al Gharbiyya","Gov_ID":"Dhofar Governorate","Wlyt_ID":" Salalah","Road_ID":"103812","Latitude":17.013941559999999,"Longitude":54.088733009999999,"GlobalID":"{4240395E-DCD2-47E8-A689-C2A4BC16B8B1}"}},{"type":"Feature","id":7,"geometry":{"type":"Point","coordinates":[189670.88870000001,1883601.7765999995]},"properties":{"OBJECTID":7,"Asset_ID":"Flr7","Name":"جوري للورد و الهدايا","District_ID":"Salalah al Jadida","Gov_ID":"Dhofar Governorate","Wlyt_ID":" Salalah","Road_ID":"104189","Latitude":17.015688040000001,"Longitude":54.085364339999998,"GlobalID":"{42225D9E-7213-48B7-85A3-15235D48C1D4}"}},{"type":"Feature","id":8,"geometry":{"type":"Point","coordinates":[186833.63119999971,1882867.9507999998]},"properties":{"OBJECTID":8,"Asset_ID":"Flr8","Name":"Twinz","District_ID":"al Wadi","Gov_ID":"Dhofar Governorate","Wlyt_ID":" Salalah","Road_ID":"105338","Latitude":17.008680009999999,"Longitude":54.058845529999999,"GlobalID":"{F4203380-9FE6-4E1D-9E37-C1281B1AE0ED}"}},{"type":"Feature","id":16,"geometry":{"type":"Point","coordinates":[188671.07249999978,1882816.8872999996]},"properties":{"OBJECTID":16,"Asset_ID":"Flr16","Name":"Rose","District_ID":"Salalah al Gharbiyya","Gov_ID":"Dhofar Governorate","Wlyt_ID":" Salalah","Road_ID":"103824","Latitude":17.008467589999999,"Longitude":54.076092930000002,"GlobalID":"{20B4C237-851C-41EB-8656-CFF5590FE680}"}},{"type":"Feature","id":17,"geometry":{"type":"Point","coordinates":[190021.06030000001,1883400.4009000007]},"properties":{"OBJECTID":17,"Asset_ID":"Flr17","Name":"Do Chocolate & Flowers دو للشوكولاة و الزهور","District_ID":"Salalah al Gharbiyya","Gov_ID":"Dhofar Governorate","Wlyt_ID":" Salalah","Road_ID":"103812","Latitude":17.013917129999999,"Longitude":54.088678209999998,"GlobalID":"{69993D32-07E6-4E5A-9BA9-EEFE640BC4D5}"}},{"type":"Feature","id":18,"geometry":{"type":"Point","coordinates":[190061.96740000043,1883413.5965]},"properties":{"OBJECTID":18,"Asset_ID":"Flr18","Name":"لمسات الفن محل بيع زهور وشوكولاة وهدايا ب قربي","District_ID":"Salalah al Gharbiyya","Gov_ID":"Dhofar Governorate","Wlyt_ID":" Salalah","Road_ID":"103812","Latitude":17.014041750000001,"Longitude":54.08906021,"GlobalID":"{F93F2359-FE6E-474B-B15C-E41DCF9066AA}"}},{"type":"Feature","id":19,"geometry":{"type":"Point","coordinates":[190183.92740000039,1883442.3312999997]},"properties":{"OBJECTID":19,"Asset_ID":"Flr19","Name":"Labelle chocolates & flowers لابيل للشوكلا و والزهور","District_ID":"Salalah al Wousta","Gov_ID":"Dhofar Governorate","Wlyt_ID":" Salalah","Road_ID":"103812","Latitude":17.014317550000001,"Longitude":54.09020057,"GlobalID":"{2B3BC151-C663-4D0D-BAA2-B0241FE56FB5}"}},{"type":"Feature","id":20,"geometry":{"type":"Point","coordinates":[182840.50690000039,1882903.5956999995]},"properties":{"OBJECTID":20,"Asset_ID":"Flr20","Name":"لابيل للشوكولاته و الزهور","District_ID":"Auqad al Shamaliyya","Gov_ID":"Dhofar Governorate","Wlyt_ID":" Salalah","Road_ID":"105791","Latitude":17.00845657,"Longitude":54.021374979999997,"GlobalID":"{4E75070E-57B7-4443-B344-D946C0B01D60}"}},{"type":"Feature","id":21,"geometry":{"type":"Point","coordinates":[183172.59960000031,1883066.4496999998]},"properties":{"OBJECTID":21,"Asset_ID":"Flr21","Name":"لامور للورد و الشوكولاتة","District_ID":"Auqad al Shamaliyya","Gov_ID":"Dhofar Governorate","Wlyt_ID":" Salalah","Road_ID":"105730","Latitude":17.009972309999998,"Longitude":54.024467549999997,"GlobalID":"{BCF45C6D-47AB-47D2-A016-C55620CEFF04}"}},{"type":"Feature","id":22,"geometry":{"type":"Point","coordinates":[181763.36830000021,1883153.2883000001]},"properties":{"OBJECTID":22,"Asset_ID":"Flr22","Name":"جولدن بارتي","District_ID":"Auqad al Shamaliyya","Gov_ID":"Dhofar Governorate","Wlyt_ID":" Salalah","Road_ID":"105907","Latitude":17.01056234,"Longitude":54.011233169999997,"GlobalID":"{CC6F075A-7F4C-480A-8F86-984DB1BFEEE6}"}},{"type":"Feature","id":23,"geometry":{"type":"Point","coordinates":[199099.24560000002,1884972.9370000008]},"properties":{"OBJECTID":23,"Asset_ID":"Flr23","Name":"TEEM ROSE SALALA\r\n","District_ID":"Dahariz al Shamaliyya","Gov_ID":"Dhofar Governorate","Wlyt_ID":" Salalah","Road_ID":null,"Latitude":17.029316519999998,"Longitude":54.173650649999999,"GlobalID":"{E3B7F216-4FC3-46B4-9D16-0EB0649B7DE4}"}}]
}