{
  "type" : "FeatureCollection",
  "crs" : {
    "type" : "name",
    "properties" : {
      "name" : "EPSG:32640"
    }
  },
  "features" : [{"type":"Feature","id":1,"geometry":{"type":"Point","coordinates":[189554.84750000015,1883252.0813999996]},"properties":{"OBJECTID":1,"Asset_ID":"GC1","Name":"sell flowers & natural plants","District_ID":"Salalah al Gharbiyya","Gov_ID":"2","Wlyt_ID":" Salalah","Road_ID":"103812","Latitude":17.01255012,"Longitude":54.084313719999997,"GlobalID":"{99AC97BD-D083-4729-AFDA-5BB7FDF20B0D}"}},{"type":"Feature","id":2,"geometry":{"type":"Point","coordinates":[198769.54480000027,1886120.1700999998]},"properties":{"OBJECTID":2,"Asset_ID":"GC2","Name":"مشتل بهجة السعادة","District_ID":"al Sada al Janubiyya","Gov_ID":"2","Wlyt_ID":" Salalah","Road_ID":"100250","Latitude":17.039631180000001,"Longitude":54.170400639999997,"GlobalID":"{47547D54-835C-4C2A-8960-7E38385051D8}"}},{"type":"Feature","id":3,"geometry":{"type":"Point","coordinates":[198439.4617999997,1885672.9220000003]},"properties":{"OBJECTID":3,"Asset_ID":"GC3","Name":"مشتل أشجار صلالة","District_ID":"Dahariz al Shamaliyya","Gov_ID":"2","Wlyt_ID":" Salalah","Road_ID":"100124","Latitude":17.035550050000001,"Longitude":54.167363620000003,"GlobalID":"{640631C3-F39C-4280-A306-CC62EE859CA3}"}},{"type":"Feature","id":4,"geometry":{"type":"Point","coordinates":[197297.77029999997,1885721.5320999995]},"properties":{"OBJECTID":4,"Asset_ID":"GC4","Name":"مشتل اشجار ظفار","District_ID":"Dahariz al Shamaliyya","Gov_ID":"2","Wlyt_ID":" Salalah","Road_ID":"100124","Latitude":17.03583922,"Longitude":54.15664237,"GlobalID":"{245ABC57-08D3-4C91-B547-1FA14F9FDA8A}"}},{"type":"Feature","id":5,"geometry":{"type":"Point","coordinates":[193930.36550000031,1883371.2222000007]},"properties":{"OBJECTID":5,"Asset_ID":"GC5","Name":"مشتل موارد الخلیج","District_ID":"al Huseela","Gov_ID":"2","Wlyt_ID":" Salalah","Road_ID":"103741","Latitude":17.014175590000001,"Longitude":54.125364589999997,"GlobalID":"{A323F079-A19B-44B4-A9E1-99B4151BDC2C}"}},{"type":"Feature","id":6,"geometry":{"type":"Point","coordinates":[193746.33430000022,1883352.6492999997]},"properties":{"OBJECTID":6,"Asset_ID":"GC6","Name":"مشتل البيت الفاخر","District_ID":"al Baleed","Gov_ID":"2","Wlyt_ID":" Salalah","Road_ID":"103741","Latitude":17.013983490000001,"Longitude":54.123640299999998,"GlobalID":"{D83140D7-4551-4799-8F40-3B8A53457A6C}"}},{"type":"Feature","id":7,"geometry":{"type":"Point","coordinates":[193660.3041000003,1883337.8333000001]},"properties":{"OBJECTID":7,"Asset_ID":"GC7","Name":"مشتل الربيع\r\n","District_ID":"al Hafa","Gov_ID":"2","Wlyt_ID":" Salalah","Road_ID":"103741","Latitude":17.013838310000001,"Longitude":54.122835080000002,"GlobalID":"{B9119FFD-A61D-4321-9BEB-60379AF4D65D}"}},{"type":"Feature","id":8,"geometry":{"type":"Point","coordinates":[195321.49409999978,1883551.2799999993]},"properties":{"OBJECTID":8,"Asset_ID":"GC8","Name":"مشتل المصري\r\n","District_ID":"al Robat","Gov_ID":"2","Wlyt_ID":" Salalah","Road_ID":"103741","Latitude":17.015985300000001,"Longitude":54.138393610000001,"GlobalID":"{78286216-A1D6-4E3E-99DA-E7D21F85FC48}"}}]
}