{
  "type" : "FeatureCollection",
  "crs" : {
    "type" : "name",
    "properties" : {
      "name" : "EPSG:32640"
    }
  },
  "features" : [{"type":"Feature","id":2,"geometry":{"type":"Point","coordinates":[187925.87689999957,1884282.1914000008]},"properties":{"OBJECTID":2,"Asset_ID":"GS2","Name":"OmanOil Station","District_ID":"al Wadi","Gov_ID":"2","Wlyt_ID":" Salalah","Road_ID":"104429","Latitude":17.0215952,"Longitude":54.06889494,"GlobalID":"{BE5B0A13-E34A-4FB2-A0B9-BE1115D6B3D4}"}},{"type":"Feature","id":3,"geometry":{"type":"Point","coordinates":[186846.45449999999,1882790.0351999998]},"properties":{"OBJECTID":3,"Asset_ID":"GS3","Name":"Al Maha Petrol Station","District_ID":"al Wadi","Gov_ID":"2","Wlyt_ID":" Salalah","Road_ID":"105338","Latitude":17.008016139999999,"Longitude":54.058997140000002,"GlobalID":"{ACB4F08A-6261-462F-A088-3B3FDA94A251}"}},{"type":"Feature","id":4,"geometry":{"type":"Point","coordinates":[188478.19330000039,1882974.1568999998]},"properties":{"OBJECTID":4,"Asset_ID":"GS4","Name":"Al Maha Petrol Station","District_ID":"Salalah al Jadida","Gov_ID":"2","Wlyt_ID":" Salalah","Road_ID":"103812","Latitude":17.009861350000001,"Longitude":54.074261120000003,"GlobalID":"{59B7432C-3606-4782-BF5F-3C972E1B6835}"}},{"type":"Feature","id":5,"geometry":{"type":"Point","coordinates":[189516.10570000019,1884365.2250999995]},"properties":{"OBJECTID":5,"Asset_ID":"GS5","Name":"Al Maha Petrol Station","District_ID":"Salalah al Jadida","Gov_ID":"2","Wlyt_ID":" Salalah","Road_ID":"104294","Latitude":17.022592469999999,"Longitude":54.083813210000002,"GlobalID":"{64E9686B-DD8A-466D-AFC3-E63777BB0915}"}},{"type":"Feature","id":6,"geometry":{"type":"Point","coordinates":[195806.5401999997,1885665.9719999991]},"properties":{"OBJECTID":6,"Asset_ID":"GS6","Name":"Shell Petrol Station","District_ID":"al Sada al Janubiyya","Gov_ID":"2","Wlyt_ID":" Salalah","Road_ID":"100340","Latitude":17.035141230000001,"Longitude":54.142655140000002,"GlobalID":"{681D7954-3441-42F6-8DE5-EC73AD16ADBE}"}},{"type":"Feature","id":7,"geometry":{"type":"Point","coordinates":[199050.37700000033,1885048.0611000005]},"properties":{"OBJECTID":7,"Asset_ID":"GS7","Name":"OmanOil Shell Petrol Station","District_ID":"Dahariz al Shamaliyya","Gov_ID":"2","Wlyt_ID":" Salalah","Road_ID":"100139","Latitude":17.029988400000001,"Longitude":54.173181839999998,"GlobalID":"{D536BEEF-6256-40F8-AC67-9AE7F881B168}"}},{"type":"Feature","id":8,"geometry":{"type":"Point","coordinates":[198855.75219999999,1884666.6862000003]},"properties":{"OBJECTID":8,"Asset_ID":"GS8","Name":"Shell Petrol Station","District_ID":"Dahariz al Shamaliyya","Gov_ID":"Dhofar Governorate","Wlyt_ID":" Salalah","Road_ID":"100124","Latitude":17.026519749999999,"Longitude":54.171407129999999,"GlobalID":"{0D47AD7A-983D-4473-A52A-D399E113CE4B}"}},{"type":"Feature","id":9,"geometry":{"type":"Point","coordinates":[197673.06030000001,1883897.0072000008]},"properties":{"OBJECTID":9,"Asset_ID":"GS9","Name":"Shell Petrol Station","District_ID":"Dahariz al Janubiyya","Gov_ID":"2","Wlyt_ID":" Salalah","Road_ID":"100002","Latitude":17.019416020000001,"Longitude":54.160413120000001,"GlobalID":"{3D7A69AB-4F16-421B-A419-050DFF47BA63}"}},{"type":"Feature","id":10,"geometry":{"type":"Point","coordinates":[196918.72039999999,1887606.3194999993]},"properties":{"OBJECTID":10,"Asset_ID":"GS10","Name":"Al Maha Petrol Station","District_ID":"al Sada al Janubiyya","Gov_ID":"2","Wlyt_ID":" Salalah","Road_ID":"100333","Latitude":17.052805800000002,"Longitude":54.152827199999997,"GlobalID":"{6001DCC2-F17A-4EB4-8D16-51B64DFCAEDA}"}},{"type":"Feature","id":11,"geometry":{"type":"Point","coordinates":[187097.63410000037,1886848.7049000002]},"properties":{"OBJECTID":11,"Asset_ID":"GS11","Name":"Al Maha Petrol Station","District_ID":"New Industrial Area","Gov_ID":"2","Wlyt_ID":" Salalah","Road_ID":"105331","Latitude":17.044652339999999,"Longitude":54.060761030000002,"GlobalID":"{4CC92215-728A-4F83-84BC-C3925EEA4971}"}},{"type":"Feature","id":12,"geometry":{"type":"Point","coordinates":[188215.99299999978,1882410.9524000008]},"properties":{"OBJECTID":12,"Asset_ID":"GS12","Name":"Al Maha Petrol Station","District_ID":"Salalah al Gharbiyya","Gov_ID":"2","Wlyt_ID":" Salalah","Road_ID":"104560","Latitude":17.004697499999999,"Longitude":54.071898500000003,"GlobalID":"{7C1E7E35-AAFA-45AA-B8C0-DCD0F4626FBB}"}},{"type":"Feature","id":13,"geometry":{"type":"Point","coordinates":[185295.11990000028,1884869.4530999996]},"properties":{"OBJECTID":13,"Asset_ID":"GS13","Name":"Al Maha Petrol Station","District_ID":"New Industrial Area","Gov_ID":"2","Wlyt_ID":" Salalah","Road_ID":"105230","Latitude":17.026539199999998,"Longitude":54.044126499999997,"GlobalID":"{B69E7F52-27A7-4C4A-ACDA-BFCE916C9E64}"}},{"type":"Feature","id":14,"geometry":{"type":"Point","coordinates":[203619.47240000032,1892463.1829000004]},"properties":{"OBJECTID":14,"Asset_ID":"GS14","Name":"Al Maha Petrol Station","District_ID":"Sahalnout al Shamaliyya","Gov_ID":"2","Wlyt_ID":" Salalah","Road_ID":"102804","Latitude":17.0975298,"Longitude":54.215068799999997,"GlobalID":"{417E1DEC-AAEB-4CCF-ACF8-26BCE4BE3B33}"}},{"type":"Feature","id":15,"geometry":{"type":"Point","coordinates":[191865.6398,1883054.3640000001]},"properties":{"OBJECTID":15,"Asset_ID":"GS15","Name":"Al Maha Petrol Station","District_ID":"Salalah al Sharqiyya","Gov_ID":"2","Wlyt_ID":" Salalah","Road_ID":"104152","Latitude":17.0110402,"Longitude":54.106034399999999,"GlobalID":"{0A114520-853B-496C-A703-066A616613BD}"}},{"type":"Feature","id":16,"geometry":{"type":"Point","coordinates":[183516.56639999989,1881282.2675000001]},"properties":{"OBJECTID":16,"Asset_ID":"GS16","Name":"Al Maha Petrol Station","District_ID":"Auqad al Shamaliyya","Gov_ID":"2","Wlyt_ID":" Salalah","Road_ID":"105885","Latitude":16.993913119999998,"Longitude":54.027948940000002,"GlobalID":"{B227CEE2-A1F3-43EB-8B60-B488772F3058}"}},{"type":"Feature","id":17,"geometry":{"type":"Point","coordinates":[196174.8060999997,1892076.1378000006]},"properties":{"OBJECTID":17,"Asset_ID":"GS17","Name":"OmanOil Station","District_ID":"Salalah Wellfield","Gov_ID":"2","Wlyt_ID":" Salalah","Road_ID":"100530","Latitude":17.093062159999999,"Longitude":54.145230910000002,"GlobalID":"{107EF68F-A46D-4F78-AD5B-F90124741A38}"}},{"type":"Feature","id":18,"geometry":{"type":"Point","coordinates":[203183.67329999991,1887031.5383000001]},"properties":{"OBJECTID":18,"Asset_ID":"GS18","Name":"OmanOil Station","District_ID":"Sahalnout al Janubiyya","Gov_ID":"2","Wlyt_ID":" Salalah","Road_ID":"103359","Latitude":17.048432689999999,"Longitude":54.21170652,"GlobalID":"{C94A4377-DAE1-4E34-8D9F-51958122B8BC}"}},{"type":"Feature","id":19,"geometry":{"type":"Point","coordinates":[184549.49579999968,1885725.6614999995]},"properties":{"OBJECTID":19,"Asset_ID":"GS19","Name":"OmanOil Station","District_ID":"New Industrial Area","Gov_ID":"2","Wlyt_ID":" Salalah","Road_ID":"105278","Latitude":17.034166620000001,"Longitude":54.037008219999997,"GlobalID":"{7DD87CB7-B801-4935-8AA9-FB642F7DAF96}"}},{"type":"Feature","id":20,"geometry":{"type":"Point","coordinates":[198864,1884544]},"properties":{"OBJECTID":20,"Asset_ID":"GS20","Name":"OmanOil Station","District_ID":"Dahariz al Shamaliyya","Gov_ID":"2","Wlyt_ID":" Salalah","Road_ID":"100001","Latitude":17.025413159999999,"Longitude":54.171501190000001,"GlobalID":"{C27F4FEF-A5FB-4AB3-9F8A-E41E131020A0}"}},{"type":"Feature","id":21,"geometry":{"type":"Point","coordinates":[187294.56429999974,1886734.9250000007]},"properties":{"OBJECTID":21,"Asset_ID":"GS21","Name":"OmanOil Station","District_ID":"Salalah Airport","Gov_ID":"2","Wlyt_ID":" Salalah","Road_ID":"100572","Latitude":17.04365194,"Longitude":54.062625179999998,"GlobalID":"{97CB5BB4-B102-4A91-AF62-5A93C68E4CEC}"}},{"type":"Feature","id":22,"geometry":{"type":"Point","coordinates":[182771.41199999955,1882896.6997999996]},"properties":{"OBJECTID":22,"Asset_ID":"GS22","Name":"OmanOil Station","District_ID":"Auqad al Shamaliyya","Gov_ID":"2","Wlyt_ID":" Salalah","Road_ID":"105791","Latitude":17.008384830000001,"Longitude":54.020727690000001,"GlobalID":"{1B20286E-9FBF-47C4-A9FB-EAA89A08C214}"}},{"type":"Feature","id":23,"geometry":{"type":"Point","coordinates":[196632.42800000031,1892279.9177999999]},"properties":{"OBJECTID":23,"Asset_ID":"GS23","Name":"OmanOil Station","District_ID":"al Sada al Shamaliyya","Gov_ID":"2","Wlyt_ID":" Salalah","Road_ID":"102596","Latitude":17.09496244,"Longitude":54.149498899999998,"GlobalID":"{6E3B7DB9-C589-497C-8B07-D05687D4F003}"}},{"type":"Feature","id":24,"geometry":{"type":"Point","coordinates":[192627.23529999983,1882196.0776000004]},"properties":{"OBJECTID":24,"Asset_ID":"GS24","Name":"OmanOil Station","District_ID":"al Hafa","Gov_ID":"2","Wlyt_ID":" Salalah","Road_ID":"103936","Latitude":17.003393150000001,"Longitude":54.113299390000002,"GlobalID":"{3F36C880-66B2-4857-998A-46F1AD7ABD2C}"}},{"type":"Feature","id":25,"geometry":{"type":"Point","coordinates":[189688,1883107]},"properties":{"OBJECTID":25,"Asset_ID":"GS25","Name":"OmanOil Station","District_ID":"Salalah al Gharbiyya","Gov_ID":"2","Wlyt_ID":" Salalah","Road_ID":"104470","Latitude":17.011223609999998,"Longitude":54.085594059999998,"GlobalID":"{77DF093F-7928-421E-BC80-E25EB3689A71}"}},{"type":"Feature","id":26,"geometry":{"type":"Point","coordinates":[185211.51360000018,1882838.6728000008]},"properties":{"OBJECTID":26,"Asset_ID":"GS26","Name":"OmanOil Station","District_ID":"Mustashfa al Sultan Qboos","Gov_ID":"2","Wlyt_ID":" Salalah","Road_ID":"105482","Latitude":17.008237050000002,"Longitude":54.043700020000003,"GlobalID":"{DEA49425-D202-4C9A-966E-FC26EFCC9755}"}},{"type":"Feature","id":27,"geometry":{"type":"Point","coordinates":[190734.00119999982,1882845.5373999998]},"properties":{"OBJECTID":27,"Asset_ID":"GS27","Name":"Shell Petrol Station","District_ID":"Salalah al Wousta","Gov_ID":"2","Wlyt_ID":" Salalah","Road_ID":"104387","Latitude":17.009003570000001,"Longitude":54.095445169999998,"GlobalID":"{AC4AE1F0-41C0-4EA8-BF09-D9FFA8E3C838}"}},{"type":"Feature","id":28,"geometry":{"type":"Point","coordinates":[191365.24050000031,1883925.1826000009]},"properties":{"OBJECTID":28,"Asset_ID":"GS28","Name":"Shell Petrol Station","District_ID":"Markaz al Madena","Gov_ID":"2","Wlyt_ID":" Salalah","Road_ID":"104179","Latitude":17.018834999999999,"Longitude":54.101218000000003,"GlobalID":"{4D49CF6F-8538-4644-B2AC-80B8227CDC89}"}},{"type":"Feature","id":29,"geometry":{"type":"Point","coordinates":[192903.14510000031,1884532.5962000005]},"properties":{"OBJECTID":29,"Asset_ID":"GS29","Name":"Shell Petrol Station","District_ID":"al Huseela","Gov_ID":"2","Wlyt_ID":" Salalah","Road_ID":"107106","Latitude":17.024524,"Longitude":54.115564999999997,"GlobalID":"{37443A0C-58D1-4B5D-ABE7-BFD7927D15B8}"}},{"type":"Feature","id":30,"geometry":{"type":"Point","coordinates":[184669.82550000027,1882354.6148000006]},"properties":{"OBJECTID":30,"Asset_ID":"GS30","Name":"Shell Petrol Station","District_ID":"Auqad al Shamaliyya","Gov_ID":"2","Wlyt_ID":" Salalah","Road_ID":"105550","Latitude":17.00375133,"Longitude":54.038616339999997,"GlobalID":"{9700D940-C08A-49D2-8B7A-CA76CE33F9BF}"}},{"type":"Feature","id":31,"geometry":{"type":"Point","coordinates":[187774.15519999992,1884419.1412000004]},"properties":{"OBJECTID":31,"Asset_ID":"GS31","Name":"Shell Petrol Station","District_ID":"Salalah Airport","Gov_ID":"2","Wlyt_ID":" Salalah","Road_ID":"100662","Latitude":17.022811000000001,"Longitude":54.067452000000003,"GlobalID":"{03353268-4A4C-424D-A65C-E39E8D924ED5}"}},{"type":"Feature","id":32,"geometry":{"type":"Point","coordinates":[197601.99069999997,1890889.1527999993]},"properties":{"OBJECTID":32,"Asset_ID":"GS32","Name":"Shell Petrol Station","District_ID":"al Sada al Shamaliyya","Gov_ID":"2","Wlyt_ID":" Salalah","Road_ID":"102597","Latitude":17.082534129999999,"Longitude":54.158791340000001,"GlobalID":"{D10E128C-3651-4031-B14F-213C04C4E1F6}"}},{"type":"Feature","id":33,"geometry":{"type":"Point","coordinates":[183830.50899999961,1885121.1023999993]},"properties":{"OBJECTID":33,"Asset_ID":"GS33","Name":"Al Maha Petrol Station","District_ID":"Auqad al Shamaliyya","Gov_ID":"2","Wlyt_ID":" Salalah","Road_ID":"105644","Latitude":17.028610539999999,"Longitude":54.030347650000003,"GlobalID":"{25CEC324-A96C-4F13-BF5D-17904341489D}"}},{"type":"Feature","id":34,"geometry":{"type":"Point","coordinates":[200536.24010000005,1891806.9188000001]},"properties":{"OBJECTID":34,"Asset_ID":"GS34","Name":"OmanOil Station","District_ID":"Sahalnout al Shamaliyya","Gov_ID":"2","Wlyt_ID":" Salalah","Road_ID":"102656","Latitude":17.091204529999999,"Longitude":54.186211610000001,"GlobalID":"{19086EE8-8283-458C-962A-E64530E6F72D}"}}]
}