{
  "type" : "FeatureCollection",
  "crs" : {
    "type" : "name",
    "properties" : {
      "name" : "EPSG:32640"
    }
  },
  "features" : [{"type":"Feature","id":1,"geometry":{"type":"Point","coordinates":[186874.31579999998,1883501.3466999996]},"properties":{"OBJECTID":1,"Asset_ID":"GYM1","Name":"Fitness Gym ","District_ID":"al Wadi","Gov_ID":"Dhofar Governorate","Wlyt_ID":"Salalah","Road_ID":"105352","Latitude":17.014403550000001,"Longitude":54.059137929999999,"GlobalID":"{E275A4DC-E987-4082-A786-4E7159F2D54D}"}},{"type":"Feature","id":2,"geometry":{"type":"Point","coordinates":[187844.68890000042,1883791.4367999993]},"properties":{"OBJECTID":2,"Asset_ID":"GYM2","Name":"CORE Fit GYM","District_ID":"al Wadi","Gov_ID":"Dhofar Governorate","Wlyt_ID":"Salalah","Road_ID":"104343","Latitude":17.017153860000001,"Longitude":54.068202149999998,"GlobalID":"{4538A23D-9DA3-4DE4-9171-D7D9C9A3A93A}"}},{"type":"Feature","id":3,"geometry":{"type":"Point","coordinates":[188996.67819999997,1883747.8032000009]},"properties":{"OBJECTID":3,"Asset_ID":"GYM3","Name":"Giant Men","District_ID":"Salalah al Jadida","Gov_ID":"Dhofar Governorate","Wlyt_ID":"Salalah","Road_ID":"104187","Latitude":17.016915539999999,"Longitude":54.079017630000003,"GlobalID":"{F0561708-619E-44D4-800E-0E1ED1D0863F}"}},{"type":"Feature","id":5,"geometry":{"type":"Point","coordinates":[189013.10890000034,1883751.1552000009]},"properties":{"OBJECTID":5,"Asset_ID":"GYM5","Name":"العملاق للنساء","District_ID":"Salalah al Jadida","Gov_ID":"Dhofar Governorate","Wlyt_ID":"Salalah","Road_ID":"104187","Latitude":17.016948020000001,"Longitude":54.079171330000001,"GlobalID":"{A467DFE6-DA4F-4E92-A583-5EEF59BCDEBB}"}},{"type":"Feature","id":6,"geometry":{"type":"Point","coordinates":[184567.58169999998,1882265.5263999999]},"properties":{"OBJECTID":6,"Asset_ID":"GYM6","Name":"Salalah club gym","District_ID":"Auqad al Shamaliyya","Gov_ID":"Dhofar Governorate","Wlyt_ID":"Salalah","Road_ID":"105564","Latitude":17.002933129999999,"Longitude":54.037669710000003,"GlobalID":"{77120555-249E-4C14-A9C9-D1F0FF393637}"}},{"type":"Feature","id":7,"geometry":{"type":"Point","coordinates":[197374.33729999978,1883963.8100000005]},"properties":{"OBJECTID":7,"Asset_ID":"GYM7","Name":"مركز اللياقة البدنية ","District_ID":"Dahariz al Shamaliyya","Gov_ID":"Dhofar Governorate","Wlyt_ID":"Salalah","Road_ID":"100011","Latitude":17.019979970000001,"Longitude":54.157600780000003,"GlobalID":"{9461452F-1C34-4D9F-BD20-BDD8F727E5AB}"}},{"type":"Feature","id":8,"geometry":{"type":"Point","coordinates":[193387.70430000033,1884459.3189000003]},"properties":{"OBJECTID":8,"Asset_ID":"GYM8","Name":"one fitness","District_ID":"al Huseela","Gov_ID":"Dhofar Governorate","Wlyt_ID":"Salalah","Road_ID":"103813","Latitude":17.023926929999998,"Longitude":54.120122209999998,"GlobalID":"{77DCD4EF-E69A-4E94-9E6B-D8EDA31F371E}"}},{"type":"Feature","id":9,"geometry":{"type":"Point","coordinates":[182857.59069999959,1882914.9245999996]},"properties":{"OBJECTID":9,"Asset_ID":"GYM9","Name":"Life Style Gym ","District_ID":"Auqad al Shamaliyya","Gov_ID":"Dhofar Governorate","Wlyt_ID":"Salalah","Road_ID":"105730","Latitude":17.008561190000002,"Longitude":54.021533640000001,"GlobalID":"{BBDCDB72-69BE-49B6-866A-DA1A12D3BA24}"}},{"type":"Feature","id":10,"geometry":{"type":"Point","coordinates":[199139.67349999957,1884977.2096999995]},"properties":{"OBJECTID":10,"Asset_ID":"GYM10","Name":"Flow fit Pilates studio\r\n","District_ID":"Dahariz al Shamaliyya","Gov_ID":"Dhofar Governorate","Wlyt_ID":"Salalah","Road_ID":null,"Latitude":17.029360369999999,"Longitude":54.174029470000001,"GlobalID":"{4626400A-693D-4784-8C30-7CAA63AC4DCA}"}}]
}