{
  "type" : "FeatureCollection",
  "crs" : {
    "type" : "name",
    "properties" : {
      "name" : "EPSG:32640"
    }
  },
  "features" : [{"type":"Feature","id":1,"geometry":{"type":"Point","coordinates":[197478.7723000003,1887486.7539000008]},"properties":{"OBJECTID":1,"Asset_ID":"HC1","Name":"Alsaada Health Centre","District_ID":"al Sada al Janubiyya","Gov_ID":"2","Wlyt_ID":"Salalah","Road_ID":"100324","Latitude":17.0518,"Longitude":54.158099999999997,"GlobalID":"{93756538-6FE7-4ECF-945E-72C91EE4E069}"}},{"type":"Feature","id":2,"geometry":{"type":"Point","coordinates":[190191.48149999976,1883900.0704999994]},"properties":{"OBJECTID":2,"Asset_ID":"HC2","Name":"Salalah Al Jadidah Health Center","District_ID":"Salalah al Jadida","Gov_ID":"2","Wlyt_ID":"Salalah","Road_ID":"104200","Latitude":17.01849344,"Longitude":54.090199820000002,"GlobalID":"{901E7C99-CC34-4F9C-B485-5F5112FEF9A7}"}},{"type":"Feature","id":3,"geometry":{"type":"Point","coordinates":[188812.86110000033,1882939.0494999997]},"properties":{"OBJECTID":3,"Asset_ID":"HC3","Name":"Salalah Al Gharbia Health center","District_ID":"Salalah al Gharbiyya","Gov_ID":"2","Wlyt_ID":"Salalah","Road_ID":"105575","Latitude":17.009589559999998,"Longitude":54.077406189999998,"GlobalID":"{63809FE2-E0A6-4DDF-8919-948B9DF1EE94}"}},{"type":"Feature","id":4,"geometry":{"type":"Point","coordinates":[199047.6668999996,1884278.1679999996]},"properties":{"OBJECTID":4,"Asset_ID":"HC4","Name":"Dahariz Health Center","District_ID":"Dahariz al Shamaliyya","Gov_ID":"2","Wlyt_ID":"Salalah","Road_ID":"105562","Latitude":17.02307837,"Longitude":54.173248909999998,"GlobalID":"{7D2B3292-6909-4DF8-B0A7-2E7AE54D72F8}"}},{"type":"Feature","id":5,"geometry":{"type":"Point","coordinates":[182647.9199000001,1884242.0811999999]},"properties":{"OBJECTID":5,"Asset_ID":"HC5","Name":"Oman Eye Center ","District_ID":"Auqad al Shamaliyya","Gov_ID":"2","Wlyt_ID":"Salalah","Road_ID":"105575","Latitude":17.020512929999999,"Longitude":54.019376719999997,"GlobalID":"{240E554D-E4DE-4527-9B7E-E6447A9DA7AB}"}},{"type":"Feature","id":6,"geometry":{"type":"Point","coordinates":[183350.91349999979,1882890.6919]},"properties":{"OBJECTID":6,"Asset_ID":"HC6","Name":"Modern Skin Center","District_ID":"Auqad al Shamaliyya","Gov_ID":"2","Wlyt_ID":"Salalah","Road_ID":"105562","Latitude":17.00841016,"Longitude":54.026165630000001,"GlobalID":"{BDC57859-9D3D-444F-AAD0-EEEB91285AB1}"}}]
}