{
  "type" : "FeatureCollection",
  "crs" : {
    "type" : "name",
    "properties" : {
      "name" : "EPSG:32640"
    }
  },
  "features" : [{"type":"Feature","id":1,"geometry":{"type":"Point","coordinates":[196390.1930999998,1892669.5101999994]},"properties":{"OBJECTID":1,"Asset_ID":"HME1","Name":"بيع الاواني المنزلية و الكماليات","District_ID":null,"Gov_ID":"Dhofar Governorate","Wlyt_ID":"Salalah","Road_ID":"102167","Latitude":17.098447740000001,"Longitude":54.147171280000002,"GlobalID_1":"{02B39147-A9A7-4AD6-9E73-9580CB0D231A}"}},{"type":"Feature","id":2,"geometry":{"type":"Point","coordinates":[201182.7966,1893487.2069000006]},"properties":{"OBJECTID":2,"Asset_ID":"HME2","Name":"بيع ادوات منزلية","District_ID":null,"Gov_ID":"Dhofar Governorate","Wlyt_ID":"Salalah","Road_ID":"102005","Latitude":17.106459319999999,"Longitude":54.192053919999999,"GlobalID_1":"{082B1AE6-EE54-4ECB-930B-F0928CBBE88A}"}},{"type":"Feature","id":3,"geometry":{"type":"Point","coordinates":[198661.88939999975,1896482.6338999998]},"properties":{"OBJECTID":3,"Asset_ID":"HME3","Name":"درة الخليج العربية للاعمال","District_ID":null,"Gov_ID":"Dhofar Governorate","Wlyt_ID":"Salalah","Road_ID":"101870","Latitude":17.13317331,"Longitude":54.16797674,"GlobalID_1":"{929E1DCD-ADE9-4F38-A2EF-0BEF56FE8888}"}},{"type":"Feature","id":4,"geometry":{"type":"Point","coordinates":[198308.18039999995,1884228.0633000005]},"properties":{"OBJECTID":4,"Asset_ID":"HME4","Name":"تجارة الأدوات و الاواني المنزلية","District_ID":"Dahariz al Shamaliyya","Gov_ID":"Dhofar Governorate","Wlyt_ID":"Salalah","Road_ID":"100002","Latitude":17.0224881,"Longitude":54.166328120000003,"GlobalID_1":"{340D141D-3485-4A01-BC90-B77274C47F95}"}},{"type":"Feature","id":5,"geometry":{"type":"Point","coordinates":[197955.66150000039,1884101.4284000006]},"properties":{"OBJECTID":5,"Asset_ID":"HME5","Name":"تجارة الأدوات و الاواني المنزلية المتنوعة","District_ID":"Dahariz al Shamaliyya","Gov_ID":"Dhofar Governorate","Wlyt_ID":"Salalah","Road_ID":"100058","Latitude":17.021298640000001,"Longitude":54.163037240000001,"GlobalID_1":"{95DC7C59-721F-4F99-B8FD-BAC4978BD8F5}"}},{"type":"Feature","id":6,"geometry":{"type":"Point","coordinates":[197684.49320000038,1883862.7158000004]},"properties":{"OBJECTID":6,"Asset_ID":"HME6","Name":"sale of household furnitures, bicycles & readymade garments","District_ID":"Dahariz al Janubiyya","Gov_ID":"Dhofar Governorate","Wlyt_ID":"Salalah","Road_ID":"100040","Latitude":17.019107930000001,"Longitude":54.160525079999999,"GlobalID_1":"{A16652A4-888F-4B48-A369-9C91AC4DF0C1}"}},{"type":"Feature","id":7,"geometry":{"type":"Point","coordinates":[197588.70089999959,1883912.9549000002]},"properties":{"OBJECTID":7,"Asset_ID":"HME7","Name":"بقالة و بيع الادوات و الاواني المنزلية","District_ID":"Dahariz al Shamaliyya","Gov_ID":"Dhofar Governorate","Wlyt_ID":"Salalah","Road_ID":"100024","Latitude":17.019548950000001,"Longitude":54.159619309999997,"GlobalID_1":"{5ACF3BD0-A9D9-4D54-9BE0-DCC1920EBC06}"}},{"type":"Feature","id":8,"geometry":{"type":"Point","coordinates":[189625.76769999973,1883678.6552000009]},"properties":{"OBJECTID":8,"Asset_ID":"HME8","Name":"بيع الاواني المنزلية و الكماليات","District_ID":"Salalah al Jadida","Gov_ID":"Dhofar Governorate","Wlyt_ID":"Salalah","Road_ID":"104189","Latitude":17.016385029999999,"Longitude":54.084927860000001,"GlobalID_1":"{8A909F14-C655-4574-AE62-0201B86C1C51}"}},{"type":"Feature","id":9,"geometry":{"type":"Point","coordinates":[189807.82139999978,1883336.0500000007]},"properties":{"OBJECTID":9,"Asset_ID":"HME9","Name":"بيع الاثاث المنزلي","District_ID":"Salalah al Gharbiyya","Gov_ID":"Dhofar Governorate","Wlyt_ID":"Salalah","Road_ID":"103812","Latitude":17.013307529999999,"Longitude":54.086686350000001,"GlobalID_1":"{B1A7415F-4EE2-4A27-9873-5986EB249CBA}"}},{"type":"Feature","id":10,"geometry":{"type":"Point","coordinates":[189964.22329999972,1883418.0919000003]},"properties":{"OBJECTID":10,"Asset_ID":"HME10","Name":"كير مودرن للمفروشات","District_ID":"Salalah al Jadida","Gov_ID":"Dhofar Governorate","Wlyt_ID":"Salalah","Road_ID":"103812","Latitude":17.014069209999999,"Longitude":54.088142429999998,"GlobalID_1":"{5881EA1A-C0A5-4A65-88A6-5E53538F5F05}"}},{"type":"Feature","id":11,"geometry":{"type":"Point","coordinates":[190010.7751000002,1883433.6092000008]},"properties":{"OBJECTID":11,"Asset_ID":"HME11","Name":"بيع الاثاث المنزلي","District_ID":"Salalah al Jadida","Gov_ID":"Dhofar Governorate","Wlyt_ID":"Salalah","Road_ID":"103812","Latitude":17.014215549999999,"Longitude":54.088577069999999,"GlobalID_1":"{427250F2-E23A-4A83-BAC3-9E35C7FBE9F5}"}},{"type":"Feature","id":12,"geometry":{"type":"Point","coordinates":[190002.47879999969,1883430.3827999998]},"properties":{"OBJECTID":12,"Asset_ID":"HME12","Name":"الريان للأثاث و المفروشات","District_ID":"Salalah al Jadida","Gov_ID":"Dhofar Governorate","Wlyt_ID":"Salalah","Road_ID":"103812","Latitude":17.014185309999998,"Longitude":54.088499669999997,"GlobalID_1":"{61E0F409-3488-4AA0-AD61-ED966DEA5E67}"}},{"type":"Feature","id":13,"geometry":{"type":"Point","coordinates":[190030.75549999997,1883401.5723999999]},"properties":{"OBJECTID":13,"Asset_ID":"HME13","Name":"خشب الورد للأثاث","District_ID":"Salalah al Gharbiyya","Gov_ID":"Dhofar Governorate","Wlyt_ID":"Salalah","Road_ID":"103812","Latitude":17.01395046,"Longitude":54.088762850000002,"GlobalID_1":"{3AD91A59-3C8A-4865-BB53-83577BEA4E55}"}},{"type":"Feature","id":14,"geometry":{"type":"Point","coordinates":[190075.30240000039,1883453.2745999992]},"properties":{"OBJECTID":14,"Asset_ID":"HME14","Name":"five star home furniture","District_ID":"Salalah al Jadida","Gov_ID":"Dhofar Governorate","Wlyt_ID":"Salalah","Road_ID":"103812","Latitude":17.014401750000001,"Longitude":54.089179790000003,"GlobalID_1":"{BCB696E0-AADB-4542-8C45-1ED9206F0B38}"}},{"type":"Feature","id":15,"geometry":{"type":"Point","coordinates":[189665.41619999986,1883287.9890999999]},"properties":{"OBJECTID":15,"Asset_ID":"HME15","Name":"بيع السجاد و الموكيت","District_ID":"Salalah al Gharbiyya","Gov_ID":"Dhofar Governorate","Wlyt_ID":"Salalah","Road_ID":"103812","Latitude":17.012873590000002,"Longitude":54.085350650000002,"GlobalID_1":"{C6A19CA2-B717-4095-8C66-729F5AE56DF7}"}},{"type":"Feature","id":16,"geometry":{"type":"Point","coordinates":[189659.56219999958,1883324.3737000003]},"properties":{"OBJECTID":16,"Asset_ID":"HME16","Name":"عالم المراتب الطبية","District_ID":"Salalah al Jadida","Gov_ID":"Dhofar Governorate","Wlyt_ID":"Salalah","Road_ID":"103812","Latitude":17.013182180000001,"Longitude":54.085296839999998,"GlobalID_1":"{3639FB45-F735-4B08-87E2-385A501E9491}"}},{"type":"Feature","id":17,"geometry":{"type":"Point","coordinates":[189651.28170000017,1883282.6118999999]},"properties":{"OBJECTID":17,"Asset_ID":"HME17","Name":"بيع الأثاث المنزلي","District_ID":"Salalah al Gharbiyya","Gov_ID":"Dhofar Governorate","Wlyt_ID":"Salalah","Road_ID":"103812","Latitude":17.012823139999998,"Longitude":54.085218769999997,"GlobalID_1":"{4D7287F7-72F8-4804-BDDE-ECCB040B801C}"}},{"type":"Feature","id":18,"geometry":{"type":"Point","coordinates":[189572.60400000028,1883257.2345000003]},"properties":{"OBJECTID":18,"Asset_ID":"HME18","Name":"Classy sale of  furniture","District_ID":"Salalah al Gharbiyya","Gov_ID":"Dhofar Governorate","Wlyt_ID":"Salalah","Road_ID":"103812","Latitude":17.01256437,"Longitude":54.084490289999998,"GlobalID_1":"{A9FF4503-E42F-4B24-89C2-251FFC73ED62}"}},{"type":"Feature","id":19,"geometry":{"type":"Point","coordinates":[189562.85659999959,1883253.6231999993]},"properties":{"OBJECTID":19,"Asset_ID":"HME19","Name":"مراحب المدينة تجارة ورق الحائط و كسوة الأرضيات","District_ID":"Salalah al Gharbiyya","Gov_ID":"Dhofar Governorate","Wlyt_ID":"Salalah","Road_ID":"103812","Latitude":17.012560860000001,"Longitude":54.084376820000003,"GlobalID_1":"{18AEAA9B-499A-408A-A356-94508777B145}"}},{"type":"Feature","id":20,"geometry":{"type":"Point","coordinates":[189501.31670000032,1883289.8055000007]},"properties":{"OBJECTID":20,"Asset_ID":"HME20","Name":"خوار قص و تفصيل الستائر و تنجيد الاثاث","District_ID":"Salalah al Jadida","Gov_ID":"Dhofar Governorate","Wlyt_ID":"Salalah","Road_ID":"104212","Latitude":17.012848819999999,"Longitude":54.083816839999997,"GlobalID_1":"{577A853D-3AED-4AA0-A60F-22AB85070757}"}},{"type":"Feature","id":21,"geometry":{"type":"Point","coordinates":[189493.63480000012,1883234.6500000004]},"properties":{"OBJECTID":21,"Asset_ID":"HME21","Name":"بيت الأثاث الملكي","District_ID":"Salalah al Gharbiyya","Gov_ID":"Dhofar Governorate","Wlyt_ID":"Salalah","Road_ID":"104466","Latitude":17.01234986,"Longitude":54.083752480000001,"GlobalID_1":"{0B67A13C-B854-4507-9608-D574200674B0}"}},{"type":"Feature","id":22,"geometry":{"type":"Point","coordinates":[189400.99210000038,1883280.8946000002]},"properties":{"OBJECTID":22,"Asset_ID":"HME22","Name":"بيع الاثاث المنزلي","District_ID":"Salalah al Jadida","Gov_ID":"Dhofar Governorate","Wlyt_ID":"Salalah","Road_ID":"104213","Latitude":17.012754869999998,"Longitude":54.082876740000003,"GlobalID_1":"{8E799559-E4C1-46AF-8303-07858FA863B6}"}},{"type":"Feature","id":23,"geometry":{"type":"Point","coordinates":[189398.2265999997,1883207.4562999997]},"properties":{"OBJECTID":23,"Asset_ID":"HME23","Name":"زمن السنديان","District_ID":"Salalah al Gharbiyya","Gov_ID":"Dhofar Governorate","Wlyt_ID":"Salalah","Road_ID":"103812","Latitude":17.012091519999998,"Longitude":54.082861059999999,"GlobalID_1":"{B6FAD4B2-BB26-40FB-90DC-27907A6EFEAA}"}},{"type":"Feature","id":24,"geometry":{"type":"Point","coordinates":[189247.97020000033,1883196.7017999999]},"properties":{"OBJECTID":24,"Asset_ID":"HME24","Name":"دلع الشرق الحديثة بيع الاثاث","District_ID":"Salalah al Jadida","Gov_ID":"Dhofar Governorate","Wlyt_ID":"Salalah","Road_ID":"104210","Latitude":17.011974200000001,"Longitude":54.081452710000001,"GlobalID_1":"{E7A40E1B-903E-4F5C-B0C0-31F8A284BF45}"}},{"type":"Feature","id":25,"geometry":{"type":"Point","coordinates":[189185.44010000024,1883179.4945]},"properties":{"OBJECTID":25,"Asset_ID":"HME25","Name":"بيع الأدوات و الأواني المنزلية المتنوعة","District_ID":"Salalah al Jadida","Gov_ID":"Dhofar Governorate","Wlyt_ID":"Salalah","Road_ID":"103812","Latitude":17.011810440000001,"Longitude":54.080868389999999,"GlobalID_1":"{3C19A8C4-A2A7-452D-AC53-6A9665BAF3FC}"}},{"type":"Feature","id":26,"geometry":{"type":"Point","coordinates":[189070.98869999964,1883149.2084999997]},"properties":{"OBJECTID":26,"Asset_ID":"HME26","Name":"الهيبة العالمية تنجيد الأثاث","District_ID":"Salalah al Jadida","Gov_ID":"Dhofar Governorate","Wlyt_ID":"Salalah","Road_ID":"104240","Latitude":17.011521609999999,"Longitude":54.079798740000001,"GlobalID_1":"{DAA9AF17-5828-4DE4-82E6-7C97E4025E55}"}},{"type":"Feature","id":27,"geometry":{"type":"Point","coordinates":[189046.55279999971,1883091.5613000002]},"properties":{"OBJECTID":27,"Asset_ID":"HME27","Name":"المراتب العالمية","District_ID":"Salalah al Gharbiyya","Gov_ID":"Dhofar Governorate","Wlyt_ID":"Salalah","Road_ID":"103812","Latitude":17.011020559999999,"Longitude":54.079577180000001,"GlobalID_1":"{8CC2D0C2-F82A-47DF-96D5-A0B82D1982A5}"}},{"type":"Feature","id":28,"geometry":{"type":"Point","coordinates":[189039.17819999997,1883089.8713000007]},"properties":{"OBJECTID":28,"Asset_ID":"HME28","Name":"شركة الصاوي الدولية للتجارة (بيع الأثاث المنزلي)","District_ID":"Salalah al Gharbiyya","Gov_ID":"Dhofar Governorate","Wlyt_ID":"Salalah","Road_ID":"104478","Latitude":17.011004310000001,"Longitude":54.079508220000001,"GlobalID_1":"{753BC626-CD16-4D85-991B-FE2CF786CB61}"}},{"type":"Feature","id":29,"geometry":{"type":"Point","coordinates":[189051.46910000034,1883209.6072000004]},"properties":{"OBJECTID":29,"Asset_ID":"HME29","Name":"الطفل اللطيف( بيع الملابس الجاهزة والأدوات و الأواني المنزلية","District_ID":"Salalah al Jadida","Gov_ID":"Dhofar Governorate","Wlyt_ID":"Salalah","Road_ID":"104240","Latitude":17.012064240000001,"Longitude":54.079607129999999,"GlobalID_1":"{8BE7BA65-9FA1-41AF-B7B2-610D9C7F3F1E}"}},{"type":"Feature","id":30,"geometry":{"type":"Point","coordinates":[188661.3861999996,1883371.0791999996]},"properties":{"OBJECTID":30,"Asset_ID":"HME30","Name":"بقالة و بيع الأدوات والأواني المنزلية","District_ID":"Salalah al Jadida","Gov_ID":"Dhofar Governorate","Wlyt_ID":"Salalah","Road_ID":"104398","Latitude":17.013469369999999,"Longitude":54.07592434,"GlobalID_1":"{1D907C2C-4037-4797-B1E8-86421ED330D9}"}},{"type":"Feature","id":31,"geometry":{"type":"Point","coordinates":[188472.95110000018,1883178.4958999995]},"properties":{"OBJECTID":31,"Asset_ID":"HME31","Name":"شركة المعمورة للأثاث","District_ID":"Salalah al Jadida","Gov_ID":"Dhofar Governorate","Wlyt_ID":"Salalah","Road_ID":"104318","Latitude":17.01170535,"Longitude":54.074183269999999,"GlobalID_1":"{5210F33E-761D-49A8-BCFA-43C64ECA17DC}"}},{"type":"Feature","id":32,"geometry":{"type":"Point","coordinates":[189012.9606999997,1883071.9545000009]},"properties":{"OBJECTID":32,"Asset_ID":"HME32","Name":"الماسة للمفروشات","District_ID":"Salalah al Gharbiyya","Gov_ID":"Dhofar Governorate","Wlyt_ID":"Salalah","Road_ID":"104478","Latitude":17.010843319999999,"Longitude":54.079261989999999,"GlobalID_1":"{44E46DAE-A4A5-49CF-B67B-D9A038070DEB}"}},{"type":"Feature","id":33,"geometry":{"type":"Point","coordinates":[189004.04980000015,1883071.3399999999]},"properties":{"OBJECTID":33,"Asset_ID":"HME33","Name":"الامبراطور للمفروشات و الستائر","District_ID":"Salalah al Gharbiyya","Gov_ID":"Dhofar Governorate","Wlyt_ID":"Salalah","Road_ID":"103812","Latitude":17.010836569999999,"Longitude":54.079178470000002,"GlobalID_1":"{B0E420F5-757F-4C34-807D-6F7388D2BDA2}"}},{"type":"Feature","id":34,"geometry":{"type":"Point","coordinates":[188994.37069999985,1883069.1889999993]},"properties":{"OBJECTID":34,"Asset_ID":"HME34","Name":"شيخ العرب","District_ID":"Salalah al Gharbiyya","Gov_ID":"Dhofar Governorate","Wlyt_ID":"Salalah","Road_ID":"103812","Latitude":17.01081585,"Longitude":54.079087950000002,"GlobalID_1":"{0EDD52D6-D0BA-4C98-ABC0-FF35E07984A9}"}},{"type":"Feature","id":35,"geometry":{"type":"Point","coordinates":[188972.70799999963,1883064.1190000009]},"properties":{"OBJECTID":35,"Asset_ID":"HME35","Name":"الخالدية المتحدة للمفروشات","District_ID":"Salalah al Gharbiyya","Gov_ID":"Dhofar Governorate","Wlyt_ID":"Salalah","Road_ID":"103812","Latitude":17.01076716,"Longitude":54.078885399999997,"GlobalID_1":"{73873B9D-86A2-4B3F-B687-DF0CE667012B}"}},{"type":"Feature","id":36,"geometry":{"type":"Point","coordinates":[188956.42250000034,1883060.8926999997]},"properties":{"OBJECTID":36,"Asset_ID":"HME36","Name":"الأستاذ للأثاث و المفروشات","District_ID":"Salalah al Gharbiyya","Gov_ID":"Dhofar Governorate","Wlyt_ID":"Salalah","Road_ID":"103812","Latitude":17.010735830000002,"Longitude":54.078733049999997,"GlobalID_1":"{D2F2A7EA-272C-481A-9EC0-8D96D1CC3783}"}},{"type":"Feature","id":37,"geometry":{"type":"Point","coordinates":[188909.5859000003,1883045.9076000005]},"properties":{"OBJECTID":37,"Asset_ID":"HME37","Name":"مفروشات غزة","District_ID":"Salalah al Gharbiyya","Gov_ID":"Dhofar Governorate","Wlyt_ID":"Salalah","Road_ID":"103812","Latitude":17.01056728,"Longitude":54.078298770000004,"GlobalID_1":"{D407A3B5-ED2F-4347-AFAF-3E0F70BBF045}"}},{"type":"Feature","id":38,"geometry":{"type":"Point","coordinates":[188016.0362999998,1882804.4679000005]},"properties":{"OBJECTID":38,"Asset_ID":"HME38","Name":"لمسة سفرة للتجارة(بيع الاواني المنزلية و الكماليات)","District_ID":"al Wadi","Gov_ID":"Dhofar Governorate","Wlyt_ID":"Salalah","Road_ID":"104326","Latitude":17.008267029999999,"Longitude":54.069948619999998,"GlobalID_1":"{608F8901-BE81-434A-94AC-AF217BA7A91B}"}},{"type":"Feature","id":39,"geometry":{"type":"Point","coordinates":[187915.86529999971,1882770.3606000002]},"properties":{"OBJECTID":39,"Asset_ID":"HME39","Name":"بيع السجاد و الموكيت","District_ID":"al Wadi","Gov_ID":"Dhofar Governorate","Wlyt_ID":"Salalah","Road_ID":"104327","Latitude":17.007945580000001,"Longitude":54.069013529999999,"GlobalID_1":"{B31E094B-E251-4E03-B163-C792B8A22A37}"}},{"type":"Feature","id":40,"geometry":{"type":"Point","coordinates":[187907.26169999968,1882768.2096999995]},"properties":{"OBJECTID":40,"Asset_ID":"HME40","Name":"بيع السجاد و الموكيت","District_ID":"al Wadi","Gov_ID":"Dhofar Governorate","Wlyt_ID":"Salalah","Road_ID":"104306","Latitude":17.007925,"Longitude":54.068933110000003,"GlobalID_1":"{B9629257-4372-4252-A675-78BBD21121EC}"}},{"type":"Feature","id":41,"geometry":{"type":"Point","coordinates":[188028.48089999985,1882844.2598000001]},"properties":{"OBJECTID":41,"Asset_ID":"HME41","Name":"البيع بالجملة و اللأدوات و الاواني المنزلية","District_ID":"al Wadi","Gov_ID":"Dhofar Governorate","Wlyt_ID":"Salalah","Road_ID":"104326","Latitude":17.00862794,"Longitude":54.070059790000002,"GlobalID_1":"{80F12C8B-07EC-49B0-B6D6-38F14D4A3B19}"}},{"type":"Feature","id":42,"geometry":{"type":"Point","coordinates":[187495.97690000013,1882621.7941999994]},"properties":{"OBJECTID":42,"Asset_ID":"HME42","Name":"شركة السجاد الملكي العالمية للتجارة ( بيع السجاد و الموكيت)","District_ID":"al Wadi","Gov_ID":"Dhofar Governorate","Wlyt_ID":"Salalah","Road_ID":"103812","Latitude":17.006547569999999,"Longitude":54.06509475,"GlobalID_1":"{9DB130CD-AE50-4261-898C-AEABB91D0E03}"}},{"type":"Feature","id":43,"geometry":{"type":"Point","coordinates":[187486.98919999972,1882618.8750999998]},"properties":{"OBJECTID":43,"Asset_ID":"HME43","Name":"بيع السجاد و الموكيت","District_ID":"al Wadi","Gov_ID":"Dhofar Governorate","Wlyt_ID":"Salalah","Road_ID":"103812","Latitude":17.006519999999998,"Longitude":54.065010829999999,"GlobalID_1":"{3001A518-BBFF-4001-8E5D-B0CA7C695DB9}"}},{"type":"Feature","id":44,"geometry":{"type":"Point","coordinates":[187281.19319999963,1882556.8827999998]},"properties":{"OBJECTID":44,"Asset_ID":"HME44","Name":"مفروشات دار العرب(بيع السجاد و الموكيت)","District_ID":"al Wadi","Gov_ID":"Dhofar Governorate","Wlyt_ID":"Salalah","Road_ID":"105461","Latitude":17.005932489999999,"Longitude":54.063088659999998,"GlobalID_1":"{2E6BC5AD-FF8D-49E2-A327-C783FB9903E4}"}},{"type":"Feature","id":45,"geometry":{"type":"Point","coordinates":[187234.02680000011,1882544.1309999991]},"properties":{"OBJECTID":45,"Asset_ID":"HME45","Name":"التمام الحديثة (بيع الاجهزة المنزلية و معدات الفنادق و المطاعم و المطابخ)","District_ID":"al Wadi","Gov_ID":"Dhofar Governorate","Wlyt_ID":"Salalah","Road_ID":"105390","Latitude":17.00581098,"Longitude":54.062647910000003,"GlobalID_1":"{0D9A2E53-722C-4027-A782-240B7AC5B77C}"}},{"type":"Feature","id":46,"geometry":{"type":"Point","coordinates":[187012.75189999957,1882440.0807000007]},"properties":{"OBJECTID":46,"Asset_ID":"HME46","Name":"تجارة السجاد و الموكيت","District_ID":"al Wadi","Gov_ID":"Dhofar Governorate","Wlyt_ID":"Salalah","Road_ID":"105377","Latitude":17.004841670000001,"Longitude":54.060586450000002,"GlobalID_1":"{04E54881-968D-42AD-B255-1045D393F48D}"}},{"type":"Feature","id":47,"geometry":{"type":"Point","coordinates":[187006.60639999993,1882439.6197999995]},"properties":{"OBJECTID":47,"Asset_ID":"HME47","Name":"شركة بن مقيبل المتحدة (تجارة الاثاث المنزلي و السجاد و الموكيت و دراجات هوائية و العاب الاطفال","District_ID":"al Wadi","Gov_ID":"Dhofar Governorate","Wlyt_ID":"Salalah","Road_ID":"103812","Latitude":17.00483668,"Longitude":54.060528859999998,"GlobalID_1":"{ABFDCF35-D489-439A-BDFE-C638C0AE33C1}"}},{"type":"Feature","id":48,"geometry":{"type":"Point","coordinates":[187001.38279999979,1882438.3906999994]},"properties":{"OBJECTID":48,"Asset_ID":"HME48","Name":"شركة الفلك الشاملة للتجارة (تجارة الاثاث المنزلي والموبيليا)","District_ID":"al Wadi","Gov_ID":"Dhofar Governorate","Wlyt_ID":"Salalah","Road_ID":"103812","Latitude":17.00482487,"Longitude":54.06048002,"GlobalID_1":"{818894E9-8470-4F2D-ACCE-9260D0C659CA}"}},{"type":"Feature","id":49,"geometry":{"type":"Point","coordinates":[186949.68410000019,1882425.9461000003]},"properties":{"OBJECTID":49,"Asset_ID":"HME49","Name":"الاثاث المنزلي و الموبيليا و الدراجات الهوائية و السجاد و الموكيت","District_ID":"al Wadi","Gov_ID":"Dhofar Governorate","Wlyt_ID":"Salalah","Road_ID":"103812","Latitude":17.004705520000002,"Longitude":54.05999671,"GlobalID_1":"{61468570-87F7-45D4-8E0C-F810860527C5}"}},{"type":"Feature","id":50,"geometry":{"type":"Point","coordinates":[186944.69089999981,1882424.5634000003]},"properties":{"OBJECTID":50,"Asset_ID":"HME50","Name":"أثاث و مفروشات و سجاد و ادوات منزلية و دراجات هوائية","District_ID":"al Wadi","Gov_ID":"Dhofar Governorate","Wlyt_ID":"Salalah","Road_ID":"103812","Latitude":17.00469236,"Longitude":54.059950059999998,"GlobalID_1":"{F30375B0-0A3A-432A-9D3B-FB61CCDA155A}"}},{"type":"Feature","id":51,"geometry":{"type":"Point","coordinates":[186939.77460000012,1882422.5660999995]},"properties":{"OBJECTID":51,"Asset_ID":"HME51","Name":"شركة نولر العطاء للتجارة(البيع بالتجزئة في المتاجر المتخصصة للأثاث المنزلي)","District_ID":"al Wadi","Gov_ID":"Dhofar Governorate","Wlyt_ID":"Salalah","Road_ID":"103812","Latitude":17.004673660000002,"Longitude":54.059904209999999,"GlobalID_1":"{F9B15A62-3B6F-445F-A140-94656BE1A092}"}},{"type":"Feature","id":52,"geometry":{"type":"Point","coordinates":[186936.47140000015,1882421.7979000006]},"properties":{"OBJECTID":52,"Asset_ID":"HME52","Name":"بيع الاثاث المنزلي","District_ID":"al Wadi","Gov_ID":"Dhofar Governorate","Wlyt_ID":"Salalah","Road_ID":"105375","Latitude":17.004666279999999,"Longitude":54.059873330000002,"GlobalID_1":"{A450E752-3167-46C0-84AD-F7F0206B37BB}"}},{"type":"Feature","id":53,"geometry":{"type":"Point","coordinates":[186914.57820000034,1882450.9121000003]},"properties":{"OBJECTID":53,"Asset_ID":"HME53","Name":"بيع الاثاث المنزلي","District_ID":"al Wadi","Gov_ID":"Dhofar Governorate","Wlyt_ID":"Salalah","Road_ID":"105466","Latitude":17.004926139999998,"Longitude":54.059663810000004,"GlobalID_1":"{0BDB2E54-F3FD-47C2-835A-13F4D59445E8}"}},{"type":"Feature","id":56,"geometry":{"type":"Point","coordinates":[189157.59350000042,1883848.5427999999]},"properties":{"OBJECTID":56,"Asset_ID":"HME56","Name":"بيع الأدوات و الأواني المنزلية المتنوعة","District_ID":"Salalah al Jadida","Gov_ID":"Dhofar Governorate","Wlyt_ID":"Salalah","Road_ID":"104263","Latitude":17.017846680000002,"Longitude":54.080513430000003,"GlobalID_1":"{E8B93FA4-6264-4CC9-A17A-BA55F9A562A9}"}},{"type":"Feature","id":57,"geometry":{"type":"Point","coordinates":[188656.31620000023,1883847.5441999994]},"properties":{"OBJECTID":57,"Asset_ID":"HME57","Name":"بيع الابواب و النواقذ","District_ID":"Salalah al Jadida","Gov_ID":"Dhofar Governorate","Wlyt_ID":"Salalah","Road_ID":"104285","Latitude":17.01777006,"Longitude":54.075809939999999,"GlobalID_1":"{44C1B4E4-3543-484A-BE7A-BC7964A2CC7F}"}},{"type":"Feature","id":58,"geometry":{"type":"Point","coordinates":[189522.71119999979,1883786.0507999994]},"properties":{"OBJECTID":58,"Asset_ID":"HME58","Name":"الأبداع الشامي (مطابخ المانية و اثاث)","District_ID":"Salalah al Jadida","Gov_ID":"Dhofar Governorate","Wlyt_ID":"Salalah","Road_ID":"104187","Latitude":17.01735146,"Longitude":54.083948229999997,"GlobalID_1":"{38031CE8-22EF-480F-9755-EBBCAEEC2413}"}},{"type":"Feature","id":59,"geometry":{"type":"Point","coordinates":[189528.08839999977,1883786.0507999994]},"properties":{"OBJECTID":59,"Asset_ID":"HME59","Name":"الكاف للمطابخ","District_ID":"Salalah al Jadida","Gov_ID":"Dhofar Governorate","Wlyt_ID":"Salalah","Road_ID":"104187","Latitude":17.01735218,"Longitude":54.083998690000001,"GlobalID_1":"{D2585B94-E2D8-4BA9-9519-075F2D926A01}"}},{"type":"Feature","id":60,"geometry":{"type":"Point","coordinates":[189574.52440000046,1883827.1105000004]},"properties":{"OBJECTID":60,"Asset_ID":"HME60","Name":"الممتاز للمطابخ","District_ID":"Salalah al Jadida","Gov_ID":"Dhofar Governorate","Wlyt_ID":"Salalah","Road_ID":"104187","Latitude":17.01770934,"Longitude":54.084428619999997,"GlobalID_1":"{CEBB2E50-FE85-4285-B152-E50608615AB4}"}},{"type":"Feature","id":61,"geometry":{"type":"Point","coordinates":[189312.45320000034,1883764.8085999992]},"properties":{"OBJECTID":61,"Asset_ID":"HME61","Name":"سنترباك ( تجارة الأدوات و الأواني المنزلية)","District_ID":"Salalah al Jadida","Gov_ID":"Dhofar Governorate","Wlyt_ID":"Salalah","Road_ID":"104187","Latitude":17.017130309999999,"Longitude":54.081974760000001,"GlobalID_1":"{B9F685B4-F4F4-48F9-AA28-DD33B04657D3}"}},{"type":"Feature","id":62,"geometry":{"type":"Point","coordinates":[189069.36780000012,1883724.7886999995]},"properties":{"OBJECTID":62,"Asset_ID":"HME62","Name":"الدولية للأثاث","District_ID":"Salalah al Jadida","Gov_ID":"Dhofar Governorate","Wlyt_ID":"Salalah","Road_ID":"104187","Latitude":17.016717570000001,"Longitude":54.079702910000002,"GlobalID_1":"{CAA94821-4122-4FCE-9E72-6B7A6153D3C3}"}},{"type":"Feature","id":63,"geometry":{"type":"Point","coordinates":[188860.16110000014,1883695.8592000008]},"properties":{"OBJECTID":63,"Asset_ID":"HME63","Name":"cloud nine","District_ID":"Salalah al Jadida","Gov_ID":"Dhofar Governorate","Wlyt_ID":"Salalah","Road_ID":"104187","Latitude":17.01645152,"Longitude":54.077745299999997,"GlobalID_1":"{1AB1513A-B74D-4D9F-B9FC-AD6268C99639}"}},{"type":"Feature","id":64,"geometry":{"type":"Point","coordinates":[188787.82899999991,1883695.3052999992]},"properties":{"OBJECTID":64,"Asset_ID":"HME64","Name":"تنجيد الاثاث","District_ID":"Salalah al Jadida","Gov_ID":"Dhofar Governorate","Wlyt_ID":"Salalah","Road_ID":"104423","Latitude":17.016419549999998,"Longitude":54.077065210000001,"GlobalID_1":"{CC3F1008-34D3-4298-8AB8-0AF1B0C6FCC2}"}},{"type":"Feature","id":65,"geometry":{"type":"Point","coordinates":[189773.44519999996,1883846.0077999998]},"properties":{"OBJECTID":65,"Asset_ID":"HME65","Name":"واحة اللمسة الذهبية (بيع الاثاث و ص الستائر)","District_ID":"Salalah al Jadida","Gov_ID":"Dhofar Governorate","Wlyt_ID":"Salalah","Road_ID":"104192","Latitude":17.017906700000001,"Longitude":54.086292520000001,"GlobalID_1":"{5636619F-9079-48D3-AD52-BFB6EC571DB9}"}},{"type":"Feature","id":66,"geometry":{"type":"Point","coordinates":[188926.40909999982,1883632.8948999997]},"properties":{"OBJECTID":66,"Asset_ID":"HME66","Name":"بيع الأثاث المنزلي","District_ID":"Salalah al Jadida","Gov_ID":"Dhofar Governorate","Wlyt_ID":"Salalah","Road_ID":"104315","Latitude":17.015868709999999,"Longitude":54.07837438,"GlobalID_1":"{14CD45B9-0344-4675-B387-07D73236B0AB}"}},{"type":"Feature","id":67,"geometry":{"type":"Point","coordinates":[188939.8348000003,1883575.1075999998]},"properties":{"OBJECTID":67,"Asset_ID":"HME67","Name":"بقالة وبيع الادوات و الاواني المنزلية المتنوعة","District_ID":"Salalah al Jadida","Gov_ID":"Dhofar Governorate","Wlyt_ID":"Salalah","Road_ID":"104314","Latitude":17.015412009999999,"Longitude":54.07853128,"GlobalID_1":"{10D4CF24-5486-48A6-96FE-693AF1DAE01B}"}},{"type":"Feature","id":68,"geometry":{"type":"Point","coordinates":[188952.62330000009,1883517.1490000002]},"properties":{"OBJECTID":68,"Asset_ID":"HME68","Name":"بيع الأدوات و الأواني المنزلية المتنوعة","District_ID":"Salalah al Jadida","Gov_ID":"Dhofar Governorate","Wlyt_ID":"Salalah","Road_ID":"104313","Latitude":17.014827319999998,"Longitude":54.07863657,"GlobalID_1":"{B8C4FADE-0D30-4A55-A7D5-7AD2060308CD}"}},{"type":"Feature","id":70,"geometry":{"type":"Point","coordinates":[187523.85109999962,1884135.3977000006]},"properties":{"OBJECTID":70,"Asset_ID":"HME70","Name":"مواد غذائية و ادوات و اواني منزلية","District_ID":"al Wadi","Gov_ID":"Dhofar Governorate","Wlyt_ID":"Salalah","Road_ID":"104361","Latitude":17.020215570000001,"Longitude":54.065143249999998,"GlobalID_1":"{75E30955-99BF-447F-ACE8-149F12B49636}"}},{"type":"Feature","id":71,"geometry":{"type":"Point","coordinates":[187102.77799999993,1882539.3838]},"properties":{"OBJECTID":71,"Asset_ID":"HME71","Name":"الرصيد الجديد (للادوات و الاواني المنزلية المتنوعة و الملابس الجاهزة و بيع الالعاب و بيع مستحضرات التجميل(","District_ID":"al Wadi","Gov_ID":"Dhofar Governorate","Wlyt_ID":"Salalah","Road_ID":"105463","Latitude":17.005750339999999,"Longitude":54.061417130000002,"GlobalID_1":"{3A3F817B-8270-431A-99B3-9072697A0181}"}},{"type":"Feature","id":72,"geometry":{"type":"Point","coordinates":[189761.37619999982,1883352.7610999998]},"properties":{"OBJECTID":72,"Asset_ID":"HME72","Name":"AT HOME","District_ID":"Salalah al Jadida","Gov_ID":"Dhofar Governorate","Wlyt_ID":"Salalah","Road_ID":"103812","Latitude":17.013452149999999,"Longitude":54.086248210000001,"GlobalID_1":"{7018867E-76CA-435E-915E-11CD98423EF9}"}},{"type":"Feature","id":73,"geometry":{"type":"Point","coordinates":[189856.73830000032,1883498.4089000002]},"properties":{"OBJECTID":73,"Asset_ID":"HME73","Name":"البيع بالجملة للأدوات و الاواني المنزلية","District_ID":"Salalah al Jadida","Gov_ID":"Dhofar Governorate","Wlyt_ID":"Salalah","Road_ID":"104201","Latitude":17.01477985,"Longitude":54.087122659999999,"GlobalID_1":"{B38C6FF4-8057-41C3-AB86-1BD0D9BF6F72}"}},{"type":"Feature","id":74,"geometry":{"type":"Point","coordinates":[189182.18950000033,1883547.9561999999]},"properties":{"OBJECTID":74,"Asset_ID":"HME74","Name":"الأثاث الراقي الشاملة","District_ID":"Salalah al Jadida","Gov_ID":"Dhofar Governorate","Wlyt_ID":"Salalah","Road_ID":"104415","Latitude":17.015136380000001,"Longitude":54.080786310000001,"GlobalID_1":"{A9E6B2D8-308D-44E7-9AF6-5F752AF51B77}"}},{"type":"Feature","id":75,"geometry":{"type":"Point","coordinates":[189078.93900000025,1883151.6734999996]},"properties":{"OBJECTID":75,"Asset_ID":"HME75","Name":"ارض المراتب الصحية","District_ID":"Salalah al Jadida","Gov_ID":"Dhofar Governorate","Wlyt_ID":"Salalah","Road_ID":"103812","Latitude":17.0115479,"Longitude":54.079894539999998,"GlobalID_1":"{4606FBA1-16D1-4774-9478-7F9A4B0C9963}"}},{"type":"Feature","id":76,"geometry":{"type":"Point","coordinates":[186947.23859999981,1882425.2995999996]},"properties":{"OBJECTID":76,"Asset_ID":"HME76","Name":"اثاث منزلي","District_ID":"al Wadi","Gov_ID":"Dhofar Governorate","Wlyt_ID":"Salalah","Road_ID":"103812","Latitude":17.004699349999999,"Longitude":54.059973859999999,"GlobalID_1":"{B4ED5585-7164-4695-8310-E88D124DA1E2}"}},{"type":"Feature","id":77,"geometry":{"type":"Point","coordinates":[185962.81089999992,1882381.6386999991]},"properties":{"OBJECTID":77,"Asset_ID":"HME77","Name":"بيع الاواني المنزلية","District_ID":"Auqad al Janubiyya","Gov_ID":"Dhofar Governorate","Wlyt_ID":"Salalah","Road_ID":"105424","Latitude":17.004171509999999,"Longitude":54.050743699999998,"GlobalID_1":"{8D538887-B40A-45AE-A068-29EFFAD317CE}"}},{"type":"Feature","id":78,"geometry":{"type":"Point","coordinates":[187335.63779999968,1882520.0096000005]},"properties":{"OBJECTID":78,"Asset_ID":"HME78","Name":"حسين علوي مقيبل الاواني ومعدات المطابخ","District_ID":"al Wadi","Gov_ID":"Dhofar Governorate","Wlyt_ID":"Salalah","Road_ID":"105386","Latitude":17.00560699,"Longitude":54.063604679999997,"GlobalID_1":"{81AD337B-7449-4F96-8081-81A22D3FB2BD}"}},{"type":"Feature","id":79,"geometry":{"type":"Point","coordinates":[187265.80879999977,1882514.5054000001]},"properties":{"OBJECTID":79,"Asset_ID":"HME79","Name":"بيع السجاد و الموكيت","District_ID":"al Wadi","Gov_ID":"Dhofar Governorate","Wlyt_ID":"Salalah","Road_ID":"105381","Latitude":17.005547839999998,"Longitude":54.062950280000003,"GlobalID_1":"{B0271C55-12F3-41F6-9365-49BAF7861046}"}},{"type":"Feature","id":80,"geometry":{"type":"Point","coordinates":[184729.55819999985,1882258.0968999993]},"properties":{"OBJECTID":80,"Asset_ID":"HME80","Name":"بيع الهدايا و الالعاب و الأواني المنزلية","District_ID":"Auqad al Janubiyya","Gov_ID":"Dhofar Governorate","Wlyt_ID":"Salalah","Road_ID":"105373","Latitude":17.002888179999999,"Longitude":54.03919046,"GlobalID_1":"{F088151A-6FF5-4DDC-87C8-950E5FB2B90D}"}},{"type":"Feature","id":81,"geometry":{"type":"Point","coordinates":[184617.66480000038,1881865.0782999992]},"properties":{"OBJECTID":81,"Asset_ID":"HME81","Name":"ادوات منزلية و سماعات و العاب اطفال","District_ID":"Auqad al Janubiyya","Gov_ID":"Dhofar Governorate","Wlyt_ID":"Salalah","Road_ID":"105340","Latitude":16.999324959999999,"Longitude":54.03819644,"GlobalID_1":"{52F366F5-92F5-4418-88A1-7F82F3E55A19}"}},{"type":"Feature","id":82,"geometry":{"type":"Point","coordinates":[184613.21129999962,1881863.4081999995]},"properties":{"OBJECTID":82,"Asset_ID":"HME82","Name":"ادوات منزلية و العاب اطفال","District_ID":"Auqad al Janubiyya","Gov_ID":"Dhofar Governorate","Wlyt_ID":"Salalah","Road_ID":"105340","Latitude":16.999309279999999,"Longitude":54.038154890000001,"GlobalID_1":"{7E17C561-9213-42CB-A6F6-FE6177A0F7B5}"}},{"type":"Feature","id":83,"geometry":{"type":"Point","coordinates":[187014.41849999968,1882420.4284000006]},"properties":{"OBJECTID":83,"Asset_ID":"HME83","Name":"المتاجر المخصصة للسجاد و الموكيت و العاب الاطفال و الدراجات الهوائية","District_ID":"al Wadi","Gov_ID":"Dhofar Governorate","Wlyt_ID":"Salalah","Road_ID":"105380","Latitude":17.004664479999999,"Longitude":54.060604859999998,"GlobalID_1":"{CC08F0D4-B47B-4907-B9E7-663195F4B529}"}},{"type":"Feature","id":84,"geometry":{"type":"Point","coordinates":[189705.46410000045,1883226.5405000001]},"properties":{"OBJECTID":84,"Asset_ID":"HME84","Name":"MADRID CITY FURNITURE \n","District_ID":"Salalah al Gharbiyya","Gov_ID":"Dhofar Governorate","Wlyt_ID":"Salalah","Road_ID":"104469","Latitude":17.012305139999999,"Longitude":54.085741220000003,"GlobalID_1":"{C8CE1C7E-D619-42D0-B5CC-09D47E4C1037}"}},{"type":"Feature","id":85,"geometry":{"type":"Point","coordinates":[189697.47420000006,1883282.2109999992]},"properties":{"OBJECTID":85,"Asset_ID":"HME85","Name":"اخصائي الديكور الداخلي و تجارة ورق الحائط","District_ID":"Salalah al Gharbiyya","Gov_ID":"Dhofar Governorate","Wlyt_ID":"Salalah","Road_ID":"104467","Latitude":17.012806650000002,"Longitude":54.085658469999998,"GlobalID_1":"{3E93F99B-C075-477E-AFE4-B72451AD8693}"}},{"type":"Feature","id":86,"geometry":{"type":"Point","coordinates":[189696.02489999961,1883288.0936999992]},"properties":{"OBJECTID":86,"Asset_ID":"HME86","Name":"بيع ورق الحائط و كسوة الارضيات","District_ID":"Salalah al Gharbiyya","Gov_ID":"Dhofar Governorate","Wlyt_ID":"Salalah","Road_ID":"104561","Latitude":17.012859559999999,"Longitude":54.085644049999999,"GlobalID_1":"{906BD605-00E3-4AD5-80D7-6EA5779C37F1}"}},{"type":"Feature","id":87,"geometry":{"type":"Point","coordinates":[189694.14919999987,1883294.8288000003]},"properties":{"OBJECTID":87,"Asset_ID":"HME87","Name":"تجارة ورق الحائط و كسوة الأرضيات","District_ID":"Salalah al Gharbiyya","Gov_ID":"Dhofar Governorate","Wlyt_ID":"Salalah","Road_ID":"104561","Latitude":17.01292011,"Longitude":54.08562551,"GlobalID_1":"{CBC38BDA-47F4-4A34-B685-B41BCFF16713}"}},{"type":"Feature","id":88,"geometry":{"type":"Point","coordinates":[197602.48020000011,1884200.3538000006]},"properties":{"OBJECTID":88,"Asset_ID":"HME88","Name":"بيع الادوات و الاواني المنزلية المتنوعة ","District_ID":"Dahariz al Shamaliyya","Gov_ID":"Dhofar Governorate","Wlyt_ID":"Salalah","Road_ID":"100010","Latitude":17.02214549,"Longitude":54.159709450000001,"GlobalID_1":"{AA988C27-7A30-4EDC-9D04-EA4D2D75E222}"}},{"type":"Feature","id":89,"geometry":{"type":"Point","coordinates":[197606.26379999984,1884201.1105000004]},"properties":{"OBJECTID":89,"Asset_ID":"HME89","Name":"بيع الاجهزة المنزلية","District_ID":"Dahariz al Shamaliyya","Gov_ID":"Dhofar Governorate","Wlyt_ID":"Salalah","Road_ID":"100010","Latitude":17.022152819999999,"Longitude":54.159744850000003,"GlobalID_1":"{B1E96EE3-9EFE-4E1D-B0B4-99016E28C5C1}"}},{"type":"Feature","id":90,"geometry":{"type":"Point","coordinates":[197765.32809999958,1884221.3500999995]},"properties":{"OBJECTID":90,"Asset_ID":"HME90","Name":"بيع الاجهزة المنزلية","District_ID":"Dahariz al Shamaliyya","Gov_ID":"Dhofar Governorate","Wlyt_ID":"Salalah","Road_ID":"100010","Latitude":17.02235641,"Longitude":54.161234780000001,"GlobalID_1":"{657C5FF5-D814-45A5-8D4C-CF4AEFCF05BE}"}},{"type":"Feature","id":91,"geometry":{"type":"Point","coordinates":[197512.36629999988,1884160.4966000002]},"properties":{"OBJECTID":91,"Asset_ID":"HME91","Name":"البيع بالتجزئة في المتاجر المتخصصة للأدوات و الاواني المنزلية المتنوعة","District_ID":"Dahariz al Shamaliyya","Gov_ID":"Dhofar Governorate","Wlyt_ID":"Salalah","Road_ID":"100069","Latitude":17.021773830000001,"Longitude":54.158869240000001,"GlobalID_1":"{E1D2BED9-C7EB-4048-A573-73BEA3C21CCC}"}},{"type":"Feature","id":92,"geometry":{"type":"Point","coordinates":[189684.67879999988,1883275.8849999998]},"properties":{"OBJECTID":92,"Asset_ID":"HME92","Name":"بيع ورق الحائط و كسوة الاراضيات","District_ID":"Salalah al Gharbiyya","Gov_ID":"Dhofar Governorate","Wlyt_ID":"Salalah","Road_ID":"104467","Latitude":17.012747820000001,"Longitude":54.08553929,"GlobalID_1":"{D0AE80D2-28FC-4F49-A1C1-F0C29E078738}"}},{"type":"Feature","id":93,"geometry":{"type":"Point","coordinates":[189690.84779999964,1883278.1193000004]},"properties":{"OBJECTID":93,"Asset_ID":"HME93","Name":"اخصائي ديكور داخلي و تجارة ورق الحائط","District_ID":"Salalah al Gharbiyya","Gov_ID":"Dhofar Governorate","Wlyt_ID":"Salalah","Road_ID":"104467","Latitude":17.012768820000002,"Longitude":54.085596870000003,"GlobalID_1":"{C013AE60-16D3-4EBD-ADA8-9061EF2BB849}"}},{"type":"Feature","id":94,"geometry":{"type":"Point","coordinates":[187985.93609999958,1882715.3092999998]},"properties":{"OBJECTID":94,"Asset_ID":"HME94","Name":"Beautiful House","District_ID":"Salalah al Gharbiyya","Gov_ID":"Dhofar Governorate","Wlyt_ID":"Salalah","Road_ID":"103824","Latitude":17.007458069999998,"Longitude":54.069678719999999,"GlobalID_1":"{113B858D-0B4D-47E7-9990-137466F19B60}"}},{"type":"Feature","id":95,"geometry":{"type":"Point","coordinates":[188020.93800000008,1882722.4135999996]},"properties":{"OBJECTID":95,"Asset_ID":"HME95","Name":"بيع السجاد و الموكيت","District_ID":"Salalah al Gharbiyya","Gov_ID":"Dhofar Governorate","Wlyt_ID":"Salalah","Road_ID":"103824","Latitude":17.007526930000001,"Longitude":54.070006139999997,"GlobalID_1":"{8AC6B821-81F9-42A9-8CB4-D9763F1D7F96}"}},{"type":"Feature","id":96,"geometry":{"type":"Point","coordinates":[188048.09389999975,1882728.4922000002]},"properties":{"OBJECTID":96,"Asset_ID":"HME96","Name":"بيع السجاد و الموكيت","District_ID":"Salalah al Gharbiyya","Gov_ID":"Dhofar Governorate","Wlyt_ID":"Salalah","Road_ID":"103824","Latitude":17.007585479999999,"Longitude":54.070260079999997,"GlobalID_1":"{DBDBDDB4-9148-4BB6-B0FC-0B2FF101BAD9}"}},{"type":"Feature","id":97,"geometry":{"type":"Point","coordinates":[188061.40160000045,1882731.9299999997]},"properties":{"OBJECTID":97,"Asset_ID":"HME97","Name":"بيع الاثاث المنزلي","District_ID":"Salalah al Gharbiyya","Gov_ID":"Dhofar Governorate","Wlyt_ID":"Salalah","Road_ID":"103824","Latitude":17.007618310000002,"Longitude":54.07038446,"GlobalID_1":"{8CA387C0-8724-4796-B086-27F5C244C6BF}"}},{"type":"Feature","id":98,"geometry":{"type":"Point","coordinates":[188075.15280000027,1882734.0370000005]},"properties":{"OBJECTID":98,"Asset_ID":"HME98","Name":"ظفار للستائر و تنجيد المقاعد ","District_ID":"Salalah al Gharbiyya","Gov_ID":"Dhofar Governorate","Wlyt_ID":"Salalah","Road_ID":"103824","Latitude":17.007639189999999,"Longitude":54.070513179999999,"GlobalID_1":"{673CF9BC-6785-4A2F-9B3B-7AE49130BC65}"}},{"type":"Feature","id":99,"geometry":{"type":"Point","coordinates":[188185.06520000007,1882756.7797999997]},"properties":{"OBJECTID":99,"Asset_ID":"HME99","Name":"نجوم المدينة للمفروشات","District_ID":"Salalah al Gharbiyya","Gov_ID":"Dhofar Governorate","Wlyt_ID":"Salalah","Road_ID":"103824","Latitude":17.007859360000001,"Longitude":54.071541269999997,"GlobalID_1":"{E35699A2-C73E-4F6D-A5CE-9E0DAC388B79}"}},{"type":"Feature","id":100,"geometry":{"type":"Point","coordinates":[188263.84659999982,1882769.8390999995]},"properties":{"OBJECTID":100,"Asset_ID":"HME100","Name":"بيع السجاد و الموكيت","District_ID":"Salalah al Gharbiyya","Gov_ID":"Dhofar Governorate","Wlyt_ID":"Salalah","Road_ID":"103824","Latitude":17.007987889999999,"Longitude":54.072278619999999,"GlobalID_1":"{45EB1C09-7718-4B42-8012-3D4E19B773A1}"}},{"type":"Feature","id":101,"geometry":{"type":"Point","coordinates":[188633.56589999981,1882810.3936999999]},"properties":{"OBJECTID":101,"Asset_ID":"HME101","Name":"Al-Mashani Home","District_ID":"Salalah al Gharbiyya","Gov_ID":"Dhofar Governorate","Wlyt_ID":"Salalah","Road_ID":"104524","Latitude":17.008403909999998,"Longitude":54.075741919999999,"GlobalID_1":"{BC38044E-4CF1-4740-97DF-4E8B948DB3CE}"}},{"type":"Feature","id":102,"geometry":{"type":"Point","coordinates":[189564.94529999979,1883061.1960000005]},"properties":{"OBJECTID":102,"Asset_ID":"HME102","Name":"البيع بالتجزئة الأدوات و الأواني المنزلة المنزلية و المتنوعة ","District_ID":"Salalah al Gharbiyya","Gov_ID":"Dhofar Governorate","Wlyt_ID":"Salalah","Road_ID":"103824","Latitude":17.010793549999999,"Longitude":54.084445840000001,"GlobalID_1":"{063E1F69-A6DF-47DD-B493-2E3C88AD16A9}"}},{"type":"Feature","id":103,"geometry":{"type":"Point","coordinates":[190082.43680000026,1883088.1766999997]},"properties":{"OBJECTID":103,"Asset_ID":"HME103","Name":"بن شيخان اليافعي للمفروشات","District_ID":"Salalah al Gharbiyya","Gov_ID":"Dhofar Governorate","Wlyt_ID":"Salalah","Road_ID":"104537","Latitude":17.011106680000001,"Longitude":54.089297700000003,"GlobalID_1":"{3F9E7A0B-C511-4AAC-8D0C-FDD5BB598BC3}"}},{"type":"Feature","id":104,"geometry":{"type":"Point","coordinates":[190161.51750000007,1883123.2213000003]},"properties":{"OBJECTID":104,"Asset_ID":"HME104","Name":"ستائر و ورق حائط","District_ID":"Salalah al Gharbiyya","Gov_ID":"Dhofar Governorate","Wlyt_ID":"Salalah","Road_ID":"104491","Latitude":17.011433669999999,"Longitude":54.09003483,"GlobalID_1":"{C9CAF527-088A-49B7-BB2F-DE1903227701}"}},{"type":"Feature","id":105,"geometry":{"type":"Point","coordinates":[190174.75200000033,1883123.8942000009]},"properties":{"OBJECTID":105,"Asset_ID":"HME105","Name":null,"District_ID":"Salalah al Gharbiyya","Gov_ID":"Dhofar Governorate","Wlyt_ID":"Salalah","Road_ID":"104491","Latitude":17.011441520000002,"Longitude":54.09015892,"GlobalID_1":"{02DEC075-AD23-4CBB-8E4C-53E87DC00824}"}},{"type":"Feature","id":106,"geometry":{"type":"Point","coordinates":[188784.09750000015,1882733.6163999997]},"properties":{"OBJECTID":106,"Asset_ID":"HME106","Name":"بيع الادوات و الاواني المنزلية ","District_ID":"Salalah al Gharbiyya","Gov_ID":"Dhofar Governorate","Wlyt_ID":"Salalah","Road_ID":"104502","Latitude":17.00773109,"Longitude":54.077165090000001,"GlobalID_1":"{C6DEBD3A-4BBD-48F6-BE2D-71E9B0C38B7C}"}},{"type":"Feature","id":107,"geometry":{"type":"Point","coordinates":[187901.99309999961,1882478.9981999993]},"properties":{"OBJECTID":107,"Asset_ID":"HME107","Name":"بيع الاثاث و الاجهزة الالكترونية المستعملة ","District_ID":"Salalah al Gharbiyya","Gov_ID":"Dhofar Governorate","Wlyt_ID":"Salalah","Road_ID":"104447","Latitude":17.005313390000001,"Longitude":54.06892431,"GlobalID_1":"{C5B92D1C-4895-43B0-8391-A8F86B5AD08F}"}},{"type":"Feature","id":108,"geometry":{"type":"Point","coordinates":[187909.07820000034,1882571.6712999996]},"properties":{"OBJECTID":108,"Asset_ID":"HME108","Name":"تركيب الجبس و بيع ورق الحائط و كسوة الارضيات","District_ID":"Salalah al Gharbiyya","Gov_ID":"Dhofar Governorate","Wlyt_ID":"Salalah","Road_ID":"104480","Latitude":17.006150959999999,"Longitude":54.068977769999996,"GlobalID_1":"{D64E6357-C876-46B7-A6C9-32BEEB502331}"}},{"type":"Feature","id":109,"geometry":{"type":"Point","coordinates":[188156.65979999956,1882460.1787]},"properties":{"OBJECTID":109,"Asset_ID":"HME109","Name":"بيتنا للوازم المنزلية ","District_ID":"Salalah al Gharbiyya","Gov_ID":"Dhofar Governorate","Wlyt_ID":"Salalah","Road_ID":"103741","Latitude":17.0051779,"Longitude":54.07131639,"GlobalID_1":"{79D02CD5-6B1F-44F3-8FCD-068E897B76D2}"}},{"type":"Feature","id":110,"geometry":{"type":"Point","coordinates":[188190.47510000039,1882463.8025000002]},"properties":{"OBJECTID":110,"Asset_ID":"HME110","Name":"بيع الاثاث المنزلي","District_ID":"Salalah al Gharbiyya","Gov_ID":"Dhofar Governorate","Wlyt_ID":"Salalah","Road_ID":"103741","Latitude":17.00521518,"Longitude":54.071633159999998,"GlobalID_1":"{6642A3A5-4303-48FD-BB02-48C1D7391F02}"}},{"type":"Feature","id":111,"geometry":{"type":"Point","coordinates":[188324.85280000046,1882485.6663000006]},"properties":{"OBJECTID":111,"Asset_ID":"HME111","Name":"بيع الاثاث المنزلي","District_ID":"Salalah al Gharbiyya","Gov_ID":"Dhofar Governorate","Wlyt_ID":"Salalah","Road_ID":"103741","Latitude":17.005430709999999,"Longitude":54.072890899999997,"GlobalID_1":"{D5B23B42-9B58-4307-A9FF-CA40B99E8244}"}},{"type":"Feature","id":112,"geometry":{"type":"Point","coordinates":[188379.72740000021,1882494.1171000004]},"properties":{"OBJECTID":112,"Asset_ID":"HME112","Name":"بيع الاثاث المنزلي","District_ID":"Salalah al Gharbiyya","Gov_ID":"Dhofar Governorate","Wlyt_ID":"Salalah","Road_ID":"103741","Latitude":17.00551441,"Longitude":54.073404580000002,"GlobalID_1":"{263575A9-B077-477A-8683-11512CB7AEE3}"}},{"type":"Feature","id":113,"geometry":{"type":"Point","coordinates":[188544.98010000028,1882524.6094000004]},"properties":{"OBJECTID":113,"Asset_ID":"HME113","Name":"بيع الاثاث و الاجهزة الالكترونية الكهربائية و المستعملة ","District_ID":"Salalah al Gharbiyya","Gov_ID":"Dhofar Governorate","Wlyt_ID":"Salalah","Road_ID":"103741","Latitude":17.005811980000001,"Longitude":54.074950819999998,"GlobalID_1":"{E7860B3F-9D53-470C-BDF4-6472EF153716}"}},{"type":"Feature","id":114,"geometry":{"type":"Point","coordinates":[188619.19189999998,1882556.1030000001]},"properties":{"OBJECTID":114,"Asset_ID":"HME114","Name":"بيع الاثاث المنزلي ","District_ID":"Salalah al Gharbiyya","Gov_ID":"Dhofar Governorate","Wlyt_ID":"Salalah","Road_ID":"103741","Latitude":17.00610631,"Longitude":54.075642709999997,"GlobalID_1":"{F4A15407-49B9-43AB-8E5D-835F059DE9B9}"}},{"type":"Feature","id":115,"geometry":{"type":"Point","coordinates":[188580.23369999975,1882562.0030000005]},"properties":{"OBJECTID":115,"Asset_ID":"HME115","Name":"بيع الاثاث المنزلي","District_ID":"Salalah al Gharbiyya","Gov_ID":"Dhofar Governorate","Wlyt_ID":"Salalah","Road_ID":"104569","Latitude":17.00615432,"Longitude":54.075276350000003,"GlobalID_1":"{339E8511-B485-453C-890D-01DDFE5701DC}"}},{"type":"Feature","id":116,"geometry":{"type":"Point","coordinates":[188628.67709999997,1882557.8986000009]},"properties":{"OBJECTID":116,"Asset_ID":"HME116","Name":"تجارة الاثاث و الاجهزة الالكترونية الكهربائية المستعملة ","District_ID":"Salalah al Gharbiyya","Gov_ID":"Dhofar Governorate","Wlyt_ID":"Salalah","Road_ID":"103741","Latitude":17.006123800000001,"Longitude":54.075731449999999,"GlobalID_1":"{A345B508-CC29-4E3B-ADF1-331CC3702774}"}},{"type":"Feature","id":117,"geometry":{"type":"Point","coordinates":[188650.85410000011,1882563.8504000008]},"properties":{"OBJECTID":117,"Asset_ID":"HME117","Name":"بيع الاثاث و الاجهزة الالكترونية الكهربائية المستعملة ","District_ID":"Salalah al Gharbiyya","Gov_ID":"Dhofar Governorate","Wlyt_ID":"Salalah","Road_ID":"103741","Latitude":17.006180520000001,"Longitude":54.075938700000002,"GlobalID_1":"{480601FD-60C4-4958-ADB6-2A473D085556}"}},{"type":"Feature","id":118,"geometry":{"type":"Point","coordinates":[188670.84800000023,1882568.6208999995]},"properties":{"OBJECTID":118,"Asset_ID":"HME118","Name":"بيع الاثاث المنزلي","District_ID":"Salalah al Gharbiyya","Gov_ID":"Dhofar Governorate","Wlyt_ID":"Salalah","Road_ID":"103741","Latitude":17.00622628,"Longitude":54.076125619999999,"GlobalID_1":"{7FB0B24C-D02E-4F5F-91CF-F7037D5AED96}"}},{"type":"Feature","id":119,"geometry":{"type":"Point","coordinates":[188686.07149999961,1882572.1285999995]},"properties":{"OBJECTID":119,"Asset_ID":"HME119","Name":"بيع الاثاث و الاجهزة الالكترونية الكهربائية المستعملة ","District_ID":"Salalah al Gharbiyya","Gov_ID":"Dhofar Governorate","Wlyt_ID":"Salalah","Road_ID":"103741","Latitude":17.006260000000001,"Longitude":54.076267970000004,"GlobalID_1":"{0DC8318B-91EE-4544-9B3D-4F351E731A3C}"}},{"type":"Feature","id":120,"geometry":{"type":"Point","coordinates":[188697.43640000001,1882575.2854999993]},"properties":{"OBJECTID":120,"Asset_ID":"HME120","Name":"بيع الاثاث و الاجهزة الالكترونية الكهربائية المستعملة ","District_ID":"Salalah al Gharbiyya","Gov_ID":"Dhofar Governorate","Wlyt_ID":"Salalah","Road_ID":"103741","Latitude":17.00629004,"Longitude":54.07637416,"GlobalID_1":"{30C0C049-360E-4A31-BD0D-D26DCA407FBC}"}},{"type":"Feature","id":121,"geometry":{"type":"Point","coordinates":[188711.60319999978,1882578.9703000002]},"properties":{"OBJECTID":121,"Asset_ID":"HME121","Name":"تجارة الاثاث المنزلي و الموبيليا ","District_ID":"Salalah al Gharbiyya","Gov_ID":"Dhofar Governorate","Wlyt_ID":"Salalah","Road_ID":"103741","Latitude":17.00632521,"Longitude":54.076506569999999,"GlobalID_1":"{10457EEB-925F-4356-83EB-7676DCCF7E21}"}},{"type":"Feature","id":122,"geometry":{"type":"Point","coordinates":[188730.95720000006,1882584.9649]},"properties":{"OBJECTID":122,"Asset_ID":"HME122","Name":"بيع الاثاث و الاجهزة الالكترونية الكهربائية  المستعملة ","District_ID":"Salalah al Gharbiyya","Gov_ID":"Dhofar Governorate","Wlyt_ID":"Salalah","Road_ID":"103741","Latitude":17.006381940000001,"Longitude":54.076687319999998,"GlobalID_1":"{A38DCD07-8E81-42CF-8736-5625F4443D4D}"}},{"type":"Feature","id":123,"geometry":{"type":"Point","coordinates":[188748.94099999964,1882587.534]},"properties":{"OBJECTID":123,"Asset_ID":"HME123","Name":"بيع الاثاث المنزلي","District_ID":"Salalah al Gharbiyya","Gov_ID":"Dhofar Governorate","Wlyt_ID":"Salalah","Road_ID":"103741","Latitude":17.00640756,"Longitude":54.076855700000003,"GlobalID_1":"{8763D5D3-AF6A-4D54-BCFD-9F2198B2962F}"}},{"type":"Feature","id":124,"geometry":{"type":"Point","coordinates":[188760.58770000003,1882592.6721999999]},"properties":{"OBJECTID":124,"Asset_ID":"HME124","Name":"بيع الاثاث و الاجهزة الالكترونية الكهربائية  المستعملة ","District_ID":"Salalah al Gharbiyya","Gov_ID":"Dhofar Governorate","Wlyt_ID":"Salalah","Road_ID":"103741","Latitude":17.006455509999999,"Longitude":54.076964250000003,"GlobalID_1":"{455C37A9-F4E4-4083-8D9E-FFC44F2C5B46}"}},{"type":"Feature","id":125,"geometry":{"type":"Point","coordinates":[188772.40560000017,1882594.8988000005]},"properties":{"OBJECTID":125,"Asset_ID":"HME125","Name":"بيع الاثاث و الاجهزة الالكترونية الكهربائية  ","District_ID":"Salalah al Gharbiyya","Gov_ID":"Dhofar Governorate","Wlyt_ID":"Salalah","Road_ID":"103741","Latitude":17.00647721,"Longitude":54.077074830000001,"GlobalID_1":"{690CB8A4-0E20-44F4-AB18-8379F4A77621}"}},{"type":"Feature","id":126,"geometry":{"type":"Point","coordinates":[188783.70969999954,1882597.4679000005]},"properties":{"OBJECTID":126,"Asset_ID":"HME126","Name":"بيع بالتجزئة الاثاث و الاجهزة الالكترونية الكهربائية المستعملة ","District_ID":"Salalah al Gharbiyya","Gov_ID":"Dhofar Governorate","Wlyt_ID":"Salalah","Road_ID":"103741","Latitude":17.006501929999999,"Longitude":54.07718053,"GlobalID_1":"{B3E84722-0542-4E6D-A41A-54AA3A7583AC}"}},{"type":"Feature","id":127,"geometry":{"type":"Point","coordinates":[188807.17430000007,1882551.9089000002]},"properties":{"OBJECTID":127,"Asset_ID":"HME127","Name":"بيع الاثاث المنزلي ","District_ID":"Salalah al Gharbiyya","Gov_ID":"Dhofar Governorate","Wlyt_ID":"Salalah","Road_ID":"103741","Latitude":17.006093790000001,"Longitude":54.07740707,"GlobalID_1":"{992401B2-FA2F-4916-B4A7-FECBBD7EC6DE}"}},{"type":"Feature","id":128,"geometry":{"type":"Point","coordinates":[188826.52830000035,1882557.7322000004]},"properties":{"OBJECTID":128,"Asset_ID":"HME128","Name":"بيع الاثاث المنزلي ","District_ID":"Salalah al Gharbiyya","Gov_ID":"Dhofar Governorate","Wlyt_ID":"Salalah","Road_ID":"103741","Latitude":17.006148970000002,"Longitude":54.07758785,"GlobalID_1":"{30A58E91-9ABD-442A-A8A4-4338587ED813}"}},{"type":"Feature","id":129,"geometry":{"type":"Point","coordinates":[188854.65160000045,1882565.6656999998]},"properties":{"OBJECTID":129,"Asset_ID":"HME129","Name":"بيع الاثاث المنزلي ","District_ID":"Salalah al Gharbiyya","Gov_ID":"Dhofar Governorate","Wlyt_ID":"Salalah","Road_ID":"103741","Latitude":17.00622439,"Longitude":54.077850609999999,"GlobalID_1":"{9D62324B-BBAD-469B-BE42-40FB27E71165}"}},{"type":"Feature","id":130,"geometry":{"type":"Point","coordinates":[188885.23440000042,1882573.8868000004]},"properties":{"OBJECTID":130,"Asset_ID":"HME130","Name":"بيع الاثاث المنزلي ","District_ID":"Salalah al Gharbiyya","Gov_ID":"Dhofar Governorate","Wlyt_ID":"Salalah","Road_ID":"103741","Latitude":17.006302730000002,"Longitude":54.078136409999999,"GlobalID_1":"{159EA36D-F223-48A7-8666-F27798926135}"}},{"type":"Feature","id":131,"geometry":{"type":"Point","coordinates":[188813.96229999978,1882603.1367000006]},"properties":{"OBJECTID":131,"Asset_ID":"HME131","Name":"بيع الاثاث و الاجهزة الالكترونية الكهربائية المستعملة ","District_ID":"Salalah al Gharbiyya","Gov_ID":"Dhofar Governorate","Wlyt_ID":"Salalah","Road_ID":"103741","Latitude":17.006557180000001,"Longitude":54.077463590000001,"GlobalID_1":"{C5143FDB-3B65-4A17-B40F-AE2AFEB2E132}"}},{"type":"Feature","id":132,"geometry":{"type":"Point","coordinates":[188819.50439999998,1882604.7501999997]},"properties":{"OBJECTID":132,"Asset_ID":"HME132","Name":"بيع الاثاث و الاجهزة الالكترونية الكهربائية المستعملة ","District_ID":"Salalah al Gharbiyya","Gov_ID":"Dhofar Governorate","Wlyt_ID":"Salalah","Road_ID":"103741","Latitude":17.00657249,"Longitude":54.07751536,"GlobalID_1":"{AD38434C-019E-4451-BA97-51854F5066A1}"}},{"type":"Feature","id":133,"geometry":{"type":"Point","coordinates":[188827.92289999966,1882606.7847000007]},"properties":{"OBJECTID":133,"Asset_ID":"HME133","Name":"بيع الاثاث و الاجهزة الالكترونية الكهربائية المستعملة ","District_ID":"Salalah al Gharbiyya","Gov_ID":"Dhofar Governorate","Wlyt_ID":"Salalah","Road_ID":"103741","Latitude":17.00659199,"Longitude":54.077594060000003,"GlobalID_1":"{E6303ACD-7ABD-417C-91AF-B09E8C85A8FB}"}},{"type":"Feature","id":134,"geometry":{"type":"Point","coordinates":[188868.09779999964,1882616.1620000005]},"properties":{"OBJECTID":134,"Asset_ID":"HME134","Name":"بيع الاثاث و الاجهزة الالكترونية الكهربائية المستعملة ","District_ID":"Salalah al Gharbiyya","Gov_ID":"Dhofar Governorate","Wlyt_ID":"Salalah","Road_ID":"103741","Latitude":17.00668207,"Longitude":54.077969699999997,"GlobalID_1":"{8C560DC6-B2FD-44EF-BC89-3B1C849C71AA}"}},{"type":"Feature","id":135,"geometry":{"type":"Point","coordinates":[188895.55920000002,1882576.7510000002]},"properties":{"OBJECTID":135,"Asset_ID":"HME135","Name":"بيع الاثاث المنزلي ","District_ID":"Salalah al Gharbiyya","Gov_ID":"Dhofar Governorate","Wlyt_ID":"Salalah","Road_ID":"103741","Latitude":17.006329969999999,"Longitude":54.078232880000002,"GlobalID_1":"{6DDD41A4-F34B-4EC2-B951-882E526616A4}"}},{"type":"Feature","id":136,"geometry":{"type":"Point","coordinates":[188909.02880000044,1882580.9913999997]},"properties":{"OBJECTID":136,"Asset_ID":"HME136","Name":"بيع الاثاث المنزلي ","District_ID":"Salalah al Gharbiyya","Gov_ID":"Dhofar Governorate","Wlyt_ID":"Salalah","Road_ID":"103741","Latitude":17.006370069999999,"Longitude":54.07835867,"GlobalID_1":"{F8226219-0F22-41A3-8B74-F54EFBB5D183}"}},{"type":"Feature","id":137,"geometry":{"type":"Point","coordinates":[188919.87930000015,1882584.3587999996]},"properties":{"OBJECTID":137,"Asset_ID":"HME137","Name":"بيع الاثاث المنزلي ","District_ID":"Salalah al Gharbiyya","Gov_ID":"Dhofar Governorate","Wlyt_ID":"Salalah","Road_ID":"103741","Latitude":17.006401929999999,"Longitude":54.078460010000001,"GlobalID_1":"{8A8F4532-26EF-473C-AD09-7D92A2E59892}"}},{"type":"Feature","id":138,"geometry":{"type":"Point","coordinates":[188928.98369999975,1882586.1049000006]},"properties":{"OBJECTID":138,"Asset_ID":"HME138","Name":"بيع الاثاث المنزلي ","District_ID":"Salalah al Gharbiyya","Gov_ID":"Dhofar Governorate","Wlyt_ID":"Salalah","Road_ID":"104530","Latitude":17.006418920000002,"Longitude":54.078545179999999,"GlobalID_1":"{857FA060-B19F-4995-BAE4-D2DDA44BB297}"}},{"type":"Feature","id":139,"geometry":{"type":"Point","coordinates":[188897.13279999979,1882623.4530999996]},"properties":{"OBJECTID":139,"Asset_ID":"HME139","Name":"بيع الاثاث و الاجهزة الالكترونية الكهربائية المستعملة ","District_ID":"Salalah al Gharbiyya","Gov_ID":"Dhofar Governorate","Wlyt_ID":"Salalah","Road_ID":"103741","Latitude":17.0067518,"Longitude":54.07824111,"GlobalID_1":"{90E86EC1-A1D6-4396-B889-87FD8C346B24}"}},{"type":"Feature","id":140,"geometry":{"type":"Point","coordinates":[188963.84929999989,1882640.2598999999]},"properties":{"OBJECTID":140,"Asset_ID":"HME140","Name":"بيع الاثاث المنزلي ","District_ID":"Salalah al Gharbiyya","Gov_ID":"Dhofar Governorate","Wlyt_ID":"Salalah","Road_ID":"103741","Latitude":17.00691252,"Longitude":54.07886474,"GlobalID_1":"{29C4DB0F-7B09-4291-AB21-6F337FDCC3D4}"}},{"type":"Feature","id":141,"geometry":{"type":"Point","coordinates":[189001.39010000043,1882650.7738000005]},"properties":{"OBJECTID":141,"Asset_ID":"HME141","Name":"بيع الاثاث المنزلي ","District_ID":"Salalah al Gharbiyya","Gov_ID":"Dhofar Governorate","Wlyt_ID":"Salalah","Road_ID":"103741","Latitude":17.007012490000001,"Longitude":54.079215499999997,"GlobalID_1":"{5360D004-6503-42B9-A416-7AC62E80D64D}"}},{"type":"Feature","id":142,"geometry":{"type":"Point","coordinates":[189011.76669999957,1882652.6096000001]},"properties":{"OBJECTID":142,"Asset_ID":"HME142","Name":"بيع و تنجيد الاثاث المنزلي ","District_ID":"Salalah al Gharbiyya","Gov_ID":"Dhofar Governorate","Wlyt_ID":"Salalah","Road_ID":"103741","Latitude":17.007030459999999,"Longitude":54.079312600000002,"GlobalID_1":"{D0A8CAC6-66F6-48B7-8FE3-DAB1B24ED0EB}"}},{"type":"Feature","id":143,"geometry":{"type":"Point","coordinates":[189180.34590000007,1882723.6810999997]},"properties":{"OBJECTID":143,"Asset_ID":"HME143","Name":"بيع الاثاث المنزلي و الموبيليا ","District_ID":"Salalah al Gharbiyya","Gov_ID":"Dhofar Governorate","Wlyt_ID":"Salalah","Road_ID":"103741","Latitude":17.007694780000001,"Longitude":54.080884400000002,"GlobalID_1":"{B275ED41-20AB-46AE-9B39-DDBC29788110}"}},{"type":"Feature","id":144,"geometry":{"type":"Point","coordinates":[189196.59080000035,1882725.8776999991]},"properties":{"OBJECTID":144,"Asset_ID":"HME144","Name":"بيع الاثاث و الاجهزة الالكترونية الكهربائية المستعملة ","District_ID":"Salalah al Gharbiyya","Gov_ID":"Dhofar Governorate","Wlyt_ID":"Salalah","Road_ID":"103741","Latitude":17.007716800000001,"Longitude":54.081036509999997,"GlobalID_1":"{1252AB08-B205-48CF-A0F3-52F8DA9C834E}"}},{"type":"Feature","id":145,"geometry":{"type":"Point","coordinates":[189236.99170000013,1882732.1516999993]},"properties":{"OBJECTID":145,"Asset_ID":"HME145","Name":"بيع الاثاث و الاجهزة الالكترونية الكهربائية المستعملة ","District_ID":"Salalah al Gharbiyya","Gov_ID":"Dhofar Governorate","Wlyt_ID":"Salalah","Road_ID":"103741","Latitude":17.00777888,"Longitude":54.081414709999997,"GlobalID_1":"{94A420C2-B0DC-4A0C-95C7-F6703BD0A047}"}},{"type":"Feature","id":146,"geometry":{"type":"Point","coordinates":[189313.7695000004,1882745.2838000003]},"properties":{"OBJECTID":146,"Asset_ID":"HME146","Name":"بيع الاثاث المنزلي ","District_ID":"Salalah al Gharbiyya","Gov_ID":"Dhofar Governorate","Wlyt_ID":"Salalah","Road_ID":"103741","Latitude":17.007907769999999,"Longitude":54.082133259999999,"GlobalID_1":"{67CE9C7B-8841-4248-92BC-B3D101DC510E}"}},{"type":"Feature","id":147,"geometry":{"type":"Point","coordinates":[189346.08949999977,1882754.6337000001]},"properties":{"OBJECTID":147,"Asset_ID":"HME147","Name":"بيع الاثاث و الاجهزة الالكترونية الكهربائية المستعملة ","District_ID":"Salalah al Gharbiyya","Gov_ID":"Dhofar Governorate","Wlyt_ID":"Salalah","Road_ID":"103741","Latitude":17.00799653,"Longitude":54.08243521,"GlobalID_1":"{813F60C4-BFB8-439F-A5CF-591A94CA504C}"}},{"type":"Feature","id":148,"geometry":{"type":"Point","coordinates":[189368.83690000046,1882760.2535999995]},"properties":{"OBJECTID":148,"Asset_ID":"HME148","Name":"بيع الاثاث المنزلي ","District_ID":"Salalah al Gharbiyya","Gov_ID":"Dhofar Governorate","Wlyt_ID":"Salalah","Road_ID":"103741","Latitude":17.00805033,"Longitude":54.082647860000002,"GlobalID_1":"{DA3045FC-9D70-4F0E-B015-05DC81528B41}"}},{"type":"Feature","id":149,"geometry":{"type":"Point","coordinates":[189616.24380000029,1882800.7606000006]},"properties":{"OBJECTID":149,"Asset_ID":"HME149","Name":"بيع الاثاث المنزلي ","District_ID":"Salalah al Gharbiyya","Gov_ID":"Dhofar Governorate","Wlyt_ID":"Salalah","Road_ID":"103741","Latitude":17.008449299999999,"Longitude":54.08496358,"GlobalID_1":"{34B590D9-6E2B-402F-B392-4E466C70B613}"}},{"type":"Feature","id":150,"geometry":{"type":"Point","coordinates":[189626.6967000002,1882802.4442999996]},"properties":{"OBJECTID":150,"Asset_ID":"HME150","Name":"بيع الاثاث المنزلي ","District_ID":"Salalah al Gharbiyya","Gov_ID":"Dhofar Governorate","Wlyt_ID":"Salalah","Road_ID":"103741","Latitude":17.008465900000001,"Longitude":54.085061420000002,"GlobalID_1":"{058AFFA5-E527-4B8C-BD9D-63F6CF21E17F}"}},{"type":"Feature","id":151,"geometry":{"type":"Point","coordinates":[189637.08829999994,1882803.4221000001]},"properties":{"OBJECTID":151,"Asset_ID":"HME151","Name":"بيع الاثاث و الاجهزة الالكترونية الكهربائية المستعملة ","District_ID":"Salalah al Gharbiyya","Gov_ID":"Dhofar Governorate","Wlyt_ID":"Salalah","Road_ID":"103741","Latitude":17.008476129999998,"Longitude":54.08515878,"GlobalID_1":"{1AE3EFFA-099B-41D9-B8A6-C9A268D8AAC4}"}},{"type":"Feature","id":152,"geometry":{"type":"Point","coordinates":[189652.87289999984,1882802.7643999998]},"properties":{"OBJECTID":152,"Asset_ID":"HME152","Name":"بيع الاثاث و الاجهزة الالكترونية الكهربائية المستعملة ","District_ID":"Salalah al Gharbiyya","Gov_ID":"Dhofar Governorate","Wlyt_ID":"Salalah","Road_ID":"103741","Latitude":17.008472309999998,"Longitude":54.085306979999999,"GlobalID_1":"{49848AA2-7AB6-4003-8238-5DC7856B4E24}"}},{"type":"Feature","id":153,"geometry":{"type":"Point","coordinates":[189780.44319999963,1882807.2772000004]},"properties":{"OBJECTID":153,"Asset_ID":"HME153","Name":"سوق الاسرة التجاري","District_ID":"Salalah al Gharbiyya","Gov_ID":"Dhofar Governorate","Wlyt_ID":"Salalah","Road_ID":"103741","Latitude":17.008530199999999,"Longitude":54.086503329999999,"GlobalID_1":"{92624744-4895-4CBC-9FA1-B614B37688E5}"}},{"type":"Feature","id":154,"geometry":{"type":"Point","coordinates":[188854.88260000013,1882803.7783000004]},"properties":{"OBJECTID":154,"Asset_ID":"HME154","Name":"بيع الادوات و الاواني المنزلية المتنوعة ","District_ID":"Salalah al Gharbiyya","Gov_ID":"Dhofar Governorate","Wlyt_ID":"Salalah","Road_ID":"104524","Latitude":17.008374029999999,"Longitude":54.077819419999997,"GlobalID_1":"{97A5D56B-D1D5-489F-9158-B90E4E8B4731}"}},{"type":"Feature","id":155,"geometry":{"type":"Point","coordinates":[189981.49849999975,1883022.4925999995]},"properties":{"OBJECTID":155,"Asset_ID":"HME155","Name":"تجارة الاواني و الادوات المنزلية و الكهربائية ","District_ID":"Salalah al Gharbiyya","Gov_ID":"Dhofar Governorate","Wlyt_ID":"Salalah","Road_ID":"104496","Latitude":17.010500140000001,"Longitude":54.088359760000003,"GlobalID_1":"{E9AB9F5B-D62B-4B2F-A7B3-2AECCC7E7EF2}"}},{"type":"Feature","id":156,"geometry":{"type":"Point","coordinates":[184822.53699999955,1885378.8425999992]},"properties":{"OBJECTID":156,"Asset_ID":"HME156","Name":"تجارة المفروشات و الستائر و السجاد و الموكيت","District_ID":"New Industrial Area","Gov_ID":"Dhofar Governorate","Wlyt_ID":"Salalah","Road_ID":"105228","Latitude":17.031073110000001,"Longitude":54.03961967,"GlobalID_1":"{E8EDE9EF-841A-4C23-9B70-B5E069AF16BA}"}},{"type":"Feature","id":157,"geometry":{"type":"Point","coordinates":[184340.54540000018,1885410.182]},"properties":{"OBJECTID":157,"Asset_ID":"HME157","Name":"بيع الادوات و الاواني المنزلية المتنوعة","District_ID":"New Industrial Area","Gov_ID":"Dhofar Governorate","Wlyt_ID":"Salalah","Road_ID":"105250","Latitude":17.03129006,"Longitude":54.035092400000003,"GlobalID_1":"{44329906-F377-4843-A270-C36ABB47BB45}"}},{"type":"Feature","id":158,"geometry":{"type":"Point","coordinates":[184627.53320000041,1885202.3234000001]},"properties":{"OBJECTID":158,"Asset_ID":"HME158","Name":"Danube Home Salalah Warehouse","District_ID":"New Industrial Area","Gov_ID":"Dhofar Governorate","Wlyt_ID":"Salalah","Road_ID":"105249","Latitude":17.029452930000001,"Longitude":54.037814939999997,"GlobalID_1":"{CEA754B1-EA2C-4ABA-AB2A-6A3425E7077B}"}},{"type":"Feature","id":159,"geometry":{"type":"Point","coordinates":[193075.62870000023,1884293.5484999996]},"properties":{"OBJECTID":159,"Asset_ID":"HME159","Name":"AL AROODH Furniture","District_ID":"al Huseela","Gov_ID":"Dhofar Governorate","Wlyt_ID":"Salalah","Road_ID":"103815","Latitude":17.022388840000001,"Longitude":54.117216650000003,"GlobalID_1":"{A7D83923-D6F1-4AA7-8791-181B777FC25D}"}},{"type":"Feature","id":160,"geometry":{"type":"Point","coordinates":[193370.45050000027,1884140.1235000007]},"properties":{"OBJECTID":160,"Asset_ID":"HME160","Name":"البيع بالتجزئة لقطع الغيار المستعملة للأجهزة المنزلية","District_ID":"al Huseela","Gov_ID":"Dhofar Governorate","Wlyt_ID":"Salalah","Road_ID":"103824","Latitude":17.02104293,"Longitude":54.12000441,"GlobalID_1":"{ABE9B64B-B8AE-45F0-9B0F-35671FC357A6}"}},{"type":"Feature","id":161,"geometry":{"type":"Point","coordinates":[197704.1643000003,1890368.1941999998]},"properties":{"OBJECTID":161,"Asset_ID":"HME161","Name":"البيع بالتجزئة في المتاجر المخصصة للأدوات و الاواني المنزلية المتنوعة","District_ID":"al Sada al Shamaliyya","Gov_ID":"Dhofar Governorate","Wlyt_ID":"Salalah","Road_ID":"102472","Latitude":17.077844200000001,"Longitude":54.159821719999997,"GlobalID_1":"{E81929A6-0C0A-4100-936C-ED23B57C753D}"}},{"type":"Feature","id":162,"geometry":{"type":"Point","coordinates":[197702.82409999985,1891209.3391999993]},"properties":{"OBJECTID":162,"Asset_ID":"HME162","Name":"تجارة الاجهزة المنزلية","District_ID":"al Sada al Shamaliyya","Gov_ID":"Dhofar Governorate","Wlyt_ID":"Salalah","Road_ID":"102560","Latitude":17.085438140000001,"Longitude":54.15969407,"GlobalID_1":"{BBB3E390-7B44-4918-8747-96EF269F5D4C}"}},{"type":"Feature","id":163,"geometry":{"type":"Point","coordinates":[183879.32230000012,1883177.6477000006]},"properties":{"OBJECTID":163,"Asset_ID":"HME163","Name":"تجارة الاجهزة المنزلية","District_ID":"Auqad al Shamaliyya","Gov_ID":"2","Wlyt_ID":"Salalah","Road_ID":"105596","Latitude":17.011073029999999,"Longitude":54.031082529999999,"GlobalID_1":"{D27FA2B7-74D2-4648-804F-A6CAB7BD92DE}"}},{"type":"Feature","id":164,"geometry":{"type":"Point","coordinates":[182455.6138000004,1883329.4726]},"properties":{"OBJECTID":164,"Asset_ID":"HME164","Name":"بيع الادوات و الاواني المنزلية المتنوعة","District_ID":"Auqad al Shamaliyya","Gov_ID":"2","Wlyt_ID":"Salalah","Road_ID":"105818","Latitude":17.012248140000001,"Longitude":54.017702890000002,"GlobalID_1":"{B9FC808F-69E5-433B-A205-BB532BF0AB71}"}},{"type":"Feature","id":166,"geometry":{"type":"Point","coordinates":[182894.43809999991,1882986.1263999995]},"properties":{"OBJECTID":166,"Asset_ID":"HME166","Name":"بيع الاثاث المنزلية ","District_ID":"Auqad al Shamaliyya","Gov_ID":"2","Wlyt_ID":"Salalah","Road_ID":"105800","Latitude":17.009209009999999,"Longitude":54.021869189999997,"GlobalID_1":"{59CF84C8-7C74-4FEC-99DB-CEDEEB330C69}"}},{"type":"Feature","id":167,"geometry":{"type":"Point","coordinates":[182774.63970000017,1883007.1271000002]},"properties":{"OBJECTID":167,"Asset_ID":"HME167","Name":"بيع الاجهزة المنزلية","District_ID":"Auqad al Shamaliyya","Gov_ID":"2","Wlyt_ID":"Salalah","Road_ID":"105791","Latitude":17.009382129999999,"Longitude":54.020742200000001,"GlobalID_1":"{CAAE55B8-8074-4C4C-96F1-C639842DA708}"}},{"type":"Feature","id":170,"geometry":{"type":"Point","coordinates":[181572.82419999968,1883587.9017999992]},"properties":{"OBJECTID":170,"Asset_ID":"HME170","Name":"بيع الادوات و الاواني المنزلية المتنوعة","District_ID":"Auqad al Shamaliyya","Gov_ID":"2","Wlyt_ID":"Salalah","Road_ID":"105851","Latitude":17.014459380000002,"Longitude":54.00938309,"GlobalID_1":"{CE5AEFB4-700F-4E98-B240-ADCF107CB715}"}},{"type":"Feature","id":171,"geometry":{"type":"Point","coordinates":[189653.19139999989,1883796.3824000005]},"properties":{"OBJECTID":171,"Asset_ID":"HME171","Name":"رزان للمطابخ","District_ID":"Salalah al Jadida","Gov_ID":"Dhofar Governorate","Wlyt_ID":"Salalah","Road_ID":"104206","Latitude":null,"Longitude":null,"GlobalID_1":"{6D549EB9-8BF0-4EF6-8F35-AD1FE10BDABC}"}}]
}