{
  "type" : "FeatureCollection",
  "crs" : {
    "type" : "name",
    "properties" : {
      "name" : "EPSG:32640"
    }
  },
  "features" : [{"type":"Feature","id":1,"geometry":{"type":"Point","coordinates":[186459.11720000021,1882556.0985000003]},"properties":{"OBJECTID":1,"Asset_ID":"H1","Name":"Sultan Qaboos Hospital","District_ID":"Mustashfa al Sultan Qboos","Gov_ID":"2","Wlyt_ID":"Salalah","Road_ID":"105353","Latitude":17.006586479999999,"Longitude":54.055302730000001,"GlobalID":"{4CEB53BD-237E-45D9-AC79-35968E1AB86A}"}},{"type":"Feature","id":2,"geometry":{"type":"Point","coordinates":[189613.78849999979,1883073.9407000002]},"properties":{"OBJECTID":2,"Asset_ID":"H2","Name":"Badr Al Sama Hospital Salalah ","District_ID":"Salalah al Gharbiyya","Gov_ID":"2","Wlyt_ID":"Salalah","Road_ID":"103824","Latitude":17.010915170000001,"Longitude":54.08490235,"GlobalID":"{36CC6AD1-156C-4F3B-8E06-B3986C216B18}"}}]
}