{
  "type" : "FeatureCollection",
  "crs" : {
    "type" : "name",
    "properties" : {
      "name" : "EPSG:32640"
    }
  },
  "features" : [{"type":"Feature","id":1,"geometry":{"type":"Point","coordinates":[190310.82199999969,1891784.6894000005]},"properties":{"OBJECTID":1,"GlobalID":"{ED1D24C2-F1DE-465A-BD88-CD5A3EE9E900}","Asset_ID":" IEO1","Name":"مكتب التصدير و الاستيراد","District_ID":null,"Gov_ID":"2","Wlyt_ID":"Salalah","Road_ID":"102263","Latitude":17.089647620000001,"Longitude":54.090224499999998}},{"type":"Feature","id":2,"geometry":{"type":"Point","coordinates":[182745.34179999959,1882915.2969000004]},"properties":{"OBJECTID":2,"GlobalID":"{6AB45B49-FFC6-44E2-B3CD-D4D62CA1F9F8}","Asset_ID":" IEO2","Name":"خط الخليج للنقل البري","District_ID":"Auqad al Shamaliyya","Gov_ID":"2","Wlyt_ID":"Salalah","Road_ID":"105777","Latitude":17.008549120000001,"Longitude":54.020480429999999}},{"type":"Feature","id":3,"geometry":{"type":"Point","coordinates":[184852.85790000018,1885150.8234000001]},"properties":{"OBJECTID":3,"GlobalID":"{6523A612-2222-439F-8B00-1FFDFC6A6E32}","Asset_ID":" IEO3","Name":"تسهيل للاستيراد والتصدير","District_ID":"New Industrial Area","Gov_ID":"2","Wlyt_ID":"Salalah","Road_ID":"105236","Latitude":17.029018829999998,"Longitude":54.039936590000003}},{"type":"Feature","id":4,"geometry":{"type":"Point","coordinates":[186832.65529999975,1882648.9798000008]},"properties":{"OBJECTID":4,"GlobalID":"{FED4DCC8-D4CB-4D72-9B7C-1AB589561D64}","Asset_ID":" IEO4","Name":"مكاتب تصدير و استيراد","District_ID":"al Wadi","Gov_ID":"2","Wlyt_ID":"Salalah","Road_ID":"105354","Latitude":17.006756889999998,"Longitude":54.058859400000003}},{"type":"Feature","id":5,"geometry":{"type":"Point","coordinates":[189093.28610000014,1884124.2322000004]},"properties":{"OBJECTID":5,"GlobalID":"{D7C2F7CE-8BF6-4E43-87C9-59ECA5AB534E}","Asset_ID":" IEO5","Name":" استيراد و تصدير","District_ID":"Salalah al Jadida","Gov_ID":"2","Wlyt_ID":"Salalah","Road_ID":"104283","Latitude":17.020326860000001,"Longitude":54.079871390000001}},{"type":"Feature","id":6,"geometry":{"type":"Point","coordinates":[184161.15270000044,1885209.4362000003]},"properties":{"OBJECTID":6,"GlobalID":"{2F369A52-EEE8-43FF-AB24-4AADAE01FAE7}","Asset_ID":" IEO6","Name":"استيراد و تصدير","District_ID":"New Industrial Area","Gov_ID":"2","Wlyt_ID":"Salalah","Road_ID":"105234","Latitude":17.029453289999999,"Longitude":54.033437640000002}},{"type":"Feature","id":7,"geometry":{"type":"Point","coordinates":[184193.90519999992,1885290.6055999994]},"properties":{"OBJECTID":7,"GlobalID":"{A035081C-0880-4BB6-8E0D-4C9A59AFCAE2}","Asset_ID":" IEO7","Name":"شركة صلالة اللوجستية","District_ID":"New Industrial Area","Gov_ID":"2","Wlyt_ID":"Salalah","Road_ID":"105234","Latitude":17.030190520000001,"Longitude":54.033733410000004}},{"type":"Feature","id":8,"geometry":{"type":"Point","coordinates":[184198.88929999992,1885303.4218000006]},"properties":{"OBJECTID":8,"GlobalID":"{6C3BC486-82CE-4E07-9BEA-1838686ECEFE}","Asset_ID":" IEO8","Name":"الصقر للاستيراد و التصدير","District_ID":"New Industrial Area","Gov_ID":"2","Wlyt_ID":"Salalah","Road_ID":"105234","Latitude":17.030306899999999,"Longitude":54.033778359999999}},{"type":"Feature","id":9,"geometry":{"type":"Point","coordinates":[184240.17399999965,1885386.9637000002]},"properties":{"OBJECTID":9,"GlobalID":"{0DBD8548-3C8B-44AB-BE40-58068A80C842}","Asset_ID":" IEO9","Name":"شركة السماء للاستيراد و التصدير و النقل البري و البحري","District_ID":"New Industrial Area","Gov_ID":"2","Wlyt_ID":"Salalah","Road_ID":"105234","Latitude":17.031066710000001,"Longitude":54.034153860000004}},{"type":"Feature","id":10,"geometry":{"type":"Point","coordinates":[184563.49629999977,1885403.7300000004]},"properties":{"OBJECTID":10,"GlobalID":"{2A998DA9-8D28-4047-9D58-90A997A56B43}","Asset_ID":" IEO10","Name":"استيراد و تصدير","District_ID":"New Industrial Area","Gov_ID":"2","Wlyt_ID":"Salalah","Road_ID":"105249","Latitude":17.031262340000001,"Longitude":54.037185399999998}},{"type":"Feature","id":11,"geometry":{"type":"Point","coordinates":[184572.69550000038,1885293.4536000006]},"properties":{"OBJECTID":11,"GlobalID":"{6B28F87E-F1A7-4C85-8F68-BEDB91D20A0F}","Asset_ID":" IEO11","Name":"الشركة الوطنية لتوزيع","District_ID":"New Industrial Area","Gov_ID":"2","Wlyt_ID":"Salalah","Road_ID":"105249","Latitude":17.03026809,"Longitude":54.037287399999997}},{"type":"Feature","id":12,"geometry":{"type":"Point","coordinates":[184957.89389999956,1885693.6042999998]},"properties":{"OBJECTID":12,"GlobalID":"{07889008-49FB-4A8C-A8EC-CFB86F0A99FF}","Asset_ID":" IEO12","Name":"المركز اللوجستي","District_ID":"New Industrial Area","Gov_ID":"2","Wlyt_ID":"Salalah","Road_ID":"105255","Latitude":17.033933090000001,"Longitude":54.040845089999998}},{"type":"Feature","id":13,"geometry":{"type":"Point","coordinates":[201563.52309999987,1891451.3969000001]},"properties":{"OBJECTID":13,"GlobalID":"{A1719D4A-D6FB-4E3F-8D24-557A9B62B744}","Asset_ID":" IEO13","Name":"شحن و تفريغ السلع","District_ID":"Sahalnout al Shamaliyya","Gov_ID":"2","Wlyt_ID":"Salalah","Road_ID":"103054","Latitude":17.08812842,"Longitude":54.19590367}},{"type":"Feature","id":14,"geometry":{"type":"Point","coordinates":[188372.91959999967,1883223.3504000008]},"properties":{"OBJECTID":14,"GlobalID":"{69E5B06C-FB7C-41B3-82CB-5EF48D8A935F}","Asset_ID":" IEO14","Name":"مكاتب استيراد و تصدير","District_ID":"Salalah al Jadida","Gov_ID":"2","Wlyt_ID":"Salalah","Road_ID":"100583","Latitude":17.012096369999998,"Longitude":54.073209890000001}},{"type":"Feature","id":15,"geometry":{"type":"Point","coordinates":[188535.72499999963,1882533.3255000003]},"properties":{"OBJECTID":15,"GlobalID":"{27F984AC-DD70-46DB-8822-7E30EA02A614}","Asset_ID":" IEO15","Name":"مكتب الاستيراد و التصدير","District_ID":"Salalah al Gharbiyya","Gov_ID":"2","Wlyt_ID":"Salalah","Road_ID":"104568","Latitude":17.005889419999999,"Longitude":54.074862760000002}},{"type":"Feature","id":16,"geometry":{"type":"Point","coordinates":[188534.95600000024,1882626.1149000004]},"properties":{"OBJECTID":16,"GlobalID":"{A8D1EDF7-6A55-45B5-8B19-F7BC5BD30278}","Asset_ID":" IEO16","Name":"مكتب استيراد و تصدير","District_ID":"Salalah al Gharbiyya","Gov_ID":"2","Wlyt_ID":"Salalah","Road_ID":"104568","Latitude":17.006726990000001,"Longitude":54.074842529999998}}]
}