{"type":"FeatureCollection","features":[{"type":"Feature","id":1,"geometry":{"type":"Point","coordinates":[54.010231447836411,16.988024423857595]},"properties":{"OBJECTID":1,"Asset_ID":"IND1","Name":"Philex Pharmaceuticals Industries","District_ID":"Wadi Adhan","Gov_ID":"Dhofar Governorate","Wlyt_ID":"Salalah","Road_ID":"105947","Latitude":16.988024419999999,"Longitude":54.010231449999999,"GlobalID":"{0EEF56D3-C97D-468C-92CD-0C24A0D0EDAC}","Facility_Type":3}},{"type":"Feature","id":2,"geometry":{"type":"Point","coordinates":[54.032065046631025,17.030987081526934]},"properties":{"OBJECTID":2,"Asset_ID":"IND2","Name":"Salim Qatan Trading Co. LLC","District_ID":"New Industrial Area","Gov_ID":"Dhofar Governorate","Wlyt_ID":"Salalah","Road_ID":"105279","Latitude":17.030987079999999,"Longitude":54.03206505,"GlobalID":"{FE89A07A-B79A-4826-AEDA-DED5F503458F}","Facility_Type":3}},{"type":"Feature","id":3,"geometry":{"type":"Point","coordinates":[54.031654803108765,17.031412740821686]},"properties":{"OBJECTID":3,"Asset_ID":"IND3","Name":"مخازن المديرية العامة للتراث و السياحة ","District_ID":"New Industrial Area","Gov_ID":"Dhofar Governorate","Wlyt_ID":"Salalah","Road_ID":"105278","Latitude":17.03141274,"Longitude":54.031654799999998,"GlobalID":"{67063585-FC81-413D-83FF-F800A717F906}","Facility_Type":2}},{"type":"Feature","id":4,"geometry":{"type":"Point","coordinates":[54.040961650387835,17.033780367130429]},"properties":{"OBJECTID":4,"Asset_ID":"IND4","Name":"المركز اللوجستي المتكامل","District_ID":"New Industrial Area","Gov_ID":"Dhofar Governorate","Wlyt_ID":"Salalah","Road_ID":"105255","Latitude":17.033780369999999,"Longitude":54.04096165,"GlobalID":"{7CA585EC-9E5C-459B-8D0F-93CFCF635D05}","Facility_Type":3}},{"type":"Feature","id":5,"geometry":{"type":"Point","coordinates":[54.044964714872101,17.035000875108636]},"properties":{"OBJECTID":5,"Asset_ID":"IND5","Name":"مصنع اثير صلالة للاسفنج والمراتب\r\n","District_ID":"New Industrial Area","Gov_ID":"Dhofar Governorate","Wlyt_ID":"Salalah","Road_ID":"105221","Latitude":17.035000879999998,"Longitude":54.044964710000002,"GlobalID":"{538EECE0-B8E8-483C-9835-8AD6DCA8C978}","Facility_Type":3}},{"type":"Feature","id":6,"geometry":{"type":"Point","coordinates":[54.046170939397967,17.034499289074354]},"properties":{"OBJECTID":6,"Asset_ID":"IND6","Name":"صنع الحشايا _المراتب_ بمختلف انواعها ","District_ID":"New Industrial Area","Gov_ID":"Dhofar Governorate","Wlyt_ID":"Salalah","Road_ID":"105221","Latitude":17.034499289999999,"Longitude":54.046170940000003,"GlobalID":"{1A3117FA-A153-4870-82CF-7808E1EA1425}","Facility_Type":3}},{"type":"Feature","id":7,"geometry":{"type":"Point","coordinates":[54.045383403456341,17.034045079008884]},"properties":{"OBJECTID":7,"Asset_ID":"IND7","Name":"مخازن","District_ID":"New Industrial Area","Gov_ID":"Dhofar Governorate","Wlyt_ID":"Salalah","Road_ID":"105262","Latitude":17.034045079999999,"Longitude":54.045383399999999,"GlobalID":"{36CB0B47-5D76-4C2B-BC81-8268D248F3D6}","Facility_Type":2}},{"type":"Feature","id":8,"geometry":{"type":"Point","coordinates":[54.047368316416552,17.033217727314188]},"properties":{"OBJECTID":8,"Asset_ID":"IND8","Name":"BIRBA Marketing Company","District_ID":"New Industrial Area","Gov_ID":"Dhofar Governorate","Wlyt_ID":"Salalah","Road_ID":"105213","Latitude":17.033217730000001,"Longitude":54.047368319999997,"GlobalID":"{1289B872-D65F-49FD-8C7B-660F7F92118B}","Facility_Type":3}},{"type":"Feature","id":9,"geometry":{"type":"Point","coordinates":[54.048831905576378,17.033581242905154]},"properties":{"OBJECTID":9,"Asset_ID":"IND9","Name":"مستودع البضائع","District_ID":"New Industrial Area","Gov_ID":"Dhofar Governorate","Wlyt_ID":"Salalah","Road_ID":"105213","Latitude":17.03358124,"Longitude":54.048831909999997,"GlobalID":"{CEA89DF4-6D6B-47D5-9EE8-B081D96D58CF}","Facility_Type":2}},{"type":"Feature","id":10,"geometry":{"type":"Point","coordinates":[54.051862401831741,17.033542231249957]},"properties":{"OBJECTID":10,"Asset_ID":"IND10","Name":"مستودع المسافي","District_ID":"New Industrial Area","Gov_ID":"Dhofar Governorate","Wlyt_ID":"Salalah","Road_ID":"105213","Latitude":17.033542229999998,"Longitude":54.051862399999997,"GlobalID":"{AD0EBA64-2D84-4070-810C-AFEFF0889F95}","Facility_Type":2}},{"type":"Feature","id":11,"geometry":{"type":"Point","coordinates":[54.048959788841913,17.032153363783063]},"properties":{"OBJECTID":11,"Asset_ID":"IND11","Name":"مخازن مواد الغذائية بالجملة","District_ID":"New Industrial Area","Gov_ID":"Dhofar Governorate","Wlyt_ID":"Salalah","Road_ID":"105216","Latitude":17.032153359999999,"Longitude":54.048959789999998,"GlobalID":"{B90377E1-02A2-4D89-B39F-64B275BE08B4}","Facility_Type":2}},{"type":"Feature","id":12,"geometry":{"type":"Point","coordinates":[54.044958883907604,17.03069520963323]},"properties":{"OBJECTID":12,"Asset_ID":"IND12","Name":"مصنعون و موردون  الاكياس البلاستيك","District_ID":"New Industrial Area","Gov_ID":"Dhofar Governorate","Wlyt_ID":"Salalah","Road_ID":"105195","Latitude":17.030695210000001,"Longitude":54.044958880000003,"GlobalID":"{F7E0E0EC-0AA5-4129-ADBE-2D3D1A9CBA0E}","Facility_Type":3}},{"type":"Feature","id":13,"geometry":{"type":"Point","coordinates":[54.038932067801824,17.029980992863049]},"properties":{"OBJECTID":13,"Asset_ID":"IND13","Name":"المخازن المتنوعة العامة","District_ID":"New Industrial Area","Gov_ID":"Dhofar Governorate","Wlyt_ID":"Salalah","Road_ID":"105248","Latitude":17.029980989999999,"Longitude":54.038932070000001,"GlobalID":"{E401561D-B7E5-46AD-9244-58042F1FABEC}","Facility_Type":2}},{"type":"Feature","id":14,"geometry":{"type":"Point","coordinates":[54.03886399616453,17.030102836577409]},"properties":{"OBJECTID":14,"Asset_ID":"IND14","Name":"مستودع","District_ID":"New Industrial Area","Gov_ID":"Dhofar Governorate","Wlyt_ID":"Salalah","Road_ID":"105248","Latitude":17.030102840000001,"Longitude":54.038863999999997,"GlobalID":"{9B4B086A-438B-4A89-BC60-1447261646A6}","Facility_Type":2}},{"type":"Feature","id":15,"geometry":{"type":"Point","coordinates":[54.039646844696975,17.031057087011746]},"properties":{"OBJECTID":15,"Asset_ID":"IND15","Name":"Winners diamond llc (Paricott)\r\n","District_ID":"New Industrial Area","Gov_ID":"Dhofar Governorate","Wlyt_ID":"Salalah","Road_ID":"105228","Latitude":17.031057090000001,"Longitude":54.039646840000003,"GlobalID":"{63672B0B-C997-4D46-913E-B80542004B57}","Facility_Type":3}},{"type":"Feature","id":16,"geometry":{"type":"Point","coordinates":[54.036846341408847,17.031205168315388]},"properties":{"OBJECTID":16,"Asset_ID":"IND16","Name":"صنع الورق بجميع اشكاله و التغليف","District_ID":"New Industrial Area","Gov_ID":"Dhofar Governorate","Wlyt_ID":"Salalah","Road_ID":"105249","Latitude":17.03120517,"Longitude":54.036846339999997,"GlobalID":"{2742542E-2F88-4195-BCAF-7F47FE4A52F2}","Facility_Type":3}},{"type":"Feature","id":17,"geometry":{"type":"Point","coordinates":[54.037443848633536,17.030865582816119]},"properties":{"OBJECTID":17,"Asset_ID":"IND17","Name":"الشرکۃ الوطنیۃ للتوزیع ","District_ID":"New Industrial Area","Gov_ID":"Dhofar Governorate","Wlyt_ID":"Salalah","Road_ID":"105249","Latitude":17.03086558,"Longitude":54.037443850000002,"GlobalID":"{5C972997-CDD2-4352-8692-2529680D5C9F}","Facility_Type":3}},{"type":"Feature","id":18,"geometry":{"type":"Point","coordinates":[54.037770126626206,17.029435449748856]},"properties":{"OBJECTID":18,"Asset_ID":"IND18","Name":"مخازن الدانوب ","District_ID":"New Industrial Area","Gov_ID":"Dhofar Governorate","Wlyt_ID":"Salalah","Road_ID":"105249","Latitude":17.029435450000001,"Longitude":54.037770129999998,"GlobalID":"{827D5842-F611-43A6-AD65-70ED44EAF2BC}","Facility_Type":2}},{"type":"Feature","id":19,"geometry":{"type":"Point","coordinates":[54.03982417932059,17.032034284537879]},"properties":{"OBJECTID":19,"Asset_ID":"IND19","Name":"نستو الخدمات اللوجستية","District_ID":"New Industrial Area","Gov_ID":"Dhofar Governorate","Wlyt_ID":"Salalah","Road_ID":"105254","Latitude":17.032034280000001,"Longitude":54.039824179999997,"GlobalID":"{4222B48D-806A-421F-AC74-3BE19DAFD3E0}","Facility_Type":3}},{"type":"Feature","id":20,"geometry":{"type":"Point","coordinates":[54.04299165428376,17.031513134689504]},"properties":{"OBJECTID":20,"Asset_ID":"IND20","Name":"مصنع محيط القارات ","District_ID":"New Industrial Area","Gov_ID":"Dhofar Governorate","Wlyt_ID":"Salalah","Road_ID":"105257","Latitude":17.03151313,"Longitude":54.042991649999998,"GlobalID":"{33FAC24C-A5E3-44D0-913C-34BC6CE1453D}","Facility_Type":3}},{"type":"Feature","id":21,"geometry":{"type":"Point","coordinates":[54.046690774689921,17.0310227224508]},"properties":{"OBJECTID":21,"Asset_ID":"IND21","Name":"شركة المجموعه العمانية الدولية","District_ID":"New Industrial Area","Gov_ID":"Dhofar Governorate","Wlyt_ID":"Salalah","Road_ID":"105216","Latitude":17.031022719999999,"Longitude":54.046690769999998,"GlobalID":"{0D0892DB-9C94-4355-830E-4FB1BB7F8C80}","Facility_Type":3}},{"type":"Feature","id":22,"geometry":{"type":"Point","coordinates":[54.004025204930713,17.017036167374471]},"properties":{"OBJECTID":22,"Asset_ID":"IND22","Name":"BEC Auqad Yard","District_ID":"Auqad al Shamaliyya Extension","Gov_ID":"Dhofar Governorate","Wlyt_ID":"Salalah","Road_ID":"104610","Latitude":17.017036170000001,"Longitude":54.004025200000001,"GlobalID":"{99641B43-5BFD-4397-ADBE-39D2416F73BC}","Facility_Type":3}},{"type":"Feature","id":23,"geometry":{"type":"Point","coordinates":[54.005168042533491,16.986300684906485]},"properties":{"OBJECTID":23,"Asset_ID":"IND23","Name":"Construction of Warehouses and Supporting Utilities Services for SFZ","District_ID":"Wadi Adhan","Gov_ID":"Dhofar Governorate","Wlyt_ID":"Salalah","Road_ID":"105947","Latitude":16.986300679999999,"Longitude":54.005168040000001,"GlobalID":"{A0F383ED-570C-4E18-8B5C-A2FECBD20217}","Facility_Type":1}},{"type":"Feature","id":24,"geometry":{"type":"Point","coordinates":[54.00539476203987,16.984407434098344]},"properties":{"OBJECTID":24,"Asset_ID":"IND24","Name":"UNICEF Warehouse ","District_ID":"Wadi Adhan","Gov_ID":"Dhofar Governorate","Wlyt_ID":"Salalah","Road_ID":"105947","Latitude":16.984407430000001,"Longitude":54.005394760000001,"GlobalID":"{3496EF58-0A76-4B40-BEB0-170D1C5B3DEC}","Facility_Type":1}},{"type":"Feature","id":25,"geometry":{"type":"Point","coordinates":[54.005623549468005,16.9857960963602]},"properties":{"OBJECTID":25,"Asset_ID":"IND25","Name":"Naseem Salalah Trade and Processing Industries (SFZ) LLC","District_ID":"Wadi Adhan","Gov_ID":"Dhofar Governorate","Wlyt_ID":"Salalah","Road_ID":"105947","Latitude":16.985796100000002,"Longitude":54.005623550000003,"GlobalID":"{DE766EC0-A617-4B1B-8FA0-1D91391B4956}","Facility_Type":3}},{"type":"Feature","id":26,"geometry":{"type":"Point","coordinates":[54.008885856880752,16.987149321587356]},"properties":{"OBJECTID":26,"Asset_ID":"IND26","Name":"PEX Transgulf Manufacturing LLC","District_ID":"Wadi Adhan","Gov_ID":"Dhofar Governorate","Wlyt_ID":"Salalah","Road_ID":"106204","Latitude":16.98714932,"Longitude":54.008885859999999,"GlobalID":"{D2B77F83-068F-4C95-BCCE-B68735BE8DE1}","Facility_Type":3}},{"type":"Feature","id":27,"geometry":{"type":"Point","coordinates":[53.997728954426833,17.004952600627419]},"properties":{"OBJECTID":27,"Asset_ID":"IND27","Name":"مخازن شركه أمواج للتجارة\r\n","District_ID":"Wadi Adhan","Gov_ID":"Dhofar Governorate","Wlyt_ID":"Salalah","Road_ID":"106150","Latitude":17.004952599999999,"Longitude":53.997728950000003,"GlobalID":"{56794AC4-E2DD-4C5B-88F8-FCE939C23FC8}","Facility_Type":2}},{"type":"Feature","id":28,"geometry":{"type":"Point","coordinates":[54.001922559667697,17.007835048383551]},"properties":{"OBJECTID":28,"Asset_ID":"IND28","Name":"Unikai & Company LLC","District_ID":"Auqad al Shamaliyya","Gov_ID":"Dhofar Governorate","Wlyt_ID":"Salalah","Road_ID":"105866","Latitude":17.007835050000001,"Longitude":54.001922559999997,"GlobalID":"{0B97A2CA-7853-4CF0-83C6-60FBE15C2F55}","Facility_Type":3}},{"type":"Feature","id":29,"geometry":{"type":"Point","coordinates":[54.170759073974985,17.027671034690741]},"properties":{"OBJECTID":29,"Asset_ID":"IND29","Name":"Al Raud Warehouse Dhariz\r\n","District_ID":"Dahariz al Shamaliyya","Gov_ID":"Dhofar Governorate","Wlyt_ID":"Salalah","Road_ID":"100117","Latitude":17.02767103,"Longitude":54.170759070000003,"GlobalID":"{0658A74A-D0F6-4CEE-B004-A235645E2827}","Facility_Type":1}},{"type":"Feature","id":30,"geometry":{"type":"Point","coordinates":[54.117859632394413,17.023355219430709]},"properties":{"OBJECTID":30,"Asset_ID":"IND30","Name":"Warehouse below two\r\n","District_ID":"al Huseela","Gov_ID":"Dhofar Governorate","Wlyt_ID":"Salalah","Road_ID":"103814","Latitude":17.023355219999999,"Longitude":54.117859629999998,"GlobalID":"{E5E0C036-D96B-43E1-BC15-346775D006AB}","Facility_Type":1}},{"type":"Feature","id":31,"geometry":{"type":"Point","coordinates":[54.116929241864732,17.022351766247485]},"properties":{"OBJECTID":31,"Asset_ID":"IND31","Name":"مستودع البضائع","District_ID":"al Huseela","Gov_ID":"Dhofar Governorate","Wlyt_ID":"Salalah","Road_ID":"103815","Latitude":17.02235177,"Longitude":54.116929239999997,"GlobalID":"{B90AED94-5DE8-41EF-B7E8-E7636093826B}","Facility_Type":2}},{"type":"Feature","id":32,"geometry":{"type":"Point","coordinates":[54.117693948920021,17.02208550028093]},"properties":{"OBJECTID":32,"Asset_ID":"IND32","Name":"مخازن للايجار","District_ID":"al Huseela","Gov_ID":"Dhofar Governorate","Wlyt_ID":"Salalah","Road_ID":"103815","Latitude":17.022085499999999,"Longitude":54.117693950000003,"GlobalID":"{D0FDD5A1-FECE-4E95-B24E-6279F67DA518}","Facility_Type":2}},{"type":"Feature","id":33,"geometry":{"type":"Point","coordinates":[54.118145237365923,17.022613857292278]},"properties":{"OBJECTID":33,"Asset_ID":"IND33","Name":"Oman Pumps Mfg and Engineering Services","District_ID":"al Huseela","Gov_ID":"Dhofar Governorate","Wlyt_ID":"Salalah","Road_ID":"103815","Latitude":17.02261386,"Longitude":54.118145239999997,"GlobalID":"{015F4D68-6023-4360-B358-FC24D19F5588}","Facility_Type":3}},{"type":"Feature","id":34,"geometry":{"type":"Point","coordinates":[54.119028455563395,17.022094097630148]},"properties":{"OBJECTID":34,"Asset_ID":"IND34","Name":"مجموعة سهيل بهوان القابضة","District_ID":"al Huseela","Gov_ID":"Dhofar Governorate","Wlyt_ID":"Salalah","Road_ID":"103815","Latitude":17.0220941,"Longitude":54.119028460000003,"GlobalID":"{EC80DF63-66E5-4B4A-AEC3-9954FC369860}","Facility_Type":3}},{"type":"Feature","id":35,"geometry":{"type":"Point","coordinates":[54.117909927270539,17.024040870391083]},"properties":{"OBJECTID":35,"Asset_ID":"IND35","Name":"مستودع البضائع","District_ID":"al Huseela","Gov_ID":"Dhofar Governorate","Wlyt_ID":"Salalah","Road_ID":"103813","Latitude":17.02404087,"Longitude":54.117909930000003,"GlobalID":"{D2032D6A-1B83-4923-AD69-924DD271DF8C}","Facility_Type":2}},{"type":"Feature","id":36,"geometry":{"type":"Point","coordinates":[54.093610101779753,17.009474472390274]},"properties":{"OBJECTID":36,"Asset_ID":"IND36","Name":"مستودع البضائع","District_ID":"Salalah al Wousta","Gov_ID":"Dhofar Governorate","Wlyt_ID":"Salalah","Road_ID":"103741","Latitude":17.009474470000001,"Longitude":54.093610099999999,"GlobalID":"{48F8359E-51F9-4D60-8DEF-6EC36ADDB0F4}","Facility_Type":2}},{"type":"Feature","id":37,"geometry":{"type":"Point","coordinates":[54.074814530715869,17.012665107371646]},"properties":{"OBJECTID":37,"Asset_ID":"IND37","Name":"Baabood Real Estate LLC\r\n","District_ID":"Salalah al Jadida","Gov_ID":"Dhofar Governorate","Wlyt_ID":"Salalah","Road_ID":"104337","Latitude":17.01266511,"Longitude":54.074814529999998,"GlobalID":"{53D41A26-E28D-4C50-9555-1E678F85CC02}","Facility_Type":3}},{"type":"Feature","id":38,"geometry":{"type":"Point","coordinates":[54.07511148769764,17.012675429176646]},"properties":{"OBJECTID":38,"Asset_ID":"IND38","Name":"شركة اريج للزيوت النباتية و مشتقاتها","District_ID":"Salalah al Jadida","Gov_ID":"Dhofar Governorate","Wlyt_ID":"Salalah","Road_ID":"104337","Latitude":17.012675430000002,"Longitude":54.075111489999998,"GlobalID":"{16FCB297-E9A5-46E8-B4A5-CDB0F437181D}","Facility_Type":3}},{"type":"Feature","id":39,"geometry":{"type":"Point","coordinates":[54.141977346020916,17.095890394281597]},"properties":{"OBJECTID":39,"Asset_ID":"IND39","Name":"المخازن التجارية العامة","District_ID":null,"Gov_ID":"Dhofar Governorate","Wlyt_ID":"Salalah","Road_ID":"102221","Latitude":17.095890390000001,"Longitude":54.141977349999998,"GlobalID":"{14D9AF3C-9D39-4C55-BFE7-B0B1FB16A5A3}","Facility_Type":2}},{"type":"Feature","id":40,"geometry":{"type":"Point","coordinates":[54.142296609967808,17.096039824574035]},"properties":{"OBJECTID":40,"Asset_ID":"IND40","Name":"المخازن التجارية العامة","District_ID":null,"Gov_ID":"Dhofar Governorate","Wlyt_ID":"Salalah","Road_ID":"102220","Latitude":17.096039820000001,"Longitude":54.142296610000002,"GlobalID":"{E6269FE8-965E-4F6D-B6BB-55A698CDF7D9}","Facility_Type":2}},{"type":"Feature","id":41,"geometry":{"type":"Point","coordinates":[54.040651196218917,17.057675858071935]},"properties":{"OBJECTID":41,"Asset_ID":"IND41","Name":"EASTERN JASMIN INTERNATIONAL INVESTMENT","District_ID":null,"Gov_ID":"Dhofar Governorate","Wlyt_ID":"Salalah","Road_ID":"105116","Latitude":17.05767586,"Longitude":54.040651199999999,"GlobalID":"{D534FA64-B62B-4B18-B04F-764A35B67EFE}","Facility_Type":2}},{"type":"Feature","id":42,"geometry":{"type":"Point","coordinates":[54.208670204990106,17.034607718053788]},"properties":{"OBJECTID":42,"Asset_ID":"IND42","Name":"Nasr Al Seeb Branch Office","District_ID":"Razat","Gov_ID":"Dhofar Governorate","Wlyt_ID":"Salalah","Road_ID":null,"Latitude":17.03460772,"Longitude":54.2086702,"GlobalID":"{1CD76726-4D5C-45CA-AB02-CBFF6D128842}","Facility_Type":3}},{"type":"Feature","id":43,"geometry":{"type":"Point","coordinates":[54.208234529263819,17.034633257573795]},"properties":{"OBJECTID":43,"Asset_ID":"IND43","Name":"AL DUQHM AL BALUSHI CO LLC","District_ID":"Razat","Gov_ID":"Dhofar Governorate","Wlyt_ID":"Salalah","Road_ID":null,"Latitude":17.03463326,"Longitude":54.208234529999999,"GlobalID":"{D557C98A-3BCD-445E-BACC-8A1E4FF0191B}","Facility_Type":3}}]}