{
  "type" : "FeatureCollection",
  "crs" : {
    "type" : "name",
    "properties" : {
      "name" : "EPSG:32640"
    }
  },
  "features" : [{"type":"Feature","id":2,"geometry":{"type":"Point","coordinates":[186825.2472000001,1882614.9245999996]},"properties":{"OBJECTID":2,"Asset_ID":"JS2","Name":"توربان بيع الخناجر العمانية و الفضيات","District_ID":"al Wadi","Gov_ID":"Dhofar Governorate","Wlyt_ID":"Salalah","Road_ID":"105472","Latitude":17.006394660000002,"Longitude":54.058802540000002,"GlobalID":"{57598837-92FD-4F91-8B44-8E0942CD088A}"}},{"type":"Feature","id":3,"geometry":{"type":"Point","coordinates":[187135.98579999991,1883826.5384]},"properties":{"OBJECTID":3,"Asset_ID":"JS3","Name":"Malabar Gold and Diamonds - Salalah - Oman","District_ID":"al Wadi","Gov_ID":"Dhofar Governorate","Wlyt_ID":"Salalah","Road_ID":"105366","Latitude":17.017374740000001,"Longitude":54.061547339999997,"GlobalID":"{368A7559-1F00-4607-8F31-66178C491273}"}},{"type":"Feature","id":4,"geometry":{"type":"Point","coordinates":[187138.95349999983,1883833.9576999992]},"properties":{"OBJECTID":4,"Asset_ID":"JS4","Name":"Devji Jewellery, Lulu Hyper Market, Salalah.","District_ID":"al Wadi","Gov_ID":"Dhofar Governorate","Wlyt_ID":"Salalah","Road_ID":"105366","Latitude":17.017442119999998,"Longitude":54.061574139999998,"GlobalID":"{D24BFCF4-C8E4-4340-BA59-8C4FC844D30D}"}},{"type":"Feature","id":5,"geometry":{"type":"Point","coordinates":[187183.46939999983,1883851.0221999995]},"properties":{"OBJECTID":5,"Asset_ID":"JS5","Name":"Jawhara Jewellery Nujum mall salalah","District_ID":"al Wadi","Gov_ID":"Dhofar Governorate","Wlyt_ID":"Salalah","Road_ID":"105366","Latitude":17.01760221,"Longitude":54.061989429999997,"GlobalID":"{1B3697AD-383A-4354-8730-9746307EDC9D}"}},{"type":"Feature","id":6,"geometry":{"type":"Point","coordinates":[187187.1791000003,1883842.8608999997]},"properties":{"OBJECTID":6,"Asset_ID":"JS6","Name":"Joyalukkas Jewellery","District_ID":"al Wadi","Gov_ID":"Dhofar Governorate","Wlyt_ID":"Salalah","Road_ID":"105366","Latitude":17.017529039999999,"Longitude":54.062025390000002,"GlobalID":"{23478698-3E47-4CFB-92D5-CF336FCDD860}"}},{"type":"Feature","id":7,"geometry":{"type":"Point","coordinates":[187467.21200000029,1883786.3350000009]},"properties":{"OBJECTID":7,"Asset_ID":"JS7","Name":"Areej watch&jewellery","District_ID":"al Wadi","Gov_ID":"Dhofar Governorate","Wlyt_ID":"Salalah","Road_ID":"104372","Latitude":17.017056700000001,"Longitude":54.064660940000003,"GlobalID":"{1895D3DE-6A38-440B-80C1-4F46C0D8F27C}"}},{"type":"Feature","id":8,"geometry":{"type":"Point","coordinates":[187601.22339999955,1884453.0869999994]},"properties":{"OBJECTID":8,"Asset_ID":"JS8","Name":"Jawhara Jewellery - Salalah Gardens Mall","District_ID":"Salalah Airport","Gov_ID":"Dhofar Governorate","Wlyt_ID":"Salalah","Road_ID":"100525","Latitude":17.023094029999999,"Longitude":54.06582453,"GlobalID":"{043AF125-2075-405E-B12E-B7EB0B169472}"}},{"type":"Feature","id":9,"geometry":{"type":"Point","coordinates":[187636.24770000018,1884499.2553000003]},"properties":{"OBJECTID":9,"Asset_ID":"JS9","Name":"Knooz","District_ID":"Salalah Airport","Gov_ID":"Dhofar Governorate","Wlyt_ID":"Salalah","Road_ID":"100526","Latitude":17.02351556,"Longitude":54.066146670000002,"GlobalID":"{259196C5-7045-46F1-9AE1-942184240977}"}},{"type":"Feature","id":10,"geometry":{"type":"Point","coordinates":[187625.10360000003,1884464.2311000004]},"properties":{"OBJECTID":10,"Asset_ID":"JS10","Name":"Damas Jewellery","District_ID":"Salalah Airport","Gov_ID":"Dhofar Governorate","Wlyt_ID":"Salalah","Road_ID":"100662","Latitude":17.023197870000001,"Longitude":54.066047040000001,"GlobalID":"{0D1A32EF-CC87-4730-BA26-98621E6DAAFA}"}},{"type":"Feature","id":11,"geometry":{"type":"Point","coordinates":[189809.10089999996,1883368.7411000002]},"properties":{"OBJECTID":11,"Asset_ID":"JS11","Name":"الصائغ للخناجر و السيوف","District_ID":"Salalah al Jadida","Gov_ID":"2","Wlyt_ID":"Salalah","Road_ID":"103812","Latitude":17.01360283,"Longitude":54.086693779999997,"GlobalID":"{72B7FCED-6AF4-4719-861E-731A07EC61D1}"}},{"type":"Feature","id":12,"geometry":{"type":"Point","coordinates":[190437.18840000033,1883204.5661999993]},"properties":{"OBJECTID":12,"Asset_ID":"JS12","Name":"الذهب","District_ID":"Salalah al Wousta","Gov_ID":"2","Wlyt_ID":"Salalah","Road_ID":"104494","Latitude":17.012205030000001,"Longitude":54.092610129999997,"GlobalID":"{2943B6C5-0288-49A9-B85C-95438EF25697}"}},{"type":"Feature","id":13,"geometry":{"type":"Point","coordinates":[190432.89639999997,1883204.7528000008]},"properties":{"OBJECTID":13,"Asset_ID":"JS13","Name":"مجوهرات الغيداء","District_ID":"Salalah al Wousta","Gov_ID":"2","Wlyt_ID":"Salalah","Road_ID":"104494","Latitude":17.01220614,"Longitude":54.092569830000002,"GlobalID":"{68AADC99-4E0D-44A4-AD1C-491830F8CA0A}"}},{"type":"Feature","id":14,"geometry":{"type":"Point","coordinates":[190434.76250000019,1883193.7429000009]},"properties":{"OBJECTID":14,"Asset_ID":"JS14","Name":"Ahmed Jewellers مجوهرات احمد","District_ID":"Salalah al Wousta","Gov_ID":"2","Wlyt_ID":"Salalah","Road_ID":"103824","Latitude":17.012107,"Longitude":54.092588880000001,"GlobalID":"{41057544-38B8-4EE5-90FA-9DAE18DAF88A}"}},{"type":"Feature","id":15,"geometry":{"type":"Point","coordinates":[190421.0131000001,1883210.1272]},"properties":{"OBJECTID":15,"Asset_ID":"JS15","Name":"Bin haj jewellery","District_ID":"Salalah al Wousta","Gov_ID":"2","Wlyt_ID":"Salalah","Road_ID":"103824","Latitude":17.01225307,"Longitude":54.092457580000001,"GlobalID":"{ED7CEDD3-35C0-46F4-98C2-30897D77E8DC}"}},{"type":"Feature","id":16,"geometry":{"type":"Point","coordinates":[190441.79389999993,1883193.8847000003]},"properties":{"OBJECTID":16,"Asset_ID":"JS16","Name":"مجوهـرات فائل مبارك","District_ID":"Salalah al Wousta","Gov_ID":"2","Wlyt_ID":"Salalah","Road_ID":"104494","Latitude":17.012109219999999,"Longitude":54.092654830000001,"GlobalID":"{E8E9C26E-A198-455E-A20C-A7C93E749270}"}},{"type":"Feature","id":17,"geometry":{"type":"Point","coordinates":[190445.8546000002,1883204.9916999992]},"properties":{"OBJECTID":17,"Asset_ID":"JS17","Name":"Faeel Mubarak Jewellers L.L.C","District_ID":"Salalah al Wousta","Gov_ID":"2","Wlyt_ID":"Salalah","Road_ID":"104494","Latitude":17.012210039999999,"Longitude":54.092691389999999,"GlobalID":"{54E40329-95E1-4CA7-B210-708BE1D8AE9E}"}},{"type":"Feature","id":18,"geometry":{"type":"Point","coordinates":[190453.0203999998,1883205.9471000005]},"properties":{"OBJECTID":18,"Asset_ID":"JS18","Name":"مجوهـرات بيت الفضة","District_ID":"Salalah al Wousta","Gov_ID":"2","Wlyt_ID":"Salalah","Road_ID":"104494","Latitude":17.012219630000001,"Longitude":54.092758490000001,"GlobalID":"{BE596980-84C6-4B4C-8435-2331F74CA55C}"}},{"type":"Feature","id":19,"geometry":{"type":"Point","coordinates":[190468.78519999981,1883195.9149999991]},"properties":{"OBJECTID":19,"Asset_ID":"JS19","Name":"بلقيس للمجوهرات","District_ID":"Salalah al Wousta","Gov_ID":"2","Wlyt_ID":"Salalah","Road_ID":"104494","Latitude":17.01213117,"Longitude":54.09290781,"GlobalID":"{9D5F7E36-95CD-4962-A8B8-B1777BE322D8}"}},{"type":"Feature","id":20,"geometry":{"type":"Point","coordinates":[190433.64279999956,1883178.2543000001]},"properties":{"OBJECTID":20,"Asset_ID":"JS20","Name":"Arham Jewellers","District_ID":"Salalah al Wousta","Gov_ID":"2","Wlyt_ID":"Salalah","Road_ID":"104493","Latitude":17.01196702,"Longitude":54.092580529999999,"GlobalID":"{EA39F36E-6278-4A57-BCD4-5B2ACAA8D91B}"}},{"type":"Feature","id":21,"geometry":{"type":"Point","coordinates":[190467.97900000028,1883178.6274999995]},"properties":{"OBJECTID":21,"Asset_ID":"JS21","Name":"Kanz al dahab jewellery","District_ID":"Salalah al Wousta","Gov_ID":"2","Wlyt_ID":"Salalah","Road_ID":"104493","Latitude":17.011974989999999,"Longitude":54.09290266,"GlobalID":"{3F92C8C7-695D-479B-B4BF-17459287BEFD}"}},{"type":"Feature","id":22,"geometry":{"type":"Point","coordinates":[190481.41490000021,1883196.9152000006]},"properties":{"OBJECTID":22,"Asset_ID":"JS22","Name":"الرميزان للذهب والمجموهرات","District_ID":"Salalah al Wousta","Gov_ID":"2","Wlyt_ID":"Salalah","Road_ID":"104494","Latitude":17.0121419,"Longitude":54.093026180000003,"GlobalID":"{BC560E34-04F5-4E23-8F7D-106D6327A293}"}},{"type":"Feature","id":23,"geometry":{"type":"Point","coordinates":[190423.56589999981,1883184.4123999998]},"properties":{"OBJECTID":23,"Asset_ID":"JS23","Name":"saidaty jewelery","District_ID":"Salalah al Wousta","Gov_ID":"2","Wlyt_ID":"Salalah","Road_ID":"103824","Latitude":17.012021260000001,"Longitude":54.092485119999999,"GlobalID":"{DC582023-35A7-478C-A73B-E95C01FE3FAA}"}},{"type":"Feature","id":24,"geometry":{"type":"Point","coordinates":[190423.99880000018,1883167.2518000007]},"properties":{"OBJECTID":24,"Asset_ID":"JS24","Name":"محل السبائك الشاملة","District_ID":"Salalah al Wousta","Gov_ID":"2","Wlyt_ID":"Salalah","Road_ID":"104493","Latitude":17.011866399999999,"Longitude":54.09249157,"GlobalID":"{BE635BA6-5D12-4BE5-8F27-A08CB50B54FB}"}}]
}