{
  "type" : "FeatureCollection",
  "crs" : {
    "type" : "name",
    "properties" : {
      "name" : "EPSG:32640"
    }
  },
  "features" : [{"type":"Feature","id":1,"geometry":{"type":"Point","coordinates":[196572.20770000014,1886452.2002000008]},"properties":{"OBJECTID":1,"Asset_ID":"MSQ1","Name":"مسجد نور الرحمن السعادة الجنوبية\r\n","District_ID":"al Sada al Janubiyya","Gov_ID":"Dohfar Governorate","Wlyt_ID":"Salalah","Road_ID":"100235","Latitude":17.042340459999998,"Longitude":54.149733070000003,"GlobalID":"{21E6DF8E-C320-43BE-B227-2504ABA5654A}"}},{"type":"Feature","id":2,"geometry":{"type":"Point","coordinates":[197377.08690000046,1886175.3060999997]},"properties":{"OBJECTID":2,"Asset_ID":"MSQ2","Name":"جامع فاطمة الزهراء السعادة الجنوبية\r\n","District_ID":"al Sada al Janubiyya","Gov_ID":"Dohfar Governorate","Wlyt_ID":"Salalah","Road_ID":"100243","Latitude":17.039946459999999,"Longitude":54.157324780000003,"GlobalID":"{EED7E144-586E-42CE-A538-C36CCAD91C6B}"}},{"type":"Feature","id":3,"geometry":{"type":"Point","coordinates":[197517.20720000006,1884964.9374000002]},"properties":{"OBJECTID":3,"Asset_ID":"MSQ3","Name":"مسجد السيدة مريم بنت عمران","District_ID":"Dahariz al Shamaliyya","Gov_ID":"Dohfar Governorate","Wlyt_ID":"Salalah","Road_ID":"100148","Latitude":17.029037240000001,"Longitude":54.158804969999998,"GlobalID":"{D9FD7F0B-23E2-4551-AB08-CF6E81B5482B}"}},{"type":"Feature","id":4,"geometry":{"type":"Point","coordinates":[198238.35730000027,1885789.6917000003]},"properties":{"OBJECTID":4,"Asset_ID":"MSQ4","Name":"مسجد الرباط","District_ID":"al Sada al Janubiyya","Gov_ID":"Dohfar Governorate","Wlyt_ID":"Salalah","Road_ID":"100353","Latitude":17.03657797,"Longitude":54.165460379999999,"GlobalID":"{D7639FC7-95AE-4E73-A1EF-515351438FF9}"}},{"type":"Feature","id":5,"geometry":{"type":"Point","coordinates":[187634.92119999975,1883835.2762000002]},"properties":{"OBJECTID":5,"Asset_ID":"MSQ5","Name":"جامع بلال بن شوين","District_ID":"al Wadi","Gov_ID":"Dohfar Governorate","Wlyt_ID":"Salalah","Road_ID":"104361","Latitude":17.017558380000001,"Longitude":54.066218810000002,"GlobalID":"{F8333DA2-C7E2-42CA-AD70-3891864B1E92}"}},{"type":"Feature","id":6,"geometry":{"type":"Point","coordinates":[186911.31769999955,1882781.7993000001]},"properties":{"OBJECTID":6,"Asset_ID":"MSQ6","Name":"مسجدالبر","District_ID":"al Wadi","Gov_ID":"Dohfar Governorate","Wlyt_ID":"Salalah","Road_ID":"105542","Latitude":17.007939480000001,"Longitude":54.059604759999999,"GlobalID":"{F1748257-5059-49F0-A01D-F4B36FBE6144}"}},{"type":"Feature","id":7,"geometry":{"type":"Point","coordinates":[188484.44060000032,1883222.4561000001]},"properties":{"OBJECTID":7,"Asset_ID":"MSQ7","Name":"مسجد البلوش","District_ID":"Salalah al Jadida","Gov_ID":"Dohfar Governorate","Wlyt_ID":"Salalah","Road_ID":"104306","Latitude":17.012103759999999,"Longitude":54.074284900000002,"GlobalID":"{065DEDBE-3DB4-49A1-9AF3-EB5B4B78D4E4}"}},{"type":"Feature","id":8,"geometry":{"type":"Point","coordinates":[188688.04129999969,1883426.1352999993]},"properties":{"OBJECTID":8,"Asset_ID":"MSQ8","Name":"جامع السيدة نــــور صلالة","District_ID":"Salalah al Jadida","Gov_ID":"Dohfar Governorate","Wlyt_ID":"Salalah","Road_ID":"104309","Latitude":17.01396999,"Longitude":54.076166729999997,"GlobalID":"{A10C2739-F913-4738-9840-7E791EE96D2B}"}},{"type":"Feature","id":9,"geometry":{"type":"Point","coordinates":[188767.66229999997,1884090.6018000003]},"properties":{"OBJECTID":9,"Asset_ID":"MSQ9","Name":"Al-habshe Mosque","District_ID":"Salalah al Jadida","Gov_ID":"Dohfar Governorate","Wlyt_ID":"Salalah","Road_ID":"104293","Latitude":17.019979339999999,"Longitude":54.076820640000001,"GlobalID":"{CABAD280-6B88-4DD0-8A2F-3F5D3080A72C}"}},{"type":"Feature","id":10,"geometry":{"type":"Point","coordinates":[189129.72070000041,1883341.9136999995]},"properties":{"OBJECTID":10,"Asset_ID":"MSQ10","Name":"مسجد علي بن أبي طالب","District_ID":"Salalah al Jadida","Gov_ID":"Dohfar Governorate","Wlyt_ID":"Salalah","Road_ID":"104243","Latitude":17.013269210000001,"Longitude":54.080322840000001,"GlobalID":"{6A5C4EF5-A8AE-4293-B396-0EF5BCE34193}"}},{"type":"Feature","id":11,"geometry":{"type":"Point","coordinates":[189270.51269999985,1884032.1569999997]},"properties":{"OBJECTID":11,"Asset_ID":"MSQ11","Name":"Al Ghassani mousque","District_ID":"Salalah al Jadida","Gov_ID":"Dohfar Governorate","Wlyt_ID":"Salalah","Road_ID":"104277","Latitude":17.019545950000001,"Longitude":54.081549520000003,"GlobalID":"{5DCE6654-9C8F-49BA-8B71-FF7120FE6B64}"}},{"type":"Feature","id":12,"geometry":{"type":"Point","coordinates":[189432.39020000026,1883755.5193000007]},"properties":{"OBJECTID":12,"Asset_ID":"MSQ12","Name":"مسجد الكــــاف صلالة الجديدة","District_ID":"Salalah al Jadida","Gov_ID":"Dohfar Governorate","Wlyt_ID":"Salalah","Road_ID":"104225","Latitude":17.017043900000001,"Longitude":54.083104949999999,"GlobalID":"{7A599540-A990-4482-8174-FB176C6182D9}"}},{"type":"Feature","id":13,"geometry":{"type":"Point","coordinates":[189631.93130000029,1884048.1439999994]},"properties":{"OBJECTID":13,"Asset_ID":"MSQ13","Name":"Masjid Umar Al-Rawass","District_ID":"Salalah al Jadida","Gov_ID":"Dohfar Governorate","Wlyt_ID":"Salalah","Road_ID":"104189","Latitude":17.019773610000001,"Longitude":54.084863460000001,"GlobalID":"{1734111A-10B6-4543-9CD9-A4CD4FDDFCBC}"}},{"type":"Feature","id":14,"geometry":{"type":"Point","coordinates":[189998.16700000037,1883607.5304000005]},"properties":{"OBJECTID":14,"Asset_ID":"MSQ14","Name":"Masjid Umar Al-Rawass","District_ID":"Salalah al Jadida","Gov_ID":"Dohfar Governorate","Wlyt_ID":"Salalah","Road_ID":"104205","Latitude":17.015783979999998,"Longitude":54.088434470000003,"GlobalID":"{A2A4BF56-7F64-4657-B911-EF9994F4295B}"}},{"type":"Feature","id":15,"geometry":{"type":"Point","coordinates":[199083.40930000041,1883339.9759]},"properties":{"OBJECTID":15,"Asset_ID":"MSQ15","Name":"مسجد التقوى الدهاريز الجنوبية\r\n","District_ID":"Dahariz al Janubiyya","Gov_ID":"Dohfar Governorate","Wlyt_ID":"Salalah","Road_ID":"100126","Latitude":17.014612570000001,"Longitude":54.1736991,"GlobalID":"{F61A8923-D549-47C5-9F31-AEC2D590AD8F}"}},{"type":"Feature","id":16,"geometry":{"type":"Point","coordinates":[198228.62760000024,1883083.0657000002]},"properties":{"OBJECTID":16,"Asset_ID":"MSQ16","Name":"جامع الشيخ عبدالعزيز بن أحمد بن عفيف","District_ID":"Dahariz al Janubiyya","Gov_ID":"Dohfar Governorate","Wlyt_ID":"Salalah","Road_ID":"100016","Latitude":17.012185349999999,"Longitude":54.165731049999998,"GlobalID":"{58B14440-889E-4317-83ED-BA0597B6B1AF}"}},{"type":"Feature","id":17,"geometry":{"type":"Point","coordinates":[197977.04710000008,1883071.9437000006]},"properties":{"OBJECTID":17,"Asset_ID":"MSQ17","Name":"مسجد الحداد\r\n","District_ID":"Dahariz al Janubiyya","Gov_ID":"Dohfar Governorate","Wlyt_ID":"Salalah","Road_ID":"100037","Latitude":17.012006849999999,"Longitude":54.163378010000002,"GlobalID":"{2EC9AD9F-A2FF-4E19-BED1-8E4F35D29E93}"}},{"type":"Feature","id":18,"geometry":{"type":"Point","coordinates":[197612.74729999993,1882930.7594000008]},"properties":{"OBJECTID":18,"Asset_ID":"MSQ18","Name":"جامع أبو بكر الصديق الدهاريز","District_ID":"Dahariz al Janubiyya","Gov_ID":"Dohfar Governorate","Wlyt_ID":"Salalah","Road_ID":"100035","Latitude":17.010738029999999,"Longitude":54.15994121,"GlobalID":"{F1308C05-5D4B-4607-8AB0-2FE84037C938}"}},{"type":"Feature","id":19,"geometry":{"type":"Point","coordinates":[197495.99839999992,1882995.5640999991]},"properties":{"OBJECTID":19,"Asset_ID":"MSQ19","Name":"مسجد الرحمة الدهاريز الجنوبية","District_ID":"Dahariz al Janubiyya","Gov_ID":"Dohfar Governorate","Wlyt_ID":"Salalah","Road_ID":"100032","Latitude":17.01125425,"Longitude":54.158874410000003,"GlobalID":"{4A1D5052-D5E9-42CE-8981-E5512D1A1509}"}},{"type":"Feature","id":20,"geometry":{"type":"Point","coordinates":[197955.64809999987,1884006.6267000008]},"properties":{"OBJECTID":20,"Asset_ID":"MSQ20","Name":"مسجد منى\r\n","District_ID":"Dahariz al Shamaliyya","Gov_ID":"Dohfar Governorate","Wlyt_ID":"Salalah","Road_ID":"100056","Latitude":17.02047847,"Longitude":54.163035639999997,"GlobalID":"{0120DD63-7088-4BDB-85F4-A95B29568693}"}},{"type":"Feature","id":21,"geometry":{"type":"Point","coordinates":[198629.24010000005,1896534.2728000004]},"properties":{"OBJECTID":21,"Asset_ID":"MSQ21","Name":"مسجد سهل اطلحيتي\r\n","District_ID":null,"Gov_ID":"Dohfar Governorate","Wlyt_ID":"Salalah","Road_ID":"101892","Latitude":17.133635229999999,"Longitude":54.167663099999999,"GlobalID":"{F7554BBC-83AA-4160-BDE6-9839C38B11A6}"}},{"type":"Feature","id":22,"geometry":{"type":"Point","coordinates":[189766.875,1891616.4332999997]},"properties":{"OBJECTID":22,"Asset_ID":"MSQ22","Name":"مسجد النجر\r\n","District_ID":null,"Gov_ID":"Dohfar Governorate","Wlyt_ID":"Salalah","Road_ID":"102332","Latitude":17.088055229999998,"Longitude":54.085142130000001,"GlobalID":"{4EA40718-D53A-4DC4-BEA2-08B7F91C82AF}"}},{"type":"Feature","id":23,"geometry":{"type":"Point","coordinates":[196846.52290000021,1886221.5675000008]},"properties":{"OBJECTID":23,"Asset_ID":"MSQ23","Name":"جامع السيدة خديجة بنت خويلد السعادة الجنوبية\r\n","District_ID":"al Sada al Janubiyya","Gov_ID":"Dohfar Governorate","Wlyt_ID":"Salalah","Road_ID":"100231","Latitude":17.040294360000001,"Longitude":54.152339099999999,"GlobalID":"{F4ED9027-3BF9-4AEE-9B45-7232B6574662}"}},{"type":"Feature","id":24,"geometry":{"type":"Point","coordinates":[184872.41820000019,1889624.8704000004]},"properties":{"OBJECTID":24,"Asset_ID":"MSQ24","Name":"مسجد عبد الرحمن بن عوف\r\n","District_ID":null,"Gov_ID":"Dohfar Governorate","Wlyt_ID":"Salalah","Road_ID":"104717","Latitude":17.06941041,"Longitude":54.03948355,"GlobalID":"{6BAFCA3A-F2B9-491A-840D-1A8452AF11E9}"}},{"type":"Feature","id":25,"geometry":{"type":"Point","coordinates":[197650.89169999957,1883985.0230999999]},"properties":{"OBJECTID":25,"Asset_ID":"MSQ25","Name":"جامع الحداد","District_ID":"Dahariz al Shamaliyya","Gov_ID":"Dohfar Governorate","Wlyt_ID":"Salalah","Road_ID":"100066","Latitude":17.020179129999999,"Longitude":54.160237440000003,"GlobalID":"{C40482BD-52CF-44FE-B56A-A3DE83E03138}"}},{"type":"Feature","id":26,"geometry":{"type":"Point","coordinates":[195857.93499999959,1885747.8950999994]},"properties":{"OBJECTID":26,"Asset_ID":"MSQ26","Name":"مصلى محطة شل السعادة\r\n","District_ID":"al Sada al Janubiyya","Gov_ID":"Dohfar Governorate","Wlyt_ID":"Salalah","Road_ID":"100390","Latitude":17.035887630000001,"Longitude":54.143126219999999,"GlobalID":"{D0F5CE04-2274-4C31-BDB8-B5A3D06598A3}"}},{"type":"Feature","id":27,"geometry":{"type":"Point","coordinates":[200763.90500000026,1894819.8451000005]},"properties":{"OBJECTID":27,"Asset_ID":"MSQ27","Name":"مسجد صفق\r\n","District_ID":null,"Gov_ID":"Dohfar Governorate","Wlyt_ID":"Salalah","Road_ID":"101956","Latitude":17.118436450000001,"Longitude":54.187940259999998,"GlobalID":"{D3EA30FE-4BDF-4805-B08C-D73DAA45EBE7}"}},{"type":"Feature","id":28,"geometry":{"type":"Point","coordinates":[184812.66500000004,1888549.0998999998]},"properties":{"OBJECTID":28,"Asset_ID":"MSQ28","Name":"مسجد شاه أعون","District_ID":null,"Gov_ID":"Dohfar Governorate","Wlyt_ID":"Salalah","Road_ID":"105116","Latitude":17.05969086,"Longitude":54.039075990000001,"GlobalID":"{6255CBC6-B9DD-4BCB-B29F-A06B394BD3BF}"}},{"type":"Feature","id":29,"geometry":{"type":"Point","coordinates":[196952.19000000041,1892349.7613999993]},"properties":{"OBJECTID":29,"Asset_ID":"MSQ29","Name":"جامع زين العابدين السعادة الشمالية\r\n","District_ID":"al Sada al Shamaliyya","Gov_ID":"Dohfar Governorate","Wlyt_ID":"Salalah","Road_ID":"102553","Latitude":17.09563524,"Longitude":54.152491150000003,"GlobalID":"{09713D48-0140-405D-BF46-17F3CE0BE8A7}"}},{"type":"Feature","id":30,"geometry":{"type":"Point","coordinates":[190099.35500000045,1884333.8021000009]},"properties":{"OBJECTID":30,"Asset_ID":"MSQ30","Name":"Mosque New Salalah","District_ID":"Salalah al Jadida","Gov_ID":"Dohfar Governorate","Wlyt_ID":"Salalah","Road_ID":"104378","Latitude":17.02235421,"Longitude":54.089282529999998,"GlobalID":"{5A2346CD-77A5-4B67-89D2-1573456DF3F0}"}},{"type":"Feature","id":31,"geometry":{"type":"Point","coordinates":[188103.24990000017,1883981.7051999997]},"properties":{"OBJECTID":31,"Asset_ID":"MSQ31","Name":"مسجد حمزة بن عبدالمطلب الوادي صلالة\r\n","District_ID":"al Wadi","Gov_ID":"Dohfar Governorate","Wlyt_ID":"Salalah","Road_ID":"104345","Latitude":17.018906510000001,"Longitude":54.070601529999998,"GlobalID":"{712263CF-E5D3-438A-9266-795A5F89FC68}"}},{"type":"Feature","id":32,"geometry":{"type":"Point","coordinates":[189458.39630000014,1883412.8005999997]},"properties":{"OBJECTID":32,"Asset_ID":"MSQ32","Name":"مسجد علي بن أبي طالب","District_ID":"Salalah al Jadida","Gov_ID":"Dohfar Governorate","Wlyt_ID":"Salalah","Road_ID":"104221","Latitude":17.01395342,"Longitude":54.083396909999998,"GlobalID":"{DE6D65D2-07B2-493D-961B-63A5F424578A}"}},{"type":"Feature","id":33,"geometry":{"type":"Point","coordinates":[189245.5700000003,1884383.4885000009]},"properties":{"OBJECTID":33,"Asset_ID":"MSQ33","Name":"Abbas Al-Ajmi Mosque","District_ID":"Salalah al Jadida","Gov_ID":"Dohfar Governorate","Wlyt_ID":"Salalah","Road_ID":"104294","Latitude":17.022687879999999,"Longitude":54.081264019999999,"GlobalID":"{5557883B-A62E-4068-A0DC-E71C900686D3}"}},{"type":"Feature","id":34,"geometry":{"type":"Point","coordinates":[187150.69060000032,1882446.6289000008]},"properties":{"OBJECTID":34,"Asset_ID":"MSQ34","Name":"Masjid Sheikh Essa","District_ID":"al Wadi","Gov_ID":"Dohfar Governorate","Wlyt_ID":"Salalah","Road_ID":"105380","Latitude":17.004919480000002,"Longitude":54.061879740000002,"GlobalID":"{CE5E4B6A-A1F9-47CC-BFAE-3A407D6A8B27}"}},{"type":"Feature","id":35,"geometry":{"type":"Point","coordinates":[187973.85240000021,1882881.6139000002]},"properties":{"OBJECTID":35,"Asset_ID":"MSQ35","Name":"جامع النداء","District_ID":"al Wadi","Gov_ID":"Dohfar Governorate","Wlyt_ID":"Salalah","Road_ID":"104326","Latitude":17.008957769999999,"Longitude":54.069541979999997,"GlobalID":"{C9C5F60F-C97F-433F-B3A9-E6E94CFD74B6}"}},{"type":"Feature","id":36,"geometry":{"type":"Point","coordinates":[186858.78450000007,1883223.3015000001]},"properties":{"OBJECTID":36,"Asset_ID":"MSQ36","Name":"مسجد معاذ بن جبل\r\n","District_ID":"al Wadi","Gov_ID":"Dohfar Governorate","Wlyt_ID":"Salalah","Road_ID":"105342","Latitude":17.011891370000001,"Longitude":54.059031419999997,"GlobalID":"{85BF846E-A994-43DE-9165-E0B08632C208}"}},{"type":"Feature","id":37,"geometry":{"type":"Point","coordinates":[188988.78749999963,1883175.7168000005]},"properties":{"OBJECTID":37,"Asset_ID":"MSQ37","Name":"Masjid Al-Barami","District_ID":"Salalah al Jadida","Gov_ID":"Dohfar Governorate","Wlyt_ID":"Salalah","Road_ID":"104306","Latitude":17.01174984,"Longitude":54.079023730000003,"GlobalID":"{64AD20F2-3050-42B7-9809-2AE64CEB13A8}"}},{"type":"Feature","id":38,"geometry":{"type":"Point","coordinates":[189906.78299999982,1884160.4563999996]},"properties":{"OBJECTID":38,"Asset_ID":"MSQ38","Name":"Masjid Al Rahma","District_ID":"Salalah al Jadida","Gov_ID":"Dohfar Governorate","Wlyt_ID":"Salalah","Road_ID":"104252","Latitude":17.020802,"Longitude":54.087518619999997,"GlobalID":"{1CEBA2D4-6B1C-4B08-AB70-4C67791E90D4}"}},{"type":"Feature","id":39,"geometry":{"type":"Point","coordinates":[187032.68560000043,1883727.9247999992]},"properties":{"OBJECTID":39,"Asset_ID":"MSQ39","Name":"Hafeez Al-Dhib Mosque","District_ID":"al Wadi","Gov_ID":"Dohfar Governorate","Wlyt_ID":"Salalah","Road_ID":"105369","Latitude":17.01645164,"Longitude":54.060584290000001,"GlobalID":"{8D1D5268-25CF-405E-81A7-F9DE8E897FE0}"}},{"type":"Feature","id":40,"geometry":{"type":"Point","coordinates":[197394.2444000002,1892410.8943000007]},"properties":{"OBJECTID":40,"Asset_ID":"MSQ40","Name":"مسجد الزلفى السعادة الشمالية\r\n","District_ID":"al Sada al Shamaliyya","Gov_ID":"Dohfar Governorate","Wlyt_ID":"Salalah","Road_ID":"102517","Latitude":17.09624548,"Longitude":54.156632690000002,"GlobalID":"{873A8C25-051B-4D48-A519-C6118FC5F383}"}},{"type":"Feature","id":41,"geometry":{"type":"Point","coordinates":[202619.18149999995,1895011.3924000002]},"properties":{"OBJECTID":41,"Asset_ID":"MSQ41","Name":"مسجد سهل أرزات\r\n","District_ID":null,"Gov_ID":"Dohfar Governorate","Wlyt_ID":"Salalah","Road_ID":"102028","Latitude":17.120407289999999,"Longitude":54.20533416,"GlobalID":"{CF6D6C56-CFE3-4BF1-AAF9-70DCFC478CD4}"}},{"type":"Feature","id":42,"geometry":{"type":"Point","coordinates":[200074.38090000022,1893267.8255000003]},"properties":{"OBJECTID":42,"Asset_ID":"MSQ42","Name":"مسجد البراء بن مالك\r\n","District_ID":null,"Gov_ID":"Dohfar Governorate","Wlyt_ID":"Salalah","Road_ID":"101980","Latitude":17.104334000000001,"Longitude":54.181677260000001,"GlobalID":"{7ABF7F51-7FB4-45A9-AB78-418C07EA6EE0}"}},{"type":"Feature","id":43,"geometry":{"type":"Point","coordinates":[200088.46289999969,1896229.5890999995]},"properties":{"OBJECTID":43,"Asset_ID":"MSQ43","Name":"مسجد طوات\r\n","District_ID":null,"Gov_ID":"Dohfar Governorate","Wlyt_ID":"Salalah","Road_ID":"101859","Latitude":17.131075970000001,"Longitude":54.181406520000003,"GlobalID":"{5D515D10-2D25-4B29-ADBD-7FA5E7D2D5A8}"}},{"type":"Feature","id":44,"geometry":{"type":"Point","coordinates":[197567.78749999963,1895453.5909000002]},"properties":{"OBJECTID":44,"Asset_ID":"MSQ44","Name":" مسجد الصمد","District_ID":null,"Gov_ID":"Dohfar Governorate","Wlyt_ID":"Salalah","Road_ID":"101861","Latitude":17.123738639999999,"Longitude":54.157844670000003,"GlobalID":"{59294171-A18E-401A-86CA-56EB3D27F7F4}"}},{"type":"Feature","id":45,"geometry":{"type":"Point","coordinates":[196212.39360000007,1892572.0116000008]},"properties":{"OBJECTID":45,"Asset_ID":"MSQ45","Name":"جامع ظفار\r\n","District_ID":null,"Gov_ID":"Dohfar Governorate","Wlyt_ID":"Salalah","Road_ID":"102167","Latitude":17.097543980000001,"Longitude":54.145515539999998,"GlobalID":"{2BBB5DF9-AD3A-410C-9AB2-1AF45EB8D4AF}"}},{"type":"Feature","id":46,"geometry":{"type":"Point","coordinates":[195324.73739999998,1893629.2031999994]},"properties":{"OBJECTID":46,"Asset_ID":"MSQ46","Name":"مسجد","District_ID":null,"Gov_ID":"Dohfar Governorate","Wlyt_ID":"Salalah","Road_ID":"102173","Latitude":17.10697077,"Longitude":54.137036449999997,"GlobalID":"{AE8DD306-2ACD-4CBB-A4B1-C7CD9171AF89}"}},{"type":"Feature","id":47,"geometry":{"type":"Point","coordinates":[193041.29440000001,1892818.5242999997]},"properties":{"OBJECTID":47,"Asset_ID":"MSQ47","Name":"جامع شقفينوت\r\n","District_ID":null,"Gov_ID":"Dohfar Governorate","Wlyt_ID":"Salalah","Road_ID":"102189","Latitude":17.099347609999999,"Longitude":54.115711949999998,"GlobalID":"{DDD76010-7A61-4EC5-BE32-FE1348391233}"}},{"type":"Feature","id":48,"geometry":{"type":"Point","coordinates":[190478.35529999994,1891733.4447000008]},"properties":{"OBJECTID":48,"Asset_ID":"MSQ48","Name":"مسجد الغفران\r\n","District_ID":null,"Gov_ID":"Dohfar Governorate","Wlyt_ID":"Salalah","Road_ID":"102263","Latitude":17.08920758,"Longitude":54.091804310000001,"GlobalID":"{A9FEE2CA-2BBC-44BB-BC4E-881AF6CF8D4E}"}},{"type":"Feature","id":49,"geometry":{"type":"Point","coordinates":[192207.70639999956,1893540.3836000003]},"properties":{"OBJECTID":49,"Asset_ID":"MSQ49","Name":"مسجد ابو ذر الغفاري\r\n","District_ID":null,"Gov_ID":"Dohfar Governorate","Wlyt_ID":"Salalah","Road_ID":"102172","Latitude":17.10575283,"Longitude":54.107785849999999,"GlobalID":"{B1680B52-063C-4005-824F-07B3798C00CC}"}},{"type":"Feature","id":50,"geometry":{"type":"Point","coordinates":[186317.18010000046,1887417.0834999997]},"properties":{"OBJECTID":50,"Asset_ID":"MSQ50","Name":"جامع المروج\r\n","District_ID":null,"Gov_ID":"Dohfar Governorate","Wlyt_ID":"Salalah","Road_ID":"104632","Latitude":17.049677209999999,"Longitude":54.05335642,"GlobalID":"{0A0463EA-2CA6-47FE-881F-BF9D24193607}"}},{"type":"Feature","id":51,"geometry":{"type":"Point","coordinates":[185134.43429999985,1887022.5471999999]},"properties":{"OBJECTID":51,"Asset_ID":"MSQ51","Name":"جامع علي بن عبدالله بن عامر الرواس\r\n","District_ID":"Auqad al Shamaliyya Extension","Gov_ID":"Dohfar Governorate","Wlyt_ID":"Salalah","Road_ID":"104764","Latitude":17.045954120000001,"Longitude":54.042312889999998,"GlobalID":"{14AD866A-BDF9-45A2-A869-0515E5E0B41F}"}},{"type":"Feature","id":52,"geometry":{"type":"Point","coordinates":[184956.13150000013,1886387.2884999998]},"properties":{"OBJECTID":52,"Asset_ID":"MSQ52","Name":"Alsadq Alamein Mosque\r\n","District_ID":"Auqad al Shamaliyya Extension","Gov_ID":"Dohfar Governorate","Wlyt_ID":"Salalah","Road_ID":"104741","Latitude":17.040195010000001,"Longitude":54.04072996,"GlobalID":"{024AE49E-A5FD-4D85-8BA0-8EE35999CEB1}"}},{"type":"Feature","id":53,"geometry":{"type":"Point","coordinates":[183867.43859999999,1885828.6667999998]},"properties":{"OBJECTID":53,"Asset_ID":"MSQ53","Name":"جامع الأوابين\r\n","District_ID":"Auqad al Shamaliyya Extension","Gov_ID":"Dohfar Governorate","Wlyt_ID":"Salalah","Road_ID":"104737","Latitude":17.035003020000001,"Longitude":54.0305933,"GlobalID":"{EA5D9572-E192-4702-9515-E068C206BBAD}"}},{"type":"Feature","id":54,"geometry":{"type":"Point","coordinates":[182957.64719999954,1886301.8936000001]},"properties":{"OBJECTID":54,"Asset_ID":"MSQ54","Name":"جامع النافع\r\n","District_ID":"Auqad al Shamaliyya Extension","Gov_ID":"Dohfar Governorate","Wlyt_ID":"Salalah","Road_ID":"104842","Latitude":17.03914996,"Longitude":54.021988399999998,"GlobalID":"{036F7A65-5562-4FC1-9AB3-63A1DB830726}"}},{"type":"Feature","id":55,"geometry":{"type":"Point","coordinates":[183394.90579999983,1886548.0559999999]},"properties":{"OBJECTID":55,"Asset_ID":"MSQ55","Name":"مسجد الشيخ عثمان رعفيت\r\n","District_ID":"Auqad al Shamaliyya Extension","Gov_ID":"Dohfar Governorate","Wlyt_ID":"Salalah","Road_ID":"104784","Latitude":17.041432270000001,"Longitude":54.026056420000003,"GlobalID":"{AF924B12-FA2E-4410-820B-3B3A99EE1D44}"}},{"type":"Feature","id":56,"geometry":{"type":"Point","coordinates":[184437.56850000005,1886130.9509999994]},"properties":{"OBJECTID":56,"Asset_ID":"MSQ56","Name":"Ibtisam alrawas homes\r\n","District_ID":"Auqad al Shamaliyya Extension","Gov_ID":"Dohfar Governorate","Wlyt_ID":"Salalah","Road_ID":"104747","Latitude":17.03780999,"Longitude":54.035900230000003,"GlobalID":"{1DFA9EC9-097A-4771-9E1E-74F32EFC03F9}"}},{"type":"Feature","id":57,"geometry":{"type":"Point","coordinates":[183189.70120000001,1885787.9726999998]},"properties":{"OBJECTID":57,"Asset_ID":"MSQ57","Name":"مسجد نور الاسلام\r\n","District_ID":"Auqad al Shamaliyya Extension","Gov_ID":"Dohfar Governorate","Wlyt_ID":"Salalah","Road_ID":"104799","Latitude":17.034542590000001,"Longitude":54.024239420000001,"GlobalID":"{7421D3AD-AB2F-44FD-B4D3-080E0337F3BD}"}},{"type":"Feature","id":58,"geometry":{"type":"Point","coordinates":[180618.47759999987,1884956.6771000009]},"properties":{"OBJECTID":58,"Asset_ID":"MSQ58","Name":"جامع كعب بن مالك\r\n","District_ID":null,"Gov_ID":"Dohfar Governorate","Wlyt_ID":"Salalah","Road_ID":"104914","Latitude":17.026683519999999,"Longitude":54.000231939999999,"GlobalID":"{79E37FCB-FA25-4194-9719-326536D06826}"}},{"type":"Feature","id":59,"geometry":{"type":"Point","coordinates":[180384.85170000046,1883856.4362000003]},"properties":{"OBJECTID":59,"Asset_ID":"MSQ59","Name":"مسجد اليقين\r\n","District_ID":"Auqad al Shamaliyya Extension","Gov_ID":"Dohfar Governorate","Wlyt_ID":"Salalah","Road_ID":"106060","Latitude":17.016719210000002,"Longitude":53.998198299999999,"GlobalID":"{53179743-5D79-41C7-8125-427C49856238}"}},{"type":"Feature","id":60,"geometry":{"type":"Point","coordinates":[184165.86440000031,1886923.0154999997]},"properties":{"OBJECTID":60,"Asset_ID":"MSQ60","Name":"مسجد بن الدبله\r\n","District_ID":"Auqad al Shamaliyya Extension","Gov_ID":"Dohfar Governorate","Wlyt_ID":"Salalah","Road_ID":"105037","Latitude":17.044922979999999,"Longitude":54.03323769,"GlobalID":"{F9352CC0-BF4F-4E4B-BDB9-015A10EA6F77}"}},{"type":"Feature","id":61,"geometry":{"type":"Point","coordinates":[182842.84509999957,1887600.7256000005]},"properties":{"OBJECTID":61,"Asset_ID":"MSQ61","Name":"مسجد الشيخ عوض بن عيسى مرقاع الكثيري (كيزوت)\r\n","District_ID":null,"Gov_ID":"Dohfar Governorate","Wlyt_ID":"Salalah","Road_ID":"104960","Latitude":17.05085901,"Longitude":54.020725179999999,"GlobalID":"{5E5AD1CC-CD88-4C3C-817A-6B5E4E37FFC1}"}},{"type":"Feature","id":62,"geometry":{"type":"Point","coordinates":[186764.64780000038,1888200.0023999996]},"properties":{"OBJECTID":62,"Asset_ID":"MSQ62","Name":"مسجد الإمام الحسن بن علي\u0651\r\n","District_ID":null,"Gov_ID":"Dohfar Governorate","Wlyt_ID":"Salalah","Road_ID":"105115","Latitude":17.05680594,"Longitude":54.057445000000001,"GlobalID":"{82384C93-A3C4-48A4-A8EC-1541DC522C3C}"}},{"type":"Feature","id":63,"geometry":{"type":"Point","coordinates":[187042.39169999957,1891220.0051000006]},"properties":{"OBJECTID":63,"Asset_ID":"MSQ63","Name":"مسجد عبدالله بن مسعود","District_ID":null,"Gov_ID":"Dohfar Governorate","Wlyt_ID":"Salalah","Road_ID":"104685","Latitude":17.084106869999999,"Longitude":54.059624290000002,"GlobalID":"{C999ECD3-49C1-46D0-A2C7-B2926D485865}"}},{"type":"Feature","id":64,"geometry":{"type":"Point","coordinates":[187879.57510000002,1891938.4137999993]},"properties":{"OBJECTID":64,"Asset_ID":"MSQ64","Name":"Hazrat Owais Al Qarni\r\n","District_ID":null,"Gov_ID":"Dohfar Governorate","Wlyt_ID":"Salalah","Road_ID":"104687","Latitude":17.090706239999999,"Longitude":54.067380980000003,"GlobalID":"{4BAB56CA-F051-475B-902B-3459DF753C65}"}},{"type":"Feature","id":65,"geometry":{"type":"Point","coordinates":[187090.61980000045,1890695.7730999999]},"properties":{"OBJECTID":65,"Asset_ID":"MSQ65","Name":"جامع عبدالله بن رواحه\r\n","District_ID":null,"Gov_ID":"Dohfar Governorate","Wlyt_ID":"Salalah","Road_ID":"104684","Latitude":17.079380919999998,"Longitude":54.0601512,"GlobalID":"{64739AB3-92E0-446E-8DC0-EA858FB99295}"}},{"type":"Feature","id":66,"geometry":{"type":"Point","coordinates":[201259.28579999972,1893589.2479999997]},"properties":{"OBJECTID":66,"Asset_ID":"MSQ66","Name":"جامع الأحقاف\r\n","District_ID":null,"Gov_ID":"Dohfar Governorate","Wlyt_ID":"Salalah","Road_ID":"1018978","Latitude":17.10739057,"Longitude":54.192758230000003,"GlobalID":"{2B456945-A32C-4357-AC18-7174EE83C905}"}},{"type":"Feature","id":67,"geometry":{"type":"Point","coordinates":[199659.39570000023,1893699.8903999999]},"properties":{"OBJECTID":67,"Asset_ID":"MSQ67","Name":"جامع حيام\r\n","District_ID":null,"Gov_ID":"Dohfar Governorate","Wlyt_ID":"Salalah","Road_ID":"101972","Latitude":17.108180579999999,"Longitude":54.177722369999998,"GlobalID":"{9AFF33DE-EE5E-43D1-8567-80B6C125FF5A}"}},{"type":"Feature","id":68,"geometry":{"type":"Point","coordinates":[188075.06759999972,1890860.1677000001]},"properties":{"OBJECTID":68,"Asset_ID":"MSQ68","Name":"جامع أم القرى بسهل إتين\r\n","District_ID":null,"Gov_ID":"Dohfar Governorate","Wlyt_ID":"Salalah","Road_ID":"102265","Latitude":17.08099885,"Longitude":54.069368269999998,"GlobalID":"{D1DDF97C-B282-429D-8803-77665C3B1656}"}},{"type":"Feature","id":69,"geometry":{"type":"Point","coordinates":[187722.48589999974,1888924.5114999991]},"properties":{"OBJECTID":69,"Asset_ID":"MSQ69","Name":"مسجد منتزه سهل إتين\r\n","District_ID":null,"Gov_ID":"Dohfar Governorate","Wlyt_ID":"Salalah","Road_ID":"102351","Latitude":17.063476680000001,"Longitude":54.066332170000003,"GlobalID":"{8FB3564B-274C-4B3F-8EDD-A4EB20A79FC3}"}},{"type":"Feature","id":70,"geometry":{"type":"Point","coordinates":[182532.86239999998,1885585.7191000003]},"properties":{"OBJECTID":70,"Asset_ID":"MSQ70","Name":"جامع السيد عمر بن طاهر باعمر\r\n","District_ID":"Auqad al Shamaliyya Extension","Gov_ID":"Dohfar Governorate","Wlyt_ID":"Salalah","Road_ID":"104820","Latitude":17.032626409999999,"Longitude":54.01810485,"GlobalID":"{8A56A267-75A0-424D-98AF-ED1DBAC7BEF8}"}},{"type":"Feature","id":71,"geometry":{"type":"Point","coordinates":[182110.30979999993,1885037.4897000007]},"properties":{"OBJECTID":71,"Asset_ID":"MSQ71","Name":"مسجد عبد الله بن عمر","District_ID":"Auqad al Shamaliyya Extension","Gov_ID":"Dohfar Governorate","Wlyt_ID":"Salalah","Road_ID":"104838","Latitude":17.0276192,"Longitude":54.014218409999998,"GlobalID":"{9CDE31F3-7130-46F9-BC6D-BA5023600F3D}"}},{"type":"Feature","id":72,"geometry":{"type":"Point","coordinates":[185958.3328999998,1882333.7348999996]},"properties":{"OBJECTID":72,"Asset_ID":"MSQ72","Name":"مسجد الهداية","District_ID":"Auqad al Janubiyya","Gov_ID":"Dohfar Governorate","Wlyt_ID":"Salalah","Road_ID":"105433","Latitude":17.00373845,"Longitude":54.050708460000003,"GlobalID":"{7F1E7AFD-8C44-4C08-B4AE-AC79475D799B}"}},{"type":"Feature","id":73,"geometry":{"type":"Point","coordinates":[185833.49670000002,1882160.4926999994]},"properties":{"OBJECTID":73,"Asset_ID":"MSQ73","Name":"Ba Darraj Mosque","District_ID":"Auqad al Janubiyya","Gov_ID":"Dohfar Governorate","Wlyt_ID":"Salalah","Road_ID":"105340","Latitude":17.002157520000001,"Longitude":54.049561699999998,"GlobalID":"{16B19C90-64AB-437C-A7B1-5C8F14C9AC16}"}},{"type":"Feature","id":74,"geometry":{"type":"Point","coordinates":[185602.93180000037,1882235.1488000005]},"properties":{"OBJECTID":74,"Asset_ID":"MSQ74","Name":"Shafei Mosque","District_ID":"Auqad al Janubiyya","Gov_ID":"Dohfar Governorate","Wlyt_ID":"Salalah","Road_ID":"105430","Latitude":17.002800100000002,"Longitude":54.047387919999998,"GlobalID":"{EFBC2447-0626-467C-ACA2-A98AE9ACAA4B}"}},{"type":"Feature","id":75,"geometry":{"type":"Point","coordinates":[185220.96200000029,1882073.6897]},"properties":{"OBJECTID":75,"Asset_ID":"MSQ75","Name":"Al Taoba Mosque ","District_ID":"Auqad al Janubiyya","Gov_ID":"Dohfar Governorate","Wlyt_ID":"Salalah","Road_ID":"105418","Latitude":17.0012905,"Longitude":54.043827049999997,"GlobalID":"{29BF9822-5E67-4DC0-9867-BA6D94B529E6}"}},{"type":"Feature","id":76,"geometry":{"type":"Point","coordinates":[184915.95069999993,1882045.5479000006]},"properties":{"OBJECTID":76,"Asset_ID":"MSQ76","Name":"Bayt Fadel Mosque","District_ID":"Auqad al Janubiyya","Gov_ID":"Dohfar Governorate","Wlyt_ID":"Salalah","Road_ID":"105391","Latitude":17.000994850000001,"Longitude":54.04096938,"GlobalID":"{B7576062-4292-480B-A863-5135C7132610}"}},{"type":"Feature","id":77,"geometry":{"type":"Point","coordinates":[184378.95419999957,1881893.8962999992]},"properties":{"OBJECTID":77,"Asset_ID":"MSQ77","Name":"Masjed Abdullah Bakhit","District_ID":"Auqad al Janubiyya","Gov_ID":"Dohfar Governorate","Wlyt_ID":"Salalah","Road_ID":"105373","Latitude":16.9995525,"Longitude":54.035952760000001,"GlobalID":"{6E829FD1-ED9D-4BBF-B311-DEDB3B619C2A}"}},{"type":"Feature","id":78,"geometry":{"type":"Point","coordinates":[184648.97400000039,1881649.9789000005]},"properties":{"OBJECTID":78,"Asset_ID":"MSQ78","Name":"مسجد عبدالله اليماني","District_ID":"Auqad al Janubiyya","Gov_ID":"Dohfar Governorate","Wlyt_ID":"Salalah","Road_ID":"105476","Latitude":16.997387450000002,"Longitude":54.038520699999999,"GlobalID":"{757AAB00-2358-45E1-8E84-DD211E170A1A}"}},{"type":"Feature","id":79,"geometry":{"type":"Point","coordinates":[184214.45419999957,1882043.2267000005]},"properties":{"OBJECTID":79,"Asset_ID":"MSQ79","Name":"Mosque Ben Habras","District_ID":"Auqad al Shamaliyya","Gov_ID":"Dohfar Governorate","Wlyt_ID":"Salalah","Road_ID":"105585","Latitude":17.00087808,"Longitude":54.034388200000002,"GlobalID":"{D904F183-DF6F-4334-9D11-8E1B58E1FC2D}"}},{"type":"Feature","id":80,"geometry":{"type":"Point","coordinates":[183470.10400000028,1881370.1892000008]},"properties":{"OBJECTID":80,"Asset_ID":"MSQ80","Name":"جامع الريان","District_ID":"Auqad al Shamaliyya","Gov_ID":"Dohfar Governorate","Wlyt_ID":"Salalah","Road_ID":"105935","Latitude":16.99470045,"Longitude":54.027500529999998,"GlobalID":"{86C35212-F96B-4933-953E-2C798105AA55}"}},{"type":"Feature","id":81,"geometry":{"type":"Point","coordinates":[183472.09439999983,1881836.5053000003]},"properties":{"OBJECTID":81,"Asset_ID":"MSQ81","Name":"Al-Fatah Mosque","District_ID":"Auqad al Shamaliyya","Gov_ID":"Dohfar Governorate","Wlyt_ID":"Salalah","Road_ID":"105581","Latitude":16.998910309999999,"Longitude":54.027452799999999,"GlobalID":"{9557389E-0F49-4B18-8DC0-95FC481A593D}"}},{"type":"Feature","id":82,"geometry":{"type":"Point","coordinates":[182632.97190000024,1880767.2327999994]},"properties":{"OBJECTID":82,"Asset_ID":"MSQ82","Name":"مسجد زكريا","District_ID":"Auqad al Shamaliyya","Gov_ID":"Dohfar Governorate","Wlyt_ID":"Salalah","Road_ID":"105726","Latitude":16.989142560000001,"Longitude":54.019732900000001,"GlobalID":"{7D40062E-DE74-44F0-89F2-E55B2B3F942B}"}},{"type":"Feature","id":83,"geometry":{"type":"Point","coordinates":[194744.92569999956,1886269.7592999991]},"properties":{"OBJECTID":83,"Asset_ID":"MSQ83","Name":"مسجد مصعب بن عمير","District_ID":"Jerziz Farm","Gov_ID":"Dohfar Governorate","Wlyt_ID":"Salalah","Road_ID":"100490","Latitude":17.040451910000002,"Longitude":54.132609109999997,"GlobalID":"{6B3A7F84-C4D2-42E5-AF66-EEB39A565054}"}},{"type":"Feature","id":84,"geometry":{"type":"Point","coordinates":[190281.95870000031,1883166.2157000005]},"properties":{"OBJECTID":84,"Asset_ID":"MSQ84","Name":"Masjid Habbar","District_ID":"Salalah al Wousta","Gov_ID":"Dohfar Governorate","Wlyt_ID":"Salalah","Road_ID":"104495","Latitude":17.011837979999999,"Longitude":54.09115894,"GlobalID":"{0375A1AB-838E-4652-8D6B-22CA553DB9CB}"}},{"type":"Feature","id":85,"geometry":{"type":"Point","coordinates":[190085.71150000021,1883225.1175999995]},"properties":{"OBJECTID":85,"Asset_ID":"MSQ85","Name":"Tomb Of Sheikh Aboobakr bin Salem\n","District_ID":"Salalah al Gharbiyya","Gov_ID":"Dohfar Governorate","Wlyt_ID":"Salalah","Road_ID":"104474","Latitude":17.012343390000002,"Longitude":54.089309309999997,"GlobalID":"{07BEC606-5A5D-40D9-9CE0-FB89AA08D93F}"}},{"type":"Feature","id":86,"geometry":{"type":"Point","coordinates":[190548.51510000043,1882970.7942999993]},"properties":{"OBJECTID":86,"Asset_ID":"MSQ86","Name":"Al Noor Mosque","District_ID":"Salalah al Wousta","Gov_ID":"Dohfar Governorate","Wlyt_ID":"Salalah","Road_ID":"104513","Latitude":17.010109509999999,"Longitude":54.093687299999999,"GlobalID":"{AAD2E653-9EA8-4606-BA3D-5E213719FE11}"}},{"type":"Feature","id":87,"geometry":{"type":"Point","coordinates":[190259.31080000009,1882888.7129999995]},"properties":{"OBJECTID":87,"Asset_ID":"MSQ87","Name":"جامع بامزروع","District_ID":"Salalah al Gharbiyya","Gov_ID":"Dohfar Governorate","Wlyt_ID":"Salalah","Road_ID":"104506","Latitude":17.009329699999999,"Longitude":54.090985140000001,"GlobalID":"{08B14A9F-75AE-48A5-9CF1-51FF0158B5C8}"}},{"type":"Feature","id":88,"geometry":{"type":"Point","coordinates":[189888.49749999959,1882818.4352000002]},"properties":{"OBJECTID":88,"Asset_ID":"MSQ88","Name":"Mosque Ba Hamran","District_ID":"Salalah al Gharbiyya","Gov_ID":"Dohfar Governorate","Wlyt_ID":"Salalah","Road_ID":"104507","Latitude":17.008645449999999,"Longitude":54.087515629999999,"GlobalID":"{180B0B82-0C14-4F5D-8A46-3C04EA2871A2}"}},{"type":"Feature","id":89,"geometry":{"type":"Point","coordinates":[189390.15409999993,1882831.1462999992]},"properties":{"OBJECTID":89,"Asset_ID":"MSQ89","Name":"Masjed ALSALIH\n","District_ID":"Salalah al Gharbiyya","Gov_ID":"Dohfar Governorate","Wlyt_ID":"Salalah","Road_ID":"104480","Latitude":17.0086932,"Longitude":54.082837959999999,"GlobalID":"{8D3277D9-52B3-4603-947C-DC8C6E8F294C}"}},{"type":"Feature","id":90,"geometry":{"type":"Point","coordinates":[189694.03330000024,1882872.3439000007]},"properties":{"OBJECTID":90,"Asset_ID":"MSQ90","Name":"مسجد عثمان بن عفان\n","District_ID":"Salalah al Gharbiyya","Gov_ID":"Dohfar Governorate","Wlyt_ID":"Salalah","Road_ID":"104505","Latitude":17.009105989999998,"Longitude":54.085683459999998,"GlobalID":"{8210DF45-C9D4-4C1C-96B2-79BD9E1790AB}"}},{"type":"Feature","id":91,"geometry":{"type":"Point","coordinates":[189087.98330000043,1882714.0689000003]},"properties":{"OBJECTID":91,"Asset_ID":"MSQ91","Name":"Masjid Bha Kadeera","District_ID":"Salalah al Gharbiyya","Gov_ID":"Dohfar Governorate","Wlyt_ID":"Salalah","Road_ID":"104501","Latitude":17.007595569999999,"Longitude":54.080019120000003,"GlobalID":"{32CEC3A7-D8B2-4327-97D3-1E721D743928}"}},{"type":"Feature","id":92,"geometry":{"type":"Point","coordinates":[188476.53139999975,1882538.1018000003]},"properties":{"OBJECTID":92,"Asset_ID":"MSQ92","Name":"مسجد باحدر","District_ID":"Salalah al Gharbiyya","Gov_ID":"Dohfar Governorate","Wlyt_ID":"Salalah","Road_ID":"103741","Latitude":17.00592455,"Longitude":54.07430669,"GlobalID":"{BF802F80-B4A8-40B0-8252-C56CE773733C}"}},{"type":"Feature","id":93,"geometry":{"type":"Point","coordinates":[188268.84920000006,1882536.0556000005]},"properties":{"OBJECTID":93,"Asset_ID":"MSQ93","Name":"مسجد ","District_ID":"Salalah al Gharbiyya","Gov_ID":"Dohfar Governorate","Wlyt_ID":"Salalah","Road_ID":"104486","Latitude":17.00587805,"Longitude":54.072358370000003,"GlobalID":"{BCC70E63-6468-43B3-A3E5-174CEE6D9D8D}"}},{"type":"Feature","id":94,"geometry":{"type":"Point","coordinates":[188075.04239999969,1882496.0282000005]},"properties":{"OBJECTID":94,"Asset_ID":"MSQ94","Name":"Masjid Al-Muntazah","District_ID":"Salalah al Gharbiyya","Gov_ID":"Dohfar Governorate","Wlyt_ID":"Salalah","Road_ID":"104546","Latitude":17.005490510000001,"Longitude":54.07054557,"GlobalID":"{98E4DB00-BBC2-4CD3-98C8-CF28D3462911}"}},{"type":"Feature","id":95,"geometry":{"type":"Point","coordinates":[188765.71779999975,1882822.1728000008]},"properties":{"OBJECTID":95,"Asset_ID":"MSQ95","Name":"مسجد بن ميزون","District_ID":"Salalah al Gharbiyya","Gov_ID":"Dohfar Governorate","Wlyt_ID":"Salalah","Road_ID":"104524","Latitude":17.008528070000001,"Longitude":54.076980229999997,"GlobalID":"{75D00858-77B5-45EA-921D-39FFC3E8E539}"}},{"type":"Feature","id":96,"geometry":{"type":"Point","coordinates":[189293.10099999979,1883019.4470000006]},"properties":{"OBJECTID":96,"Asset_ID":"MSQ96","Name":"Masjid Al-Salam\n","District_ID":"Salalah al Gharbiyya","Gov_ID":"Dohfar Governorate","Wlyt_ID":"Salalah","Road_ID":"104465","Latitude":17.01038007,"Longitude":54.08190097,"GlobalID":"{13A1390A-FF47-4EA5-9762-09959D77EB87}"}},{"type":"Feature","id":97,"geometry":{"type":"Point","coordinates":[190418.8543999996,1883288.7722999994]},"properties":{"OBJECTID":97,"Asset_ID":"MSQ97","Name":"RAWAS MASJID\n","District_ID":"Salalah al Wousta","Gov_ID":"Dohfar Governorate","Wlyt_ID":"Salalah","Road_ID":"104457","Latitude":17.012962770000001,"Longitude":54.092426359999997,"GlobalID":"{9F2DD180-85AE-4EE7-8A76-A639D2057029}"}},{"type":"Feature","id":98,"geometry":{"type":"Point","coordinates":[197381.80730000045,1884342.9384000003]},"properties":{"OBJECTID":98,"Asset_ID":"MSQ98","Name":"مسجد الفردوس\n","District_ID":"Dahariz al Shamaliyya","Gov_ID":"Dohfar Governorate","Wlyt_ID":"Salalah","Road_ID":"100081","Latitude":17.023403850000001,"Longitude":54.157619169999997,"GlobalID":"{3C316666-DEC7-4D66-A31C-B78811E55804}"}},{"type":"Feature","id":99,"geometry":{"type":"Point","coordinates":[197100.81900000013,1884305.4761999995]},"properties":{"OBJECTID":99,"Asset_ID":"MSQ99","Name":"جامع الدهاريز\n","District_ID":"Dahariz al Shamaliyya","Gov_ID":"Dohfar Governorate","Wlyt_ID":"Salalah","Road_ID":"100079","Latitude":17.023028740000001,"Longitude":54.154987429999998,"GlobalID":"{E4D40DE7-9E9F-4F43-BCA8-EBD519E69F47}"}},{"type":"Feature","id":100,"geometry":{"type":"Point","coordinates":[185989.92559999973,1885407.0756999999]},"properties":{"OBJECTID":100,"Asset_ID":"MSQ100","Name":"Mosque / Masjid abi Ayub Jamie adda'wa\n","District_ID":"New Industrial Area","Gov_ID":"Dohfar Governorate","Wlyt_ID":"Salalah","Road_ID":"105215","Latitude":17.031487309999999,"Longitude":54.050570059999998,"GlobalID":"{355A9900-5DC5-42C3-9803-A39CF23C28C9}"}},{"type":"Feature","id":101,"geometry":{"type":"Point","coordinates":[193881.25960000046,1883934.3707999997]},"properties":{"OBJECTID":101,"Asset_ID":"MSQ101","Name":"Masjid Al-Mahrah\n","District_ID":"al Huseela","Gov_ID":"Dohfar Governorate","Wlyt_ID":"Salalah","Road_ID":"103903","Latitude":17.01925323,"Longitude":54.124826140000003,"GlobalID":"{227209CF-8A89-48BE-9F15-B0385C598897}"}},{"type":"Feature","id":103,"geometry":{"type":"Point","coordinates":[193496.77359999996,1883860.7456]},"properties":{"OBJECTID":103,"Asset_ID":"MSQ103","Name":"Al-Hasilah Mosque\n","District_ID":"al Huseela","Gov_ID":"2","Wlyt_ID":"Salalah","Road_ID":"103876","Latitude":17.018537479999999,"Longitude":54.121228389999999,"GlobalID":"{C7AA33A8-3E3E-4FB3-80EA-911B3C6384A3}"}},{"type":"Feature","id":104,"geometry":{"type":"Point","coordinates":[194078.86890000012,1884204.5129000004]},"properties":{"OBJECTID":104,"Asset_ID":"MSQ104","Name":"مسجد رياض الصالحين\n","District_ID":"al Huseela","Gov_ID":"2","Wlyt_ID":"Salalah","Road_ID":"103882","Latitude":17.021718320000002,"Longitude":54.126643209999997,"GlobalID":"{78072CA2-91BF-478D-8405-2CD39D0D4C9C}"}},{"type":"Feature","id":105,"geometry":{"type":"Point","coordinates":[193606.90429999959,1882175.7572000008]},"properties":{"OBJECTID":105,"Asset_ID":"MSQ105","Name":"مسجد باكندي بالحافه\n","District_ID":"al Hafa","Gov_ID":"2","Wlyt_ID":"Salalah","Road_ID":"103752","Latitude":17.003339910000001,"Longitude":54.122494330000002,"GlobalID":"{00DB8F97-EC5F-46A6-B201-3BB858D8BD1C}"}},{"type":"Feature","id":106,"geometry":{"type":"Point","coordinates":[193676.89570000023,1882353.0999999996]},"properties":{"OBJECTID":106,"Asset_ID":"MSQ106","Name":"Masjid Afif Al-haffa\n","District_ID":"al Baleed","Gov_ID":"2","Wlyt_ID":"Salalah","Road_ID":"100002","Latitude":17.004950260000001,"Longitude":54.123126599999999,"GlobalID":"{50C1703D-88A4-4042-94B7-F83C309C0CBB}"}},{"type":"Feature","id":107,"geometry":{"type":"Point","coordinates":[194156.98840000015,1882308.5193000007]},"properties":{"OBJECTID":107,"Asset_ID":"MSQ107","Name":"مسجد صاحب الحضرة - شاطئ البليد\n","District_ID":"al Baleed","Gov_ID":"2","Wlyt_ID":"Salalah","Road_ID":"103933","Latitude":17.004611430000001,"Longitude":54.127637470000003,"GlobalID":"{FE3599E0-29F6-44AD-B352-10F0A5BD22CC}"}},{"type":"Feature","id":108,"geometry":{"type":"Point","coordinates":[194478.75459999964,1882456.5219999999]},"properties":{"OBJECTID":108,"Asset_ID":"MSQ108","Name":"مسجد البليد","District_ID":"al Baleed","Gov_ID":"2","Wlyt_ID":"Salalah","Road_ID":"100002","Latitude":17.005990220000001,"Longitude":54.130636260000003,"GlobalID":"{FCA611EE-5117-4B77-ABAA-004A68DC24DC}"}},{"type":"Feature","id":109,"geometry":{"type":"Point","coordinates":[195586.62459999975,1889139.1454000007]},"properties":{"OBJECTID":109,"Asset_ID":"MSQ109","Name":"مسجد وحدة المهام الخاصة بمحافظة ظفار\n","District_ID":"Salalah Wellfield","Gov_ID":"2","Wlyt_ID":"Salalah","Road_ID":"100579","Latitude":17.066468629999999,"Longitude":54.140113849999999,"GlobalID":"{947968A4-E785-43BC-90A5-2E2F0BE2B264}"}},{"type":"Feature","id":110,"geometry":{"type":"Point","coordinates":[196547.0828999998,1890320.5210999995]},"properties":{"OBJECTID":110,"Asset_ID":"MSQ110","Name":"Shanfari Masjid saadha North\n","District_ID":"al Sada al Shamaliyya","Gov_ID":"2","Wlyt_ID":"Salalah","Road_ID":"102510","Latitude":17.0772613,"Longitude":54.148966850000001,"GlobalID":"{4555D193-3993-44AD-B1DC-E4F3513ED931}"}},{"type":"Feature","id":111,"geometry":{"type":"Point","coordinates":[197599.40110000037,1890316.8927999996]},"properties":{"OBJECTID":111,"Asset_ID":"MSQ111","Name":"Jame Usama Bin Zaid\n","District_ID":"al Sada al Shamaliyya","Gov_ID":"2","Wlyt_ID":"Salalah","Road_ID":"102634","Latitude":17.077367250000002,"Longitude":54.158845329999998,"GlobalID":"{9B3456F3-CF75-4C34-BE58-D8EF99F9BA95}"}},{"type":"Feature","id":112,"geometry":{"type":"Point","coordinates":[197173.18420000002,1891608.1453000009]},"properties":{"OBJECTID":112,"Asset_ID":"MSQ112","Name":"مسجد المغفرة","District_ID":"al Sada al Shamaliyya","Gov_ID":"2","Wlyt_ID":"Salalah","Road_ID":"102572","Latitude":17.088968900000001,"Longitude":54.154667500000002,"GlobalID":"{BDF50A80-E306-4AA7-B684-826D5AF2E592}"}},{"type":"Feature","id":113,"geometry":{"type":"Point","coordinates":[196666.59800000023,1889826.9882999994]},"properties":{"OBJECTID":113,"Asset_ID":"MSQ113","Name":"مسجد الفلاح","District_ID":"al Sada al Shamaliyya","Gov_ID":"2","Wlyt_ID":"Salalah","Road_ID":"102509","Latitude":17.072821350000002,"Longitude":54.150156430000003,"GlobalID":"{CC54CD2A-4899-4424-8AE7-743891843203}"}},{"type":"Feature","id":114,"geometry":{"type":"Point","coordinates":[196740.79700000025,1891232.2293999996]},"properties":{"OBJECTID":114,"Asset_ID":"MSQ114","Name":"جامع مقيبل السعادة الشمالية\n","District_ID":"al Sada al Shamaliyya","Gov_ID":"2","Wlyt_ID":"Salalah","Road_ID":"102600","Latitude":17.08551799,"Longitude":54.150660100000003,"GlobalID":"{0229FCC9-2621-4591-B0EC-85128AC6FDA2}"}},{"type":"Feature","id":115,"geometry":{"type":"Point","coordinates":[196826.15820000041,1890838.3080000002]},"properties":{"OBJECTID":115,"Asset_ID":"MSQ115","Name":"مسجد الشعبيات\n","District_ID":"al Sada al Shamaliyya","Gov_ID":"2","Wlyt_ID":"Salalah","Road_ID":"102620","Latitude":17.081972839999999,"Longitude":54.151515459999999,"GlobalID":"{430AB02A-8DD9-48F2-966D-086E08B3D5D1}"}},{"type":"Feature","id":116,"geometry":{"type":"Point","coordinates":[197179.55269999988,1890691.4847999997]},"properties":{"OBJECTID":116,"Asset_ID":"MSQ116","Name":"مسجد طارق بن زياد","District_ID":"al Sada al Shamaliyya","Gov_ID":"2","Wlyt_ID":"Salalah","Road_ID":"102601","Latitude":17.080693879999998,"Longitude":54.154852929999997,"GlobalID":"{E29A89C6-BB1B-4C1D-9F75-B2F52F303644}"}},{"type":"Feature","id":117,"geometry":{"type":"Point","coordinates":[196865.37640000042,1890384.4570000004]},"properties":{"OBJECTID":117,"Asset_ID":"MSQ117","Name":"مسجد الرزاق","District_ID":"al Sada al Shamaliyya","Gov_ID":"2","Wlyt_ID":"Salalah","Road_ID":"102512","Latitude":17.077880530000002,"Longitude":54.151945849999997,"GlobalID":"{ED544B40-1B61-4953-B802-43EA29FD24EC}"}},{"type":"Feature","id":118,"geometry":{"type":"Point","coordinates":[197840.64460000023,1890630.1076999996]},"properties":{"OBJECTID":118,"Asset_ID":"MSQ118","Name":"Almustafa masjed","District_ID":"al Sada al Shamaliyya","Gov_ID":"2","Wlyt_ID":"Salalah","Road_ID":"102494","Latitude":17.08022678,"Longitude":54.16106705,"GlobalID":"{59DEA09B-C20A-40C0-91BC-FC19F500514F}"}},{"type":"Feature","id":119,"geometry":{"type":"Point","coordinates":[198814.0661000004,1892266.8093999997]},"properties":{"OBJECTID":119,"Asset_ID":"MSQ119","Name":"Al-Qadeer Mosque","District_ID":"Sahalnout al Shamaliyya","Gov_ID":"2","Wlyt_ID":"Salalah","Road_ID":"102752","Latitude":17.095131349999999,"Longitude":54.16998151,"GlobalID":"{15589E82-BEEC-43A9-A4D4-23D50DA9BC01}"}},{"type":"Feature","id":120,"geometry":{"type":"Point","coordinates":[199324.60869999975,1892770.966]},"properties":{"OBJECTID":120,"Asset_ID":"MSQ120","Name":"مسجد الرافع جل جلاله\n","District_ID":"Sahalnout al Shamaliyya","Gov_ID":"2","Wlyt_ID":"Salalah","Road_ID":"102691","Latitude":17.099750010000001,"Longitude":54.174705779999996,"GlobalID":"{8EEAC1AA-4598-45C5-93EA-8429DF3179FF}"}},{"type":"Feature","id":121,"geometry":{"type":"Point","coordinates":[200114.74830000009,1892818.3590999991]},"properties":{"OBJECTID":121,"Asset_ID":"MSQ121","Name":"مسجد الغفور","District_ID":"Sahalnout al Shamaliyya","Gov_ID":"2","Wlyt_ID":"Salalah","Road_ID":"102676","Latitude":17.100281280000001,"Longitude":54.182117329999997,"GlobalID":"{E506A489-CEF5-4B05-A91F-3F9E2BE7A30F}"}},{"type":"Feature","id":122,"geometry":{"type":"Point","coordinates":[200237.37150000036,1892150.1579999998]},"properties":{"OBJECTID":122,"Asset_ID":"MSQ122","Name":"جامع الإمام الشاطبي\n","District_ID":"Sahalnout al Shamaliyya","Gov_ID":"2","Wlyt_ID":"Salalah","Road_ID":"102706","Latitude":17.094264460000002,"Longitude":54.183359289999999,"GlobalID":"{ABE3F66D-F030-4840-9609-8FB3D8FE1237}"}},{"type":"Feature","id":123,"geometry":{"type":"Point","coordinates":[200900.65170000028,1892171.2588]},"properties":{"OBJECTID":123,"Asset_ID":"MSQ123","Name":"جامع الأنفال\n","District_ID":"Sahalnout al Shamaliyya","Gov_ID":"2","Wlyt_ID":"Salalah","Road_ID":"102764","Latitude":17.09454148,"Longitude":54.189583300000002,"GlobalID":"{A1B6A9F8-6017-44EE-8B6B-538C786A4C7D}"}},{"type":"Feature","id":124,"geometry":{"type":"Point","coordinates":[201513.19079999998,1892839.8948999997]},"properties":{"OBJECTID":124,"Asset_ID":"MSQ124","Name":"مسجد ابو هريرة","District_ID":"Sahalnout al Shamaliyya","Gov_ID":"2","Wlyt_ID":"Salalah","Road_ID":"102822","Latitude":17.100658030000002,"Longitude":54.195243439999999,"GlobalID":"{FAB8FC2C-ED85-4CB7-ACEA-729E6C081914}"}},{"type":"Feature","id":125,"geometry":{"type":"Point","coordinates":[202042.68869999982,1892844.9502000008]},"properties":{"OBJECTID":125,"Asset_ID":"MSQ125","Name":"مسجد سيدنا بلال بن رباح\n","District_ID":"Sahalnout al Shamaliyya","Gov_ID":"2","Wlyt_ID":"Salalah","Road_ID":"102831","Latitude":17.100772490000001,"Longitude":54.200213900000001,"GlobalID":"{E88A2EA1-422D-4F02-AD69-660DFA2EDC83}"}},{"type":"Feature","id":126,"geometry":{"type":"Point","coordinates":[202623.39159999974,1892796.0283000004]},"properties":{"OBJECTID":126,"Asset_ID":"MSQ126","Name":"مسجد حراء\n","District_ID":"Sahalnout al Shamaliyya","Gov_ID":"2","Wlyt_ID":"Salalah","Road_ID":"102871","Latitude":17.100406110000002,"Longitude":54.205672399999997,"GlobalID":"{95AD1116-2F6C-4AC3-8E5B-576138116E05}"}},{"type":"Feature","id":127,"geometry":{"type":"Point","coordinates":[197899.79140000045,1891251.2609999999]},"properties":{"OBJECTID":127,"Asset_ID":"MSQ127","Name":"Jaamia Muhyiddin bin Saif\n","District_ID":"al Sada al Shamaliyya","Gov_ID":"2","Wlyt_ID":"Salalah","Road_ID":"102597","Latitude":17.085842530000001,"Longitude":54.161537340000002,"GlobalID":"{7A5F294A-0798-441B-86DC-F8A254575791}"}},{"type":"Feature","id":128,"geometry":{"type":"Point","coordinates":[198790.03509999998,1891886.2442000005]},"properties":{"OBJECTID":128,"Asset_ID":"MSQ128","Name":"مسجد الكريم ","District_ID":"Sahalnout al Shamaliyya","Gov_ID":"2","Wlyt_ID":"Salalah","Road_ID":"102914","Latitude":17.09169232,"Longitude":54.169807830000003,"GlobalID":"{69723010-BE8A-4F32-9A2F-E07E4CAEFFD4}"}},{"type":"Feature","id":129,"geometry":{"type":"Point","coordinates":[182944.87110000011,1884609.7751000002]},"properties":{"OBJECTID":129,"Asset_ID":"MSQ129","Name":"جامع عبدالقوى اليافعي\r\n","District_ID":"Auqad al Shamaliyya","Gov_ID":"2","Wlyt_ID":"Salalah","Road_ID":"105660","Latitude":17.023873030000001,"Longitude":54.02211046,"GlobalID":"{79CEE592-224A-4A31-AB19-919DA513A56F}"}},{"type":"Feature","id":130,"geometry":{"type":"Point","coordinates":[182626.93429999985,1884297.5318999998]},"properties":{"OBJECTID":130,"Asset_ID":"MSQ130","Name":"مسجد الأنبياء","District_ID":"Auqad al Shamaliyya","Gov_ID":"2","Wlyt_ID":"Salalah","Road_ID":"105659","Latitude":17.021010610000001,"Longitude":54.019171890000003,"GlobalID":"{1DB62641-EB29-4389-B130-1951BCBEA60A}"}},{"type":"Feature","id":131,"geometry":{"type":"Point","coordinates":[183368.21059999987,1883508.5285999998]},"properties":{"OBJECTID":131,"Asset_ID":"MSQ131","Name":"مسجد عبدالعالم مستهيل رخيوت\r\n","District_ID":"Auqad al Shamaliyya","Gov_ID":"2","Wlyt_ID":"Salalah","Road_ID":"105604","Latitude":17.013989930000001,"Longitude":54.026239820000001,"GlobalID":"{C7A77411-092F-4A82-AAB5-4BB3F253F039}"}},{"type":"Feature","id":132,"geometry":{"type":"Point","coordinates":[182974.18439999968,1883850.0615999997]},"properties":{"OBJECTID":132,"Asset_ID":"MSQ132","Name":"مسجد حذيفة بن اليمان Hudhayfah ibn al-Yaman mosqu\r\n","District_ID":"Auqad al Shamaliyya","Gov_ID":"2","Wlyt_ID":"Salalah","Road_ID":"105629","Latitude":17.01701894,"Longitude":54.022494039999998,"GlobalID":"{38554D03-96BD-4308-99AD-016F33836449}"}},{"type":"Feature","id":133,"geometry":{"type":"Point","coordinates":[182400.80999999959,1884171.5955999997]},"properties":{"OBJECTID":133,"Asset_ID":"MSQ133","Name":"مسجد الشيخ احمد محمد بازنبور\r\n","District_ID":"Auqad al Shamaliyya","Gov_ID":"2","Wlyt_ID":"Salalah","Road_ID":"105878","Latitude":17.019842629999999,"Longitude":54.017068199999997,"GlobalID":"{A62656B9-3470-4036-BF61-ECB492CB9D4C}"}},{"type":"Feature","id":134,"geometry":{"type":"Point","coordinates":[181999.86440000031,1883941.1351999994]},"properties":{"OBJECTID":134,"Asset_ID":"MSQ134","Name":"مسجد الذاكرين\r\n","District_ID":"Auqad al Shamaliyya","Gov_ID":"2","Wlyt_ID":"Salalah","Road_ID":"105804","Latitude":17.01770698,"Longitude":54.013339209999998,"GlobalID":"{8F629AA0-2EBB-44D3-95C1-738A47D2A711}"}},{"type":"Feature","id":135,"geometry":{"type":"Point","coordinates":[180906.88599999994,1882884.2727000006]},"properties":{"OBJECTID":135,"Asset_ID":"MSQ135","Name":"جامع الاستغفار","District_ID":"Auqad al Shamaliyya","Gov_ID":"2","Wlyt_ID":"Salalah","Road_ID":"105870","Latitude":17.008015650000001,"Longitude":54.003236039999997,"GlobalID":"{8159B98D-B60B-47E9-B0EF-9AC31D29AC4E}"}},{"type":"Feature","id":136,"geometry":{"type":"Point","coordinates":[181461.32380000036,1881906.1875999998]},"properties":{"OBJECTID":136,"Asset_ID":"MSQ136","Name":"مسجد الصالحين","District_ID":"Auqad al Shamaliyya","Gov_ID":"2","Wlyt_ID":"Salalah","Road_ID":"105856","Latitude":16.999262900000002,"Longitude":54.008578110000002,"GlobalID":"{57795B8D-2F9D-49F0-9A6E-ED7E5AF43536}"}},{"type":"Feature","id":137,"geometry":{"type":"Point","coordinates":[181180.78770000022,1883361.6261999998]},"properties":{"OBJECTID":137,"Asset_ID":"MSQ137","Name":"جامع الفقيه","District_ID":"Auqad al Shamaliyya","Gov_ID":"2","Wlyt_ID":"Salalah","Road_ID":"105842","Latitude":17.012362629999998,"Longitude":54.005737289999999,"GlobalID":"{CCC07AA7-16E2-4CF7-A7C3-30C1A7C0860E}"}},{"type":"Feature","id":138,"geometry":{"type":"Point","coordinates":[181275.8161000004,1883034.5110999998]},"properties":{"OBJECTID":138,"Asset_ID":"MSQ138","Name":"مسجد طفول مسن","District_ID":"Auqad al Shamaliyya","Gov_ID":"2","Wlyt_ID":"Salalah","Road_ID":"105838","Latitude":17.009422839999999,"Longitude":54.00667584,"GlobalID":"{25E5B9AA-A8DC-4329-AA30-5EA21C6925E7}"}},{"type":"Feature","id":139,"geometry":{"type":"Point","coordinates":[181537.95150000043,1882482.7741]},"properties":{"OBJECTID":139,"Asset_ID":"MSQ139","Name":"مسجد الخير\r\n","District_ID":"Auqad al Shamaliyya","Gov_ID":"2","Wlyt_ID":"Salalah","Road_ID":"105833","Latitude":17.004478410000001,"Longitude":54.009214370000002,"GlobalID":"{F13FE1EB-06B5-45C4-BC2C-58F945AA58B4}"}},{"type":"Feature","id":140,"geometry":{"type":"Point","coordinates":[181718.43219999969,1882811.4024]},"properties":{"OBJECTID":140,"Asset_ID":"MSQ140","Name":"مسجد سالم بن مبارك","District_ID":"Auqad al Shamaliyya","Gov_ID":"2","Wlyt_ID":"Salalah","Road_ID":"105830","Latitude":17.007469879999999,"Longitude":54.010860559999998,"GlobalID":"{56CDC5E6-7241-4823-B1B0-A20726A48536}"}},{"type":"Feature","id":141,"geometry":{"type":"Point","coordinates":[181665.24189999979,1881753.3029999994]},"properties":{"OBJECTID":141,"Asset_ID":"MSQ141","Name":"مسجد التقوى","District_ID":"Auqad al Shamaliyya","Gov_ID":"2","Wlyt_ID":"Salalah","Road_ID":"105759","Latitude":16.997910900000001,"Longitude":54.010513119999999,"GlobalID":"{30D7FB3F-CD20-4337-9076-BAEE11DC46F7}"}},{"type":"Feature","id":142,"geometry":{"type":"Point","coordinates":[181959.46380000003,1882100.6357000005]},"properties":{"OBJECTID":142,"Asset_ID":"MSQ142","Name":"جامع آل بيت","District_ID":"Auqad al Shamaliyya","Gov_ID":"2","Wlyt_ID":"Salalah","Road_ID":"105733","Latitude":17.001086870000002,"Longitude":54.013223719999999,"GlobalID":"{C4DC0D2A-E71B-4806-938B-9AFE13C5A201}"}},{"type":"Feature","id":143,"geometry":{"type":"Point","coordinates":[182553.26680000033,1882256.5642000008]},"properties":{"OBJECTID":143,"Asset_ID":"MSQ143","Name":"مسجد المقدم","District_ID":"Auqad al Shamaliyya","Gov_ID":"2","Wlyt_ID":"Salalah","Road_ID":"105750","Latitude":17.002576179999998,"Longitude":54.018772460000001,"GlobalID":"{F961F799-D468-402A-B331-84DB1A49FF6A}"}},{"type":"Feature","id":144,"geometry":{"type":"Point","coordinates":[181797.34819999989,1883420.8528000005]},"properties":{"OBJECTID":144,"Asset_ID":"MSQ144","Name":"مسجد سالم الملك المرهون","District_ID":"Auqad al Shamaliyya","Gov_ID":"2","Wlyt_ID":"Salalah","Road_ID":"105846","Latitude":17.01298238,"Longitude":54.011513639999997,"GlobalID":"{11315202-F80B-4423-BE9F-AB53CC094D24}"}},{"type":"Feature","id":145,"geometry":{"type":"Point","coordinates":[182491.80669999961,1883527.8891000003]},"properties":{"OBJECTID":145,"Asset_ID":"MSQ145","Name":"Masjid Dhu Al-Nurayn\r\n","District_ID":"Auqad al Shamaliyya","Gov_ID":"2","Wlyt_ID":"Salalah","Road_ID":"105806","Latitude":17.014044269999999,"Longitude":54.018014090000001,"GlobalID":"{07B0A32A-908D-49BC-BEEE-A6D3FE34B887}"}},{"type":"Feature","id":146,"geometry":{"type":"Point","coordinates":[182443.28039999958,1882550.1613999996]},"properties":{"OBJECTID":146,"Asset_ID":"MSQ146","Name":"مسجد الفرقان عوقد الشمالية صلالة\r\n","District_ID":"Auqad al Shamaliyya","Gov_ID":"2","Wlyt_ID":"Salalah","Road_ID":"105757","Latitude":17.005211429999999,"Longitude":54.017698600000003,"GlobalID":"{EC81AE11-8D97-45B5-AEB8-77BD93BE56C1}"}},{"type":"Feature","id":147,"geometry":{"type":"Point","coordinates":[182975.22229999956,1882855.1035999991]},"properties":{"OBJECTID":147,"Asset_ID":"MSQ147","Name":"مسجد دار التقوى\r\n","District_ID":"Auqad al Shamaliyya","Gov_ID":"2","Wlyt_ID":"Salalah","Road_ID":"105729","Latitude":17.008037330000001,"Longitude":54.022645840000003,"GlobalID":"{73A1148D-AAC9-4DDF-8ECC-BC78DB0310D7}"}},{"type":"Feature","id":148,"geometry":{"type":"Point","coordinates":[182930.56190000009,1882584.2968000006]},"properties":{"OBJECTID":148,"Asset_ID":"MSQ148","Name":"جامع عثمان بن عفان Othman bin Affan Mosque\r\n","District_ID":"Auqad al Shamaliyya","Gov_ID":"2","Wlyt_ID":"Salalah","Road_ID":"105741","Latitude":17.00558655,"Longitude":54.022265480000002,"GlobalID":"{A0F9D3F6-063D-44D1-BA99-585BA9BC71DC}"}},{"type":"Feature","id":149,"geometry":{"type":"Point","coordinates":[183670.16029999964,1882256.0288999993]},"properties":{"OBJECTID":149,"Asset_ID":"MSQ149","Name":"مسجد الخلفاء الراشدين ( بن حم )\r\n","District_ID":"Auqad al Shamaliyya","Gov_ID":"2","Wlyt_ID":"Salalah","Road_ID":"105592","Latitude":17.002724619999999,"Longitude":54.029251309999999,"GlobalID":"{5AF15A62-E3EE-499E-AAFA-A2617F5407C0}"}},{"type":"Feature","id":150,"geometry":{"type":"Point","coordinates":[183752.34080000035,1883100.0181000009]},"properties":{"OBJECTID":150,"Asset_ID":"MSQ150","Name":"Awqad Ash-Shamaliyah Mosque\r\n","District_ID":"Auqad al Shamaliyya","Gov_ID":"2","Wlyt_ID":"Salalah","Road_ID":"105597","Latitude":17.010354849999999,"Longitude":54.02990217,"GlobalID":"{78F3AC75-344E-4EF4-A083-4A987829642A}"}},{"type":"Feature","id":151,"geometry":{"type":"Point","coordinates":[183754.8638000004,1883873.1908999998]},"properties":{"OBJECTID":151,"Asset_ID":"MSQ151","Name":"جامع طيبة","District_ID":"Auqad al Shamaliyya","Gov_ID":"2","Wlyt_ID":"Salalah","Road_ID":"105618","Latitude":17.01733488,"Longitude":54.029815710000001,"GlobalID":"{6F0F50A6-4038-4D8B-ACAD-1168639BF989}"}},{"type":"Feature","id":152,"geometry":{"type":"Point","coordinates":[183523.4095999999,1884119.9835000001]},"properties":{"OBJECTID":152,"Asset_ID":"MSQ152","Name":"مسجد الشيخ عبدالله بن علي باكثير\r\n","District_ID":"Auqad al Shamaliyya","Gov_ID":"2","Wlyt_ID":"Salalah","Road_ID":"105639","Latitude":17.019531010000001,"Longitude":54.027608819999998,"GlobalID":"{96080513-2CA0-4C58-9D2C-83D859B78C87}"}},{"type":"Feature","id":153,"geometry":{"type":"Point","coordinates":[183048.3646999998,1884253.6892000008]},"properties":{"OBJECTID":153,"Asset_ID":"MSQ153","Name":"جامع خالد بن الوليد\r\n","District_ID":"Auqad al Shamaliyya","Gov_ID":"2","Wlyt_ID":"Salalah","Road_ID":"105717","Latitude":17.020672780000002,"Longitude":54.023132410000002,"GlobalID":"{1071225D-8436-4E2D-9442-6970E3D262DB}"}}]
}