{
  "type" : "FeatureCollection",
  "crs" : {
    "type" : "name",
    "properties" : {
      "name" : "EPSG:32640"
    }
  },
  "features" : [{"type":"Feature","id":3,"geometry":{"type":"Point","coordinates":[197631.05169999972,1885178.8965000007]},"properties":{"OBJECTID":3,"Asset_ID":"N3","Name":"Willowtree International Nursery","District_ID":"Dahariz al Shamaliyya","Gov_ID":"Dhofar Governorate","Wlyt_ID":"Salalah","Road_ID":"100023","Latitude":17.030878569999999,"Longitude":54.159938930000003,"GlobalID":"{D4FAADEC-EC9B-4E72-A12A-77AFDBC1BE50}"}},{"type":"Feature","id":4,"geometry":{"type":"Point","coordinates":[197379.10080000013,1886518.0484999996]},"properties":{"OBJECTID":4,"Asset_ID":"N4","Name":"Kindergarten Spring Ozahir","District_ID":"al Sada al Janubiyya","Gov_ID":"2","Wlyt_ID":"Salalah","Road_ID":"100341","Latitude":17.043041120000002,"Longitude":54.157296870000003,"GlobalID":"{40116E55-D717-4820-94E4-96168C9D1232}"}},{"type":"Feature","id":5,"geometry":{"type":"Point","coordinates":[187079.06089999992,1883656.5073000006]},"properties":{"OBJECTID":5,"Asset_ID":"N5","Name":"HAPPY STEPS NURSERY","District_ID":"al Wadi","Gov_ID":"2","Wlyt_ID":"Salalah","Road_ID":"105551","Latitude":17.015749029999998,"Longitude":54.06108588,"GlobalID":"{2F3EBC72-BB17-4D8C-B718-10FB70C1E5AF}"}}]
}