{
  "type" : "FeatureCollection",
  "crs" : {
    "type" : "name",
    "properties" : {
      "name" : "EPSG:32640"
    }
  },
  "features" : [{"type":"Feature","id":1,"geometry":{"type":"Point","coordinates":[187153.14340000041,1883846.5269000009]},"properties":{"OBJECTID":1,"Asset_ID":"OPT1","Name":"Ridhwan Opticals","District_ID":"al Wadi","Gov_ID":"2","Wlyt_ID":"Salalah","Road_ID":"104340","Latitude":17.017576640000001,"Longitude":54.061687710000001,"GlobalID":"{8066FF64-E405-4D99-9ACE-722F8092B6BE}"}},{"type":"Feature","id":2,"geometry":{"type":"Point","coordinates":[190076.6054999996,1883416.5361000001]},"properties":{"OBJECTID":2,"Asset_ID":"OPT2","Name":"Al Daqa National Opticals","District_ID":"Salalah al Gharbiyya","Gov_ID":"2","Wlyt_ID":"Salalah","Road_ID":"103812","Latitude":17.014091839999999,"Longitude":54.089187539999998,"GlobalID":"{B882F337-079B-4B37-A82E-5E572A61644D}"}},{"type":"Feature","id":3,"geometry":{"type":"Point","coordinates":[198024.03129999992,1885595.1304000001]},"properties":{"OBJECTID":3,"Asset_ID":"OPT3","Name":"Rivoli EyeZone Optical & Sunglasses Store","District_ID":"Dahariz al Shamaliyya","Gov_ID":"2","Wlyt_ID":"Salalah","Road_ID":"100014","Latitude":17.034793319999999,"Longitude":54.16347545,"GlobalID":"{EF103A39-E03A-4561-89FF-A48B9BE71B39}"}},{"type":"Feature","id":4,"geometry":{"type":"Point","coordinates":[188604.3097000001,1882808.1651000008]},"properties":{"OBJECTID":4,"Asset_ID":"OPT4","Name":"لمسة الملك للبصريات","District_ID":"Salalah al Gharbiyya","Gov_ID":"2","Wlyt_ID":"Salalah","Road_ID":"104524","Latitude":17.00837984,"Longitude":54.07546773,"GlobalID":"{DBEBA4BA-B21B-4E5C-AB79-82CA6BAF3ECD}"}},{"type":"Feature","id":5,"geometry":{"type":"Point","coordinates":[188971.67810000014,1882908.1046999991]},"properties":{"OBJECTID":5,"Asset_ID":"OPT5","Name":"Cinderella glasses","District_ID":"Salalah al Gharbiyya","Gov_ID":"2","Wlyt_ID":"Salalah","Road_ID":"103824","Latitude":17.009331599999999,"Longitude":54.078900679999997,"GlobalID":"{8CFC6A89-1200-4249-83F8-2572A3F4FB32}"}},{"type":"Feature","id":6,"geometry":{"type":"Point","coordinates":[188942.14690000005,1882860.6822999995]},"properties":{"OBJECTID":6,"Asset_ID":"OPT6","Name":"النظارات الذهبية","District_ID":"Salalah al Gharbiyya","Gov_ID":"2","Wlyt_ID":"Salalah","Road_ID":"104535","Latitude":17.008899509999999,"Longitude":54.078630240000003,"GlobalID":"{9B6EE3E8-D6CB-4E54-BF8F-28A0E690A57E}"}},{"type":"Feature","id":7,"geometry":{"type":"Point","coordinates":[182782.14699999988,1882936.1470999997]},"properties":{"OBJECTID":7,"Asset_ID":"OPT7","Name":"الزين للنظارات","District_ID":"Auqad al Shamaliyya","Gov_ID":"2","Wlyt_ID":"Salalah","Road_ID":"105791","Latitude":17.008742399999999,"Longitude":54.020822770000002,"GlobalID":"{E1AAEB6D-09A0-4B61-BE81-FD46FBC11BC8}"}}]
}