{
  "type" : "FeatureCollection",
  "crs" : {
    "type" : "name",
    "properties" : {
      "name" : "EPSG:32640"
    }
  },
  "features" : [{"type":"Feature","id":1,"geometry":{"type":"Point","coordinates":[198831.01300000027,1886163.1181000005]},"properties":{"OBJECTID":1,"Asset_ID":"OTC1","Name":null,"District_ID":"al Sada al Janubiyya","Gov_ID":"2","Wlyt_ID":"Salalah","Road_ID":"100250","Latitude":17.04002697,"Longitude":54.170971690000002,"GlobalID":"{1B92FC96-7AD3-42CE-A7D2-D28E1D277B1D}"}},{"type":"Feature","id":2,"geometry":{"type":"Point","coordinates":[198133.85329999961,1886187.7247000001]},"properties":{"OBJECTID":2,"Asset_ID":"OTC2","Name":null,"District_ID":"al Sada al Janubiyya","Gov_ID":"2","Wlyt_ID":"Salalah","Road_ID":"100250","Latitude":17.040157870000002,"Longitude":54.164425399999999,"GlobalID":"{00F762F4-5675-4F89-A0A0-6CB5FE95204E}"}},{"type":"Feature","id":3,"geometry":{"type":"Point","coordinates":[188476.45069999993,1883981.3840999994]},"properties":{"OBJECTID":3,"Asset_ID":"OTC3","Name":null,"District_ID":"al Wadi","Gov_ID":"2","Wlyt_ID":"Salalah","Road_ID":"104339","Latitude":17.018954050000001,"Longitude":54.074103430000001,"GlobalID":"{3A8FE39D-85D3-4D40-B0E2-2224835D18F6}"}},{"type":"Feature","id":4,"geometry":{"type":"Point","coordinates":[190359.43950000033,1883966.6544000003]},"properties":{"OBJECTID":4,"Asset_ID":"OTC4","Name":null,"District_ID":"Salalah al Jadida","Gov_ID":"2","Wlyt_ID":"Salalah","Road_ID":"104387","Latitude":17.0190746,"Longitude":54.091774299999997,"GlobalID":"{E35AEAEC-60B4-42FF-9D02-41B28F435B73}"}},{"type":"Feature","id":5,"geometry":{"type":"Point","coordinates":[199082.13210000005,1884082.7770000007]},"properties":{"OBJECTID":5,"Asset_ID":"OTC5","Name":null,"District_ID":"Dahariz al Shamaliyya","Gov_ID":"2","Wlyt_ID":"Salalah","Road_ID":"100005","Latitude":17.021277510000001,"Longitude":54.173610799999999,"GlobalID":"{8BA7E9C1-E971-47A0-B0AE-686278B04E50}"}},{"type":"Feature","id":6,"geometry":{"type":"Point","coordinates":[196263.27680000011,1882739.2112000007]},"properties":{"OBJECTID":6,"Asset_ID":"OTC6","Name":null,"District_ID":"Dahariz al Janubiyya","Gov_ID":"2","Wlyt_ID":"Salalah","Road_ID":"103905","Latitude":17.008777909999999,"Longitude":54.147342139999999,"GlobalID":"{0C4B9CB1-8407-4FDF-9AF8-12160A816679}"}},{"type":"Feature","id":7,"geometry":{"type":"Point","coordinates":[199037.48220000044,1883924.6664000005]},"properties":{"OBJECTID":7,"Asset_ID":"OTC7","Name":null,"District_ID":"Dahariz al Janubiyya","Gov_ID":"2","Wlyt_ID":"Salalah","Road_ID":"100049","Latitude":17.01984418,"Longitude":54.173213240000003,"GlobalID":"{487ED92A-0A03-4958-8322-D291970C6778}"}},{"type":"Feature","id":8,"geometry":{"type":"Point","coordinates":[199024.17669999972,1883881.2703000009]},"properties":{"OBJECTID":8,"Asset_ID":"OTC8","Name":null,"District_ID":"Dahariz al Janubiyya","Gov_ID":"2","Wlyt_ID":"Salalah","Road_ID":"100050","Latitude":17.01945065,"Longitude":54.17309427,"GlobalID":"{734C5652-62F0-4A29-8F60-44A38217BD27}"}},{"type":"Feature","id":9,"geometry":{"type":"Point","coordinates":[196259.42609999981,1882739.2772000004]},"properties":{"OBJECTID":9,"Asset_ID":"OTC9","Name":null,"District_ID":"Dahariz al Janubiyya","Gov_ID":"2","Wlyt_ID":"Salalah","Road_ID":"103905","Latitude":17.008778,"Longitude":54.147306,"GlobalID":"{60C975FE-330E-4B22-9919-BFA43290FA2F}"}},{"type":"Feature","id":10,"geometry":{"type":"Point","coordinates":[203880.1473000003,1886998.4909000006]},"properties":{"OBJECTID":10,"Asset_ID":"OTC10","Name":null,"District_ID":"Razat","Gov_ID":"2","Wlyt_ID":"Salalah","Road_ID":"480001","Latitude":17.048224000000001,"Longitude":54.218248000000003,"GlobalID":"{5039F8CC-BB62-4A31-B693-194916822014}"}},{"type":"Feature","id":12,"geometry":{"type":"Point","coordinates":[195550.17360000033,1885121.2040999997]},"properties":{"OBJECTID":12,"Asset_ID":"OTC12","Name":null,"District_ID":"al Robat","Gov_ID":"2","Wlyt_ID":"Salalah","Road_ID":"102645","Latitude":17.030189100000001,"Longitude":54.140324030000002,"GlobalID":"{F33A85C6-153C-4039-BA77-405C3EB49EE8}"}},{"type":"Feature","id":13,"geometry":{"type":"Point","coordinates":[190289.52450000029,1885214.773]},"properties":{"OBJECTID":13,"Asset_ID":"OTC13","Name":null,"District_ID":"Salalah Airport","Gov_ID":"2","Wlyt_ID":"Salalah","Road_ID":"107112","Latitude":17.030332999999999,"Longitude":54.090944,"GlobalID":"{D422178E-90C0-44DF-A814-D95FE929D4EE}"}},{"type":"Feature","id":14,"geometry":{"type":"Point","coordinates":[200035.76169999968,1885139.6769999992]},"properties":{"OBJECTID":14,"Asset_ID":"OTC14","Name":null,"District_ID":"Sahalnout al Janubiyya","Gov_ID":"2","Wlyt_ID":"Salalah","Road_ID":"103643","Latitude":17.030944000000002,"Longitude":54.182417000000001,"GlobalID":"{F48A2969-052D-4142-A92C-6B28DB93629D}"}},{"type":"Feature","id":15,"geometry":{"type":"Point","coordinates":[195920.43489999976,1886285.5558000002]},"properties":{"OBJECTID":15,"Asset_ID":"OTC15","Name":null,"District_ID":"al Sada al Janubiyya","Gov_ID":"2","Wlyt_ID":"Salalah","Road_ID":"100240","Latitude":17.040749999999999,"Longitude":54.143639,"GlobalID":"{40D41792-D077-4B3F-8A47-6E3E90324F25}"}},{"type":"Feature","id":16,"geometry":{"type":"Point","coordinates":[195570.84200000018,1883226.1636999995]},"properties":{"OBJECTID":16,"Asset_ID":"OTC16","Name":null,"District_ID":"al Baleed","Gov_ID":"2","Wlyt_ID":"Salalah","Road_ID":"103657","Latitude":17.013083000000002,"Longitude":54.140777999999997,"GlobalID":"{E97F6347-92E0-44B3-8A72-763A3E7CAE15}"}},{"type":"Feature","id":17,"geometry":{"type":"Point","coordinates":[203249.37770000007,1894812.7031999994]},"properties":{"OBJECTID":17,"Asset_ID":"OTC17","Name":null,"District_ID":null,"Gov_ID":"2","Wlyt_ID":"Salalah","Road_ID":"102147","Latitude":17.118695070000001,"Longitude":54.211278129999997,"GlobalID":"{6DFE6A89-E337-4DD0-BD49-A5F8552EC9D6}"}},{"type":"Feature","id":18,"geometry":{"type":"Point","coordinates":[200844.89350000024,1895925.2320000008]},"properties":{"OBJECTID":18,"Asset_ID":"OTC18","Name":null,"District_ID":null,"Gov_ID":"2","Wlyt_ID":"Salalah","Road_ID":"101859","Latitude":17.128426999999999,"Longitude":54.18855061,"GlobalID":"{9C709C1A-5A62-4737-B257-777DA30464FC}"}},{"type":"Feature","id":19,"geometry":{"type":"Point","coordinates":[191706.90020000003,1893235.1392000001]},"properties":{"OBJECTID":19,"Asset_ID":"OTC19","Name":null,"District_ID":null,"Gov_ID":"2","Wlyt_ID":"Salalah","Road_ID":"102196","Latitude":17.102929889999999,"Longitude":54.103126979999999,"GlobalID":"{459D66CD-82DA-4688-9484-AB6341D97853}"}},{"type":"Feature","id":20,"geometry":{"type":"Point","coordinates":[188844.96530000027,1891713.9770999998]},"properties":{"OBJECTID":20,"Asset_ID":"OTC20","Name":null,"District_ID":null,"Gov_ID":"2","Wlyt_ID":"Salalah","Road_ID":"102400","Latitude":17.088811119999999,"Longitude":54.076474589999997,"GlobalID":"{2E62CF11-F5F8-4060-8D90-04A3448183EA}"}},{"type":"Feature","id":21,"geometry":{"type":"Point","coordinates":[180294.02400000021,1884498.6353999991]},"properties":{"OBJECTID":21,"Asset_ID":"OTC21","Name":null,"District_ID":"Auqad al Shamaliyya Extension","Gov_ID":"2","Wlyt_ID":"Salalah","Road_ID":"104903","Latitude":17.022503789999998,"Longitude":53.99725359,"GlobalID":"{4AC3FA49-CF55-4B00-8C79-A04DB506ED26}"}},{"type":"Feature","id":22,"geometry":{"type":"Point","coordinates":[185128.31869999971,1886091.7730999999]},"properties":{"OBJECTID":22,"Asset_ID":"OTC22","Name":null,"District_ID":"New Industrial Area","Gov_ID":"2","Wlyt_ID":"Salalah","Road_ID":"105278","Latitude":17.037550809999999,"Longitude":54.042387759999997,"GlobalID":"{2ECF39BC-238C-459B-A5E0-B20C83FA96D1}"}},{"type":"Feature","id":23,"geometry":{"type":"Point","coordinates":[187429.99560000002,1887466.8047000002]},"properties":{"OBJECTID":23,"Asset_ID":"OTC23","Name":null,"District_ID":null,"Gov_ID":"2","Wlyt_ID":"Salalah","Road_ID":"100520","Latitude":17.05027742,"Longitude":54.063792849999999,"GlobalID":"{D0E0C034-7B3E-45F7-A9F0-C90D6F0E89E3}"}},{"type":"Feature","id":24,"geometry":{"type":"Point","coordinates":[187444.40479999967,1887452.3955000006]},"properties":{"OBJECTID":24,"Asset_ID":"OTC24","Name":null,"District_ID":null,"Gov_ID":"2","Wlyt_ID":"Salalah","Road_ID":"100520","Latitude":17.05014929,"Longitude":54.063930110000001,"GlobalID":"{ACF00A6C-55DE-48B1-833E-5E11169D7F89}"}},{"type":"Feature","id":25,"geometry":{"type":"Point","coordinates":[191838.50889999978,1889889.6596000008]},"properties":{"OBJECTID":25,"Asset_ID":"OTC25","Name":null,"District_ID":null,"Gov_ID":"2","Wlyt_ID":"Salalah","Road_ID":"100520","Latitude":17.07274503,"Longitude":54.104829209999998,"GlobalID":"{B44107DF-93A0-4453-81AA-82EAD7192760}"}},{"type":"Feature","id":26,"geometry":{"type":"Point","coordinates":[191851.8638000004,1889900.9057999998]},"properties":{"OBJECTID":26,"Asset_ID":"OTC26","Name":null,"District_ID":null,"Gov_ID":"2","Wlyt_ID":"Salalah","Road_ID":"100520","Latitude":17.072848350000001,"Longitude":54.104952990000001,"GlobalID":"{460E9F17-518F-4EED-B798-358B2F4D3671}"}},{"type":"Feature","id":27,"geometry":{"type":"Point","coordinates":[197721.8217000002,1893429.4736000001]},"properties":{"OBJECTID":27,"Asset_ID":"OTC27","Name":null,"District_ID":null,"Gov_ID":"2","Wlyt_ID":"Salalah","Road_ID":"102012","Latitude":17.105484669999999,"Longitude":54.15956843,"GlobalID":"{FD0408C0-7F8D-4B37-A4C6-A68BBCF50742}"}},{"type":"Feature","id":28,"geometry":{"type":"Point","coordinates":[196970.35020000022,1895576.3746000007]},"properties":{"OBJECTID":28,"Asset_ID":"OTC28","Name":null,"District_ID":null,"Gov_ID":"2","Wlyt_ID":"Salalah","Road_ID":"102098","Latitude":17.124768230000001,"Longitude":54.152218320000003,"GlobalID":"{5782D8E8-8FF8-43CE-B821-A658389981A4}"}},{"type":"Feature","id":29,"geometry":{"type":"Point","coordinates":[196987.89419999998,1895567.6026000008]},"properties":{"OBJECTID":29,"Asset_ID":"OTC29","Name":null,"District_ID":null,"Gov_ID":"2","Wlyt_ID":"Salalah","Road_ID":"102098","Latitude":17.12469136,"Longitude":54.152384249999997,"GlobalID":"{60837612-A523-4ACF-860B-F031310E995F}"}},{"type":"Feature","id":30,"geometry":{"type":"Point","coordinates":[197024.06489999965,1895616.4392000008]},"properties":{"OBJECTID":30,"Asset_ID":"OTC30","Name":null,"District_ID":null,"Gov_ID":"2","Wlyt_ID":"Salalah","Road_ID":"102097","Latitude":17.125137049999999,"Longitude":54.152717150000001,"GlobalID":"{20E151D0-DCBC-4860-AABB-3162E4555FF5}"}},{"type":"Feature","id":31,"geometry":{"type":"Point","coordinates":[200650.90990000032,1894088.3394000009]},"properties":{"OBJECTID":31,"Asset_ID":"OTC31","Name":null,"District_ID":null,"Gov_ID":"2","Wlyt_ID":"Salalah","Road_ID":"101869","Latitude":17.111817299999998,"Longitude":54.18697864,"GlobalID":"{DDDFBF1C-6A8D-445E-909E-79DD73BE858C}"}},{"type":"Feature","id":32,"geometry":{"type":"Point","coordinates":[200583.1381000001,1894202.5800999999]},"properties":{"OBJECTID":32,"Asset_ID":"OTC32","Name":null,"District_ID":null,"Gov_ID":"2","Wlyt_ID":"Salalah","Road_ID":"101869","Latitude":17.112839869999998,"Longitude":54.186326829999999,"GlobalID":"{A2ECD646-9D32-4D35-9D70-C84F63F00F80}"}},{"type":"Feature","id":33,"geometry":{"type":"Point","coordinates":[193988.08090000041,1892160.2267000005]},"properties":{"OBJECTID":33,"Asset_ID":"OTC33","Name":null,"District_ID":null,"Gov_ID":"2","Wlyt_ID":"Salalah","Road_ID":"102178","Latitude":17.093530919999999,"Longitude":54.12469136,"GlobalID":"{4188D8E1-A617-4141-8DCE-1D3AE8DD1321}"}},{"type":"Feature","id":34,"geometry":{"type":"Point","coordinates":[192890.05520000029,1893406.5853000004]},"properties":{"OBJECTID":34,"Asset_ID":"OTC34","Name":null,"District_ID":null,"Gov_ID":"2","Wlyt_ID":"Salalah","Road_ID":"102188","Latitude":17.10463635,"Longitude":54.114210329999999,"GlobalID":"{5D82E259-4034-4111-A6BD-51BF2D1F6019}"}},{"type":"Feature","id":35,"geometry":{"type":"Point","coordinates":[190980.84499999974,1892237.3756000008]},"properties":{"OBJECTID":35,"Asset_ID":"OTC35","Name":null,"District_ID":null,"Gov_ID":"2","Wlyt_ID":"Salalah","Road_ID":"102445","Latitude":17.09382463,"Longitude":54.096450660000002,"GlobalID":"{08A6CDF0-9F5F-44CF-9CD9-4094335D8777}"}},{"type":"Feature","id":36,"geometry":{"type":"Point","coordinates":[190526.49899999984,1890991.5462999996]},"properties":{"OBJECTID":36,"Asset_ID":"OTC36","Name":null,"District_ID":null,"Gov_ID":"2","Wlyt_ID":"Salalah","Road_ID":"102231","Latitude":17.082516380000001,"Longitude":54.092360159999998,"GlobalID":"{984D2B43-D902-4B74-BAC4-EB2CE1C02318}"}},{"type":"Feature","id":37,"geometry":{"type":"Point","coordinates":[190353.65809999965,1891268.7257000003]},"properties":{"OBJECTID":37,"Asset_ID":"OTC37","Name":null,"District_ID":null,"Gov_ID":"2","Wlyt_ID":"Salalah","Road_ID":"102233","Latitude":17.0849954,"Longitude":54.090698920000001,"GlobalID":"{2734CA29-DAF8-4B27-914F-C6CCDD2D8912}"}},{"type":"Feature","id":38,"geometry":{"type":"Point","coordinates":[181400.42580000032,1885125.6339999996]},"properties":{"OBJECTID":38,"Asset_ID":"OTC38","Name":null,"District_ID":"Auqad al Shamaliyya Extension","Gov_ID":"2","Wlyt_ID":"Salalah","Road_ID":"104875","Latitude":17.0283169,"Longitude":54.007544770000003,"GlobalID":"{C17487F9-C014-438C-B1E4-419B18E21E40}"}},{"type":"Feature","id":39,"geometry":{"type":"Point","coordinates":[184486.38520000037,1887120.3512999993]},"properties":{"OBJECTID":39,"Asset_ID":"OTC39","Name":null,"District_ID":"Auqad al Shamaliyya Extension","Gov_ID":"2","Wlyt_ID":"Salalah","Road_ID":"104767","Latitude":17.046748340000001,"Longitude":54.036217440000001,"GlobalID":"{48AB4ABB-DAB6-4CA5-A257-2E36C558526F}"}},{"type":"Feature","id":40,"geometry":{"type":"Point","coordinates":[184934.43410000019,1888669.4038999993]},"properties":{"OBJECTID":40,"Asset_ID":"OTC40","Name":null,"District_ID":null,"Gov_ID":"2","Wlyt_ID":"Salalah","Road_ID":"105088","Latitude":17.06079356,"Longitude":54.040201670000002,"GlobalID":"{1533A19C-666C-4DE7-99A2-21FF2D0054F0}"}},{"type":"Feature","id":41,"geometry":{"type":"Point","coordinates":[196752.94060000032,1893760.6655999999]},"properties":{"OBJECTID":41,"Asset_ID":"OTC41","Name":null,"District_ID":null,"Gov_ID":"2","Wlyt_ID":"Salalah","Road_ID":"102167","Latitude":17.108346879999999,"Longitude":54.150426760000002,"GlobalID":"{E1CB425A-F125-4BCB-9014-0FFA48ABED61}"}},{"type":"Feature","id":42,"geometry":{"type":"Point","coordinates":[183418.84399999958,1886105.5806000009]},"properties":{"OBJECTID":42,"Asset_ID":"OTC42","Name":null,"District_ID":"Auqad al Shamaliyya Extension","Gov_ID":"2","Wlyt_ID":"Salalah","Road_ID":"104751","Latitude":17.037441210000001,"Longitude":54.026344260000002,"GlobalID":"{116114C7-FAC1-4466-87DD-D35F02587B7A}"}},{"type":"Feature","id":43,"geometry":{"type":"Point","coordinates":[182705.30549999978,1885811.1364999991]},"properties":{"OBJECTID":43,"Asset_ID":"OTC43","Name":null,"District_ID":"Auqad al Shamaliyya Extension","Gov_ID":"2","Wlyt_ID":"Salalah","Road_ID":"104793","Latitude":17.03468505,"Longitude":54.019690709999999,"GlobalID":"{217FAB94-7F37-4628-B989-1FF63CDC0205}"}},{"type":"Feature","id":44,"geometry":{"type":"Point","coordinates":[183078.76769999973,1885363.7640000004]},"properties":{"OBJECTID":44,"Asset_ID":"OTC44","Name":null,"District_ID":"Auqad al Shamaliyya Extension","Gov_ID":"2","Wlyt_ID":"Salalah","Road_ID":"104797","Latitude":17.030697889999999,"Longitude":54.023259090000003,"GlobalID":"{5260D4E8-75CB-4700-A00F-4F66033D6BE0}"}},{"type":"Feature","id":45,"geometry":{"type":"Point","coordinates":[187800.07569999993,1889371.3381999992]},"properties":{"OBJECTID":45,"Asset_ID":"OTC45","Name":null,"District_ID":null,"Gov_ID":"2","Wlyt_ID":"Salalah","Road_ID":"102353","Latitude":17.067520980000001,"Longitude":54.06699733,"GlobalID":"{FCACC2D9-D0CD-4F00-BC6D-AE3BDF93EF2D}"}},{"type":"Feature","id":46,"geometry":{"type":"Point","coordinates":[187810.87200000044,1889370.6184]},"properties":{"OBJECTID":46,"Asset_ID":"OTC46","Name":null,"District_ID":null,"Gov_ID":"2","Wlyt_ID":"Salalah","Road_ID":"102353","Latitude":17.067515950000001,"Longitude":54.06709876,"GlobalID":"{867ED47F-508C-4854-BA67-7A4ECC8717F5}"}},{"type":"Feature","id":47,"geometry":{"type":"Point","coordinates":[187830.80640000012,1890852.9844000004]},"properties":{"OBJECTID":47,"Asset_ID":"OTC47","Name":null,"District_ID":null,"Gov_ID":"2","Wlyt_ID":"Salalah","Road_ID":"104585","Latitude":17.080900830000001,"Longitude":54.067076569999998,"GlobalID":"{62780EF5-2118-4719-86F5-A9DB09CE2329}"}},{"type":"Feature","id":48,"geometry":{"type":"Point","coordinates":[195582.62679999974,1893483.6338999998]},"properties":{"OBJECTID":48,"Asset_ID":"OTC48","Name":null,"District_ID":null,"Gov_ID":"2","Wlyt_ID":"Salalah","Road_ID":"102340","Latitude":17.105690790000001,"Longitude":54.139477659999997,"GlobalID":"{E2DC4295-6E2D-488E-82C6-33D7F0AE745F}"}},{"type":"Feature","id":49,"geometry":{"type":"Point","coordinates":[183104.95480000041,1880921.8392999992]},"properties":{"OBJECTID":49,"Asset_ID":"OTC49","Name":null,"District_ID":"Auqad al Shamaliyya","Gov_ID":"2","Wlyt_ID":"Salalah","Road_ID":"102645","Latitude":16.990603,"Longitude":54.024138720000003,"GlobalID":"{770F9620-0D71-4624-9774-FA1D6104756A}"}},{"type":"Feature","id":50,"geometry":{"type":"Point","coordinates":[183118.88750000019,1880929.8007999994]},"properties":{"OBJECTID":50,"Asset_ID":"OTC50","Name":null,"District_ID":"Auqad al Shamaliyya","Gov_ID":"2","Wlyt_ID":"Salalah","Road_ID":"102645","Latitude":16.990676789999998,"Longitude":54.024268290000002,"GlobalID":"{90ECF86E-EF2A-496F-959B-C7D8829C8E36}"}},{"type":"Feature","id":51,"geometry":{"type":"Point","coordinates":[182249.55869999994,1880331.5653000008]},"properties":{"OBJECTID":51,"Asset_ID":"OTC51","Name":null,"District_ID":"Wadi Adhan","Gov_ID":"2","Wlyt_ID":"Salalah","Road_ID":"105725","Latitude":16.985157000000001,"Longitude":54.016198209999999,"GlobalID":"{7088C27C-CD47-41AC-A814-4CAFF8116147}"}},{"type":"Feature","id":52,"geometry":{"type":"Point","coordinates":[182152.76829999965,1880328.0149000008]},"properties":{"OBJECTID":52,"Asset_ID":"OTC52","Name":null,"District_ID":"Wadi Adhan","Gov_ID":"2","Wlyt_ID":"Salalah","Road_ID":"106091","Latitude":16.98511164,"Longitude":54.015290720000003,"GlobalID":"{B6299649-2C26-4184-8D62-AD9E826ED7D6}"}},{"type":"Feature","id":53,"geometry":{"type":"Point","coordinates":[188786.43850000016,1882022.7871000003]},"properties":{"OBJECTID":53,"Asset_ID":"OTC53","Name":null,"District_ID":"Salalah al Gharbiyya","Gov_ID":"2","Wlyt_ID":"Salalah","Road_ID":"104536","Latitude":17.001314239999999,"Longitude":54.077286639999997,"GlobalID":"{744BA14C-1317-45B9-9FAF-2D33920C44CA}"}},{"type":"Feature","id":54,"geometry":{"type":"Point","coordinates":[198364.55260000005,1884311.9561999999]},"properties":{"OBJECTID":54,"Asset_ID":"OTC54","Name":null,"District_ID":"Dahariz al Shamaliyya","Gov_ID":"2","Wlyt_ID":"Salalah","Road_ID":"100002","Latitude":17.023252889999998,"Longitude":54.166845719999998,"GlobalID":"{D0816617-F556-4A4C-B82D-72BE28027388}"}},{"type":"Feature","id":55,"geometry":{"type":"Point","coordinates":[193961.04289999977,1885342.9091999996]},"properties":{"OBJECTID":55,"Asset_ID":"OTC55","Name":null,"District_ID":"Jerziz Farm","Gov_ID":"2","Wlyt_ID":"Salalah","Road_ID":"100551","Latitude":17.031980229999998,"Longitude":54.125380470000003,"GlobalID":"{2227F8CB-C726-46A8-BCD2-58A7179C6C82}"}},{"type":"Feature","id":56,"geometry":{"type":"Point","coordinates":[193902.93180000037,1886223.9188000001]},"properties":{"OBJECTID":56,"Asset_ID":"OTC56","Name":null,"District_ID":"Jerziz Farm","Gov_ID":"2","Wlyt_ID":"Salalah","Road_ID":"100542","Latitude":17.03992633,"Longitude":54.124713479999997,"GlobalID":"{695CEA96-2247-4192-988E-96A6DE027028}"}},{"type":"Feature","id":57,"geometry":{"type":"Point","coordinates":[194851.17310000025,1885632.7714000009]},"properties":{"OBJECTID":57,"Asset_ID":"OTC57","Name":null,"District_ID":"Jerziz Farm","Gov_ID":"2","Wlyt_ID":"Salalah","Road_ID":"100620","Latitude":17.034715169999998,"Longitude":54.13369393,"GlobalID":"{8DCD95CC-7D4F-4E47-BDCB-02ED490DD153}"}},{"type":"Feature","id":58,"geometry":{"type":"Point","coordinates":[195042.98099999968,1886334.8510999996]},"properties":{"OBJECTID":58,"Asset_ID":"OTC58","Name":null,"District_ID":"Jerziz Farm","Gov_ID":"2","Wlyt_ID":"Salalah","Road_ID":"100540","Latitude":17.04107905,"Longitude":54.13539737,"GlobalID":"{4987F650-E26B-44E7-BBE2-736EEB94B9EA}"}},{"type":"Feature","id":59,"geometry":{"type":"Point","coordinates":[195532.19699999969,1885299.7732999995]},"properties":{"OBJECTID":59,"Asset_ID":"OTC59","Name":null,"District_ID":"Jerziz Farm","Gov_ID":"2","Wlyt_ID":"Salalah","Road_ID":"102645","Latitude":17.03179888,"Longitude":54.140130810000002,"GlobalID":"{E241B888-3A7D-4C28-99BD-C21FDB121BE7}"}},{"type":"Feature","id":60,"geometry":{"type":"Point","coordinates":[186969.40230000019,1886261.8752999995]},"properties":{"OBJECTID":60,"Asset_ID":"OTC60","Name":null,"District_ID":"New Industrial Area","Gov_ID":"2","Wlyt_ID":"Salalah","Road_ID":"105208","Latitude":17.039337289999999,"Longitude":54.059640549999997,"GlobalID":"{689ACDE0-45B1-4461-8403-465C34D1EB83}"}},{"type":"Feature","id":61,"geometry":{"type":"Point","coordinates":[186973.11490000039,1886298.7965999991]},"properties":{"OBJECTID":61,"Asset_ID":"OTC61","Name":null,"District_ID":"New Industrial Area","Gov_ID":"2","Wlyt_ID":"Salalah","Road_ID":"105208","Latitude":17.0396711,"Longitude":54.059670169999997,"GlobalID":"{4F163D02-3CFB-4D42-BB36-363CA1423686}"}},{"type":"Feature","id":62,"geometry":{"type":"Point","coordinates":[186972.44020000007,1886316.4341000002]},"properties":{"OBJECTID":62,"Asset_ID":"OTC62","Name":null,"District_ID":"New Industrial Area","Gov_ID":"2","Wlyt_ID":"Salalah","Road_ID":"105208","Latitude":17.03983023,"Longitude":54.059661349999999,"GlobalID":"{73769C8A-22CB-426D-903C-44E4FB1C3C95}"}},{"type":"Feature","id":63,"geometry":{"type":"Point","coordinates":[186990.10190000013,1886826.8753999993]},"properties":{"OBJECTID":63,"Asset_ID":"OTC63","Name":null,"District_ID":"New Industrial Area","Gov_ID":"2","Wlyt_ID":"Salalah","Road_ID":"105209","Latitude":17.044440659999999,"Longitude":54.059754980000001,"GlobalID":"{5496C7D6-13C7-4917-98F1-E48B0F553FDE}"}},{"type":"Feature","id":64,"geometry":{"type":"Point","coordinates":[186627.01979999989,1886371.2533999998]},"properties":{"OBJECTID":64,"Asset_ID":"OTC64","Name":null,"District_ID":"New Industrial Area","Gov_ID":"2","Wlyt_ID":"Salalah","Road_ID":"105210","Latitude":17.040278149999999,"Longitude":54.056412100000003,"GlobalID":"{8621855F-4970-4F0E-B114-22C552CC032B}"}},{"type":"Feature","id":65,"geometry":{"type":"Point","coordinates":[186512.71899999958,1886623.5734999999]},"properties":{"OBJECTID":65,"Asset_ID":"OTC65","Name":null,"District_ID":"New Industrial Area","Gov_ID":"2","Wlyt_ID":"Salalah","Road_ID":"105210","Latitude":17.042540420000002,"Longitude":54.055303780000003,"GlobalID":"{CE3CB92D-AD5E-4511-95AD-9AFEF6CDC374}"}},{"type":"Feature","id":66,"geometry":{"type":"Point","coordinates":[185731.13640000019,1886068.1076999996]},"properties":{"OBJECTID":66,"Asset_ID":"OTC66","Name":null,"District_ID":"New Industrial Area","Gov_ID":"2","Wlyt_ID":"Salalah","Road_ID":"105222","Latitude":17.037419480000001,"Longitude":54.048047949999997,"GlobalID":"{A30DA411-ECBC-47A5-8125-2E3F568733A4}"}},{"type":"Feature","id":67,"geometry":{"type":"Point","coordinates":[185259.47620000038,1885314.0837999992]},"properties":{"OBJECTID":67,"Asset_ID":"OTC67","Name":null,"District_ID":"New Industrial Area","Gov_ID":"2","Wlyt_ID":"Salalah","Road_ID":"105253","Latitude":17.030548209999999,"Longitude":54.043728940000001,"GlobalID":"{7B16A815-46CF-4700-A1FF-BCCF6463FCC6}"}},{"type":"Feature","id":68,"geometry":{"type":"Point","coordinates":[184709.43169999961,1885320.7851999998]},"properties":{"OBJECTID":68,"Asset_ID":"OTC68","Name":null,"District_ID":"New Industrial Area","Gov_ID":"2","Wlyt_ID":"Salalah","Road_ID":"105248","Latitude":17.03053353,"Longitude":54.038566590000002,"GlobalID":"{B0127042-B9D5-4507-A9D0-529AE7D580DD}"}},{"type":"Feature","id":69,"geometry":{"type":"Point","coordinates":[194827.45189999975,1884096.2862999998]},"properties":{"OBJECTID":69,"Asset_ID":"OTC69","Name":null,"District_ID":"al Robat","Gov_ID":"2","Wlyt_ID":"Salalah","Road_ID":"103923","Latitude":17.020840410000002,"Longitude":54.133682729999997,"GlobalID":"{4461933C-F06A-4BDC-B072-DA745075D6BB}"}},{"type":"Feature","id":70,"geometry":{"type":"Point","coordinates":[193805.53610000014,1882416.9354999997]},"properties":{"OBJECTID":70,"Asset_ID":"OTC70","Name":null,"District_ID":"al Baleed","Gov_ID":"2","Wlyt_ID":"Salalah","Road_ID":"100002","Latitude":17.005543639999999,"Longitude":54.12432484,"GlobalID":"{FAB15E52-AB94-4D9D-94BE-8D2A9FC46BB8}"}},{"type":"Feature","id":71,"geometry":{"type":"Point","coordinates":[193847.5672000004,1882423.3613000009]},"properties":{"OBJECTID":71,"Asset_ID":"OTC71","Name":null,"District_ID":"al Baleed","Gov_ID":"2","Wlyt_ID":"Salalah","Road_ID":"103793","Latitude":17.005607220000002,"Longitude":54.124718340000001,"GlobalID":"{4EA39752-81F7-4C81-9434-63AA7C268B5C}"}},{"type":"Feature","id":72,"geometry":{"type":"Point","coordinates":[193937.84470000025,1882396.9206000008]},"properties":{"OBJECTID":72,"Asset_ID":"OTC72","Name":null,"District_ID":"al Baleed","Gov_ID":"2","Wlyt_ID":"Salalah","Road_ID":"103763","Latitude":17.00538049,"Longitude":54.125569059999997,"GlobalID":"{2B6B55C2-E3C7-45D4-A455-0433C9398DF4}"}},{"type":"Feature","id":73,"geometry":{"type":"Point","coordinates":[197046.16029999964,1891283.7829999998]},"properties":{"OBJECTID":73,"Asset_ID":"OTC73","Name":null,"District_ID":"al Sada al Shamaliyya","Gov_ID":"2","Wlyt_ID":"Salalah","Road_ID":"100003","Latitude":17.08602372,"Longitude":54.153519559999999,"GlobalID":"{F5293BD0-43F3-4950-8CAA-1FF193795962}"}},{"type":"Feature","id":74,"geometry":{"type":"Point","coordinates":[196750.70260000043,1892453.6283999998]},"properties":{"OBJECTID":74,"Asset_ID":"OTC74","Name":null,"District_ID":"al Sada al Shamaliyya","Gov_ID":"2","Wlyt_ID":"Salalah","Road_ID":"102596","Latitude":17.096546369999999,"Longitude":54.150585360000001,"GlobalID":"{62CAA5B8-D2C0-49F1-A671-824A45A03A88}"}},{"type":"Feature","id":75,"geometry":{"type":"Point","coordinates":[196533.98900000006,1892331.8659000006]},"properties":{"OBJECTID":75,"Asset_ID":"OTC75","Name":null,"District_ID":"al Sada al Shamaliyya","Gov_ID":"2","Wlyt_ID":"Salalah","Road_ID":"102596","Latitude":17.095418429999999,"Longitude":54.148567640000003,"GlobalID":"{9DA229CB-C1E7-4885-9C8F-2841859324BF}"}},{"type":"Feature","id":76,"geometry":{"type":"Point","coordinates":[196307.46640000027,1891212.5932]},"properties":{"OBJECTID":76,"Asset_ID":"OTC76","Name":null,"District_ID":"Salalah Wellfield","Gov_ID":"2","Wlyt_ID":"Salalah","Road_ID":"100532","Latitude":17.085283459999999,"Longitude":54.146595009999999,"GlobalID":"{D22083F8-7C8D-42ED-8F5F-245F97D2DE3F}"}},{"type":"Feature","id":77,"geometry":{"type":"Point","coordinates":[195766.00939999986,1891736.5248000007]},"properties":{"OBJECTID":77,"Asset_ID":"OTC77","Name":null,"District_ID":"Salalah Wellfield","Gov_ID":"2","Wlyt_ID":"Salalah","Road_ID":"100625","Latitude":17.08994195,"Longitude":54.141440090000003,"GlobalID":"{1E37C011-D7FF-47E3-9F2A-F41B5E8BE555}"}},{"type":"Feature","id":78,"geometry":{"type":"Point","coordinates":[195780.0036000004,1891736.9170999993]},"properties":{"OBJECTID":78,"Asset_ID":"OTC78","Name":null,"District_ID":"Salalah Wellfield","Gov_ID":"2","Wlyt_ID":"Salalah","Road_ID":"100625","Latitude":17.089947349999999,"Longitude":54.141571399999997,"GlobalID":"{24F5C7C8-6A28-4C0A-93E8-C856DB2156E0}"}},{"type":"Feature","id":79,"geometry":{"type":"Point","coordinates":[195693.42279999983,1889116.3435999993]},"properties":{"OBJECTID":79,"Asset_ID":"OTC79","Name":null,"District_ID":"Salalah Wellfield","Gov_ID":"2","Wlyt_ID":"Salalah","Road_ID":"100579","Latitude":17.066276909999999,"Longitude":54.141119420000003,"GlobalID":"{B1AB2E33-EA72-499F-A949-985FC22B5CB6}"}},{"type":"Feature","id":80,"geometry":{"type":"Point","coordinates":[195627.63709999993,1889981.1053999998]},"properties":{"OBJECTID":80,"Asset_ID":"OTC80","Name":null,"District_ID":"Salalah Wellfield","Gov_ID":"2","Wlyt_ID":"Salalah","Road_ID":"100531","Latitude":17.07407542,"Longitude":54.14038292,"GlobalID":"{2A7F29CE-E2B9-4180-8D90-BB8ABE9F49AE}"}},{"type":"Feature","id":81,"geometry":{"type":"Point","coordinates":[203955.62009999994,1893189.4023000002]},"properties":{"OBJECTID":81,"Asset_ID":"OTC81","Name":null,"District_ID":null,"Gov_ID":"2","Wlyt_ID":"Salalah","Road_ID":"103672","Latitude":17.10413003,"Longitude":54.218127269999997,"GlobalID":"{CA14EAC6-E1D3-46EA-9FB8-8E25DF3DF5B9}"}},{"type":"Feature","id":82,"geometry":{"type":"Point","coordinates":[203652.59520000033,1893189.2773000002]},"properties":{"OBJECTID":82,"Asset_ID":"OTC82","Name":null,"District_ID":null,"Gov_ID":"2","Wlyt_ID":"Salalah","Road_ID":"103668","Latitude":17.104089779999999,"Longitude":54.215282270000003,"GlobalID":"{7140B116-6233-41DC-93EB-CCC17793412D}"}},{"type":"Feature","id":83,"geometry":{"type":"Point","coordinates":[203334.35639999993,1893190.8434999995]},"properties":{"OBJECTID":83,"Asset_ID":"OTC83","Name":null,"District_ID":null,"Gov_ID":"2","Wlyt_ID":"Salalah","Road_ID":"103668","Latitude":17.104062800000001,"Longitude":54.212294210000003,"GlobalID":"{F3A45C13-0CC9-4769-ACEA-68F13C84115B}"}},{"type":"Feature","id":84,"geometry":{"type":"Point","coordinates":[203042.72130000032,1893190.2471999992]},"properties":{"OBJECTID":84,"Asset_ID":"OTC84","Name":null,"District_ID":null,"Gov_ID":"2","Wlyt_ID":"Salalah","Road_ID":"101820","Latitude":17.104019690000001,"Longitude":54.209556220000003,"GlobalID":"{80B9E63C-B21E-45AA-AF2A-46FBE4A3EDA6}"}},{"type":"Feature","id":85,"geometry":{"type":"Point","coordinates":[202711.72449999955,1893190.2471999992]},"properties":{"OBJECTID":85,"Asset_ID":"OTC85","Name":null,"District_ID":null,"Gov_ID":"2","Wlyt_ID":"Salalah","Road_ID":"101821","Latitude":17.10397682,"Longitude":54.206448600000002,"GlobalID":"{8F2AADAF-68D9-4DCB-A788-ABB99DE02DC9}"}},{"type":"Feature","id":86,"geometry":{"type":"Point","coordinates":[202333.76180000044,1893191.1416999996]},"properties":{"OBJECTID":86,"Asset_ID":"OTC86","Name":null,"District_ID":null,"Gov_ID":"2","Wlyt_ID":"Salalah","Road_ID":"101816","Latitude":17.103935889999999,"Longitude":54.202899930000001,"GlobalID":"{872E1FF9-5F9E-4DBD-AB1C-BBFE30BB2A01}"}},{"type":"Feature","id":87,"geometry":{"type":"Point","coordinates":[201970.55989999976,1893191.4398999996]},"properties":{"OBJECTID":87,"Asset_ID":"OTC87","Name":null,"District_ID":null,"Gov_ID":"2","Wlyt_ID":"Salalah","Road_ID":"101814","Latitude":17.103891440000002,"Longitude":54.199489929999999,"GlobalID":"{5E46A4BE-28CF-4C10-BC6C-19253E320B85}"}},{"type":"Feature","id":88,"geometry":{"type":"Point","coordinates":[201610.78710000031,1893191.4398999996]},"properties":{"OBJECTID":88,"Asset_ID":"OTC88","Name":null,"District_ID":null,"Gov_ID":"2","Wlyt_ID":"Salalah","Road_ID":"102598","Latitude":17.103844680000002,"Longitude":54.19611218,"GlobalID":"{C9E37581-F42A-4202-ABBC-48AE8AFC63C0}"}},{"type":"Feature","id":89,"geometry":{"type":"Point","coordinates":[201273.23000000045,1892834.7982999999]},"properties":{"OBJECTID":89,"Asset_ID":"OTC89","Name":null,"District_ID":"Sahalnout al Shamaliyya","Gov_ID":"2","Wlyt_ID":"Salalah","Road_ID":"102857","Latitude":17.100580799999999,"Longitude":54.192991290000002,"GlobalID":"{20840BD3-4A07-4F56-A5FB-5CF3EC98980A}"}},{"type":"Feature","id":90,"geometry":{"type":"Point","coordinates":[201250.11980000045,1893191.2907999996]},"properties":{"OBJECTID":90,"Asset_ID":"OTC90","Name":null,"District_ID":null,"Gov_ID":"2","Wlyt_ID":"Salalah","Road_ID":"102005","Latitude":17.1037964,"Longitude":54.192726059999998,"GlobalID":"{68333875-3FD3-4920-B71C-0152D16A3565}"}},{"type":"Feature","id":91,"geometry":{"type":"Point","coordinates":[200890.3470999999,1893190.2471999992]},"properties":{"OBJECTID":91,"Asset_ID":"OTC91","Name":null,"District_ID":null,"Gov_ID":"2","Wlyt_ID":"Salalah","Road_ID":"101984","Latitude":17.1037401,"Longitude":54.189348469999999,"GlobalID":"{216DB647-D2D2-40CB-A91E-8CCA98F11B59}"}},{"type":"Feature","id":92,"geometry":{"type":"Point","coordinates":[200661.63129999954,1891802.4459000006]},"properties":{"OBJECTID":92,"Asset_ID":"OTC92","Name":null,"District_ID":"Sahalnout al Shamaliyya","Gov_ID":"2","Wlyt_ID":"Salalah","Road_ID":"102922","Latitude":17.0911805,"Longitude":54.187389369999998,"GlobalID":"{6414A848-D069-4F6F-B4C4-B3D90930C708}"}},{"type":"Feature","id":93,"geometry":{"type":"Point","coordinates":[200530.72350000031,1893190.9925999995]},"properties":{"OBJECTID":93,"Asset_ID":"OTC93","Name":null,"District_ID":null,"Gov_ID":"2","Wlyt_ID":"Salalah","Road_ID":"102598","Latitude":17.10369992,"Longitude":54.185972049999997,"GlobalID":"{05457F0F-BF53-4A2E-9C25-FEB36C5F369E}"}},{"type":"Feature","id":94,"geometry":{"type":"Point","coordinates":[200495.53639999963,1891816.3120000008]},"properties":{"OBJECTID":94,"Asset_ID":"OTC94","Name":null,"District_ID":"Sahalnout al Shamaliyya","Gov_ID":"2","Wlyt_ID":"Salalah","Road_ID":"102656","Latitude":17.091284030000001,"Longitude":54.185828219999998,"GlobalID":"{ABDB08FD-C34A-47D1-A630-3B7B8ECA6318}"}},{"type":"Feature","id":95,"geometry":{"type":"Point","coordinates":[200374.61820000038,1892108.6925000008]},"properties":{"OBJECTID":95,"Asset_ID":"OTC95","Name":null,"District_ID":"Sahalnout al Shamaliyya","Gov_ID":"2","Wlyt_ID":"Salalah","Road_ID":"102899","Latitude":17.09390801,"Longitude":54.184653390000001,"GlobalID":"{68D4A368-9448-4357-AF9C-09CD990539EF}"}},{"type":"Feature","id":96,"geometry":{"type":"Point","coordinates":[200169.75800000038,1893190.3962999992]},"properties":{"OBJECTID":96,"Asset_ID":"OTC96","Name":null,"District_ID":null,"Gov_ID":"2","Wlyt_ID":"Salalah","Road_ID":"101869","Latitude":17.1036474,"Longitude":54.182583229999999,"GlobalID":"{69D37190-96C5-4286-A9C5-B23F192B73AD}"}},{"type":"Feature","id":97,"geometry":{"type":"Point","coordinates":[199791.64630000014,1893191.1416999996]},"properties":{"OBJECTID":97,"Asset_ID":"OTC97","Name":null,"District_ID":null,"Gov_ID":"2","Wlyt_ID":"Salalah","Road_ID":"102598","Latitude":17.103604690000001,"Longitude":54.179033250000003,"GlobalID":"{D56FFC15-143F-4244-AA39-F2461C3A2661}"}},{"type":"Feature","id":98,"geometry":{"type":"Point","coordinates":[199409.65799999982,1893191.4398999996]},"properties":{"OBJECTID":98,"Asset_ID":"OTC98","Name":null,"District_ID":null,"Gov_ID":"2","Wlyt_ID":"Salalah","Road_ID":"102598","Latitude":17.103557370000001,"Longitude":54.175446960000002,"GlobalID":"{4A105CB2-E091-4E3D-9FEF-026C596C8AD8}"}},{"type":"Feature","id":99,"geometry":{"type":"Point","coordinates":[199048.24519999977,1893190.6943999995]},"properties":{"OBJECTID":99,"Asset_ID":"OTC99","Name":null,"District_ID":null,"Gov_ID":"2","Wlyt_ID":"Salalah","Road_ID":"102598","Latitude":17.10350326,"Longitude":54.172053990000002,"GlobalID":"{2AF2EC05-9D44-4E4A-A431-D8632E32D1A1}"}},{"type":"Feature","id":100,"geometry":{"type":"Point","coordinates":[199034.82639999967,1892955.7164999992]},"properties":{"OBJECTID":100,"Asset_ID":"OTC100","Name":null,"District_ID":"Sahalnout al Shamaliyya","Gov_ID":"2","Wlyt_ID":"Salalah","Road_ID":"102722","Latitude":17.101380030000001,"Longitude":54.171960060000004,"GlobalID":"{60C685AD-70F5-421B-B4FC-0CD38FAFE5F2}"}},{"type":"Feature","id":101,"geometry":{"type":"Point","coordinates":[198690.11249999981,1893190.8434999995]},"properties":{"OBJECTID":101,"Asset_ID":"OTC101","Name":null,"District_ID":null,"Gov_ID":"2","Wlyt_ID":"Salalah","Road_ID":"101984","Latitude":17.10345761,"Longitude":54.168691699999997,"GlobalID":"{D340C6A4-1AE2-426E-BD03-C3A26922EB1C}"}},{"type":"Feature","id":102,"geometry":{"type":"Point","coordinates":[198087.45969999954,1892092.7390999999]},"properties":{"OBJECTID":102,"Asset_ID":"OTC102","Name":null,"District_ID":"Sahalnout al Shamaliyya","Gov_ID":"2","Wlyt_ID":"Salalah","Road_ID":"102666","Latitude":17.093464350000001,"Longitude":54.163184020000003,"GlobalID":"{628F971E-ACAF-4B3D-B951-A86F255DDF10}"}},{"type":"Feature","id":103,"geometry":{"type":"Point","coordinates":[198018.57660000026,1891186.0759999994]},"properties":{"OBJECTID":103,"Asset_ID":"OTC103","Name":null,"District_ID":"al Sada al Shamaliyya","Gov_ID":"2","Wlyt_ID":"Salalah","Road_ID":"102597","Latitude":17.08526964,"Longitude":54.162661329999999,"GlobalID":"{64DCBB1A-5EF7-4ED0-9FA7-A0B20E010ADB}"}},{"type":"Feature","id":104,"geometry":{"type":"Point","coordinates":[198017.83110000007,1891243.1805000007]},"properties":{"OBJECTID":104,"Asset_ID":"OTC104","Name":null,"District_ID":"al Sada al Shamaliyya","Gov_ID":"2","Wlyt_ID":"Salalah","Road_ID":"102597","Latitude":17.085785099999999,"Longitude":54.162646530000004,"GlobalID":"{82581DBF-489E-434C-AF25-2AF37B9A2A5B}"}},{"type":"Feature","id":105,"geometry":{"type":"Point","coordinates":[197340.46569999959,1892483.2346000001]},"properties":{"OBJECTID":105,"Asset_ID":"OTC105","Name":null,"District_ID":"al Sada al Shamaliyya","Gov_ID":"2","Wlyt_ID":"Salalah","Road_ID":"102516","Latitude":17.096891500000002,"Longitude":54.156117909999999,"GlobalID":"{6D263788-ED6B-4907-99E7-86A3BE2C42BB}"}},{"type":"Feature","id":106,"geometry":{"type":"Point","coordinates":[196645.49749999959,1893059.5496999994]},"properties":{"OBJECTID":106,"Asset_ID":"OTC106","Name":null,"District_ID":null,"Gov_ID":"2","Wlyt_ID":"Salalah","Road_ID":"63476","Latitude":17.102002859999999,"Longitude":54.149514439999997,"GlobalID":"{6DA353C2-4931-4E4C-ADAC-C2FC6E1B8EEC}"}},{"type":"Feature","id":107,"geometry":{"type":"Point","coordinates":[183260.24189999979,1884506.0644000005]},"properties":{"OBJECTID":107,"Asset_ID":"OTC107","Name":null,"District_ID":"Auqad al Shamaliyya","Gov_ID":"2","Wlyt_ID":"Salalah","Road_ID":"105650","Latitude":17.022980149999999,"Longitude":54.02508443,"GlobalID":"{1756241F-F323-46DF-9244-A375BEF38ACB}"}},{"type":"Feature","id":108,"geometry":{"type":"Point","coordinates":[183404.50299999956,1883566.6860000007]},"properties":{"OBJECTID":108,"Asset_ID":"OTC108","Name":null,"District_ID":"Auqad al Shamaliyya","Gov_ID":"2","Wlyt_ID":"Salalah","Road_ID":"105604","Latitude":17.014519910000001,"Longitude":54.026572049999999,"GlobalID":"{AFF8960E-D9B4-41FD-A0A4-1DEDAD229778}"}},{"type":"Feature","id":109,"geometry":{"type":"Point","coordinates":[183224.48350000009,1884518.8278000001]},"properties":{"OBJECTID":109,"Asset_ID":"OTC109","Name":null,"District_ID":"Auqad al Shamaliyya","Gov_ID":"2","Wlyt_ID":"Salalah","Road_ID":"105650","Latitude":17.023090459999999,"Longitude":54.024747079999997,"GlobalID":"{B9CE1183-A19B-4567-A083-67F39C0E4435}"}},{"type":"Feature","id":110,"geometry":{"type":"Point","coordinates":[183099.62839999981,1882042.7890000008]},"properties":{"OBJECTID":110,"Asset_ID":"OTC110","Name":null,"District_ID":"Auqad al Shamaliyya","Gov_ID":"2","Wlyt_ID":"Salalah","Road_ID":"105932","Latitude":17.000721410000001,"Longitude":54.023928939999998,"GlobalID":"{93521896-ABF0-4467-997B-DB43D5811C08}"}},{"type":"Feature","id":111,"geometry":{"type":"Point","coordinates":[183097.13129999954,1882055.1659999993]},"properties":{"OBJECTID":111,"Asset_ID":"OTC111","Name":null,"District_ID":"Auqad al Shamaliyya","Gov_ID":"2","Wlyt_ID":"Salalah","Road_ID":"105932","Latitude":17.000832800000001,"Longitude":54.023903750000002,"GlobalID":"{55B49F20-2522-4904-B99A-788D722B1FD6}"}},{"type":"Feature","id":112,"geometry":{"type":"Point","coordinates":[182666.35419999994,1883902.1251999997]},"properties":{"OBJECTID":112,"Asset_ID":"OTC112","Name":null,"District_ID":"Auqad al Shamaliyya","Gov_ID":"2","Wlyt_ID":"Salalah","Road_ID":"105789","Latitude":17.0174466,"Longitude":54.019598299999998,"GlobalID":"{8636DA9A-BB78-4271-AFCE-B903140FB46C}"}},{"type":"Feature","id":113,"geometry":{"type":"Point","coordinates":[182682.63960000034,1883892.7949999999]},"properties":{"OBJECTID":113,"Asset_ID":"OTC113","Name":null,"District_ID":"Auqad al Shamaliyya","Gov_ID":"2","Wlyt_ID":"Salalah","Road_ID":"105789","Latitude":17.017364619999999,"Longitude":54.019752439999998,"GlobalID":"{03A0759E-EB2F-4F69-83F4-2483BC2476A7}"}},{"type":"Feature","id":114,"geometry":{"type":"Point","coordinates":[182430.89379999973,1882391.8200000003]},"properties":{"OBJECTID":114,"Asset_ID":"OTC114","Name":null,"District_ID":"Auqad al Shamaliyya","Gov_ID":"2","Wlyt_ID":"Salalah","Road_ID":"105749","Latitude":17.003780339999999,"Longitude":54.017605019999998,"GlobalID":"{8DEE2B2C-F4BE-47E3-8230-95A6A840C1CF}"}},{"type":"Feature","id":115,"geometry":{"type":"Point","coordinates":[182191.02280000038,1884220.8789000008]},"properties":{"OBJECTID":115,"Asset_ID":"OTC115","Name":null,"District_ID":"Auqad al Shamaliyya","Gov_ID":"2","Wlyt_ID":"Salalah","Road_ID":"105889","Latitude":17.02025862,"Longitude":54.01509274,"GlobalID":"{C6261D5D-4F66-4F7A-A899-4D589028C3C6}"}},{"type":"Feature","id":116,"geometry":{"type":"Point","coordinates":[182018.1595999999,1883453.9363000002]},"properties":{"OBJECTID":116,"Asset_ID":"OTC116","Name":null,"District_ID":"Auqad al Shamaliyya","Gov_ID":"2","Wlyt_ID":"Salalah","Road_ID":"105844","Latitude":17.013311470000001,"Longitude":54.013580660000002,"GlobalID":"{E0B825EF-BDC5-409B-91F4-A72E1E9903E4}"}},{"type":"Feature","id":117,"geometry":{"type":"Point","coordinates":[182028.33800000045,1882070.5218000002]},"properties":{"OBJECTID":117,"Asset_ID":"OTC117","Name":null,"District_ID":"Auqad al Shamaliyya","Gov_ID":"2","Wlyt_ID":"Salalah","Road_ID":"105892","Latitude":17.000824510000001,"Longitude":54.013874199999997,"GlobalID":"{982C305C-B669-45F8-9BCE-9CB549FA91DE}"}},{"type":"Feature","id":118,"geometry":{"type":"Point","coordinates":[196353.18329999968,1891975.8453000002]},"properties":{"OBJECTID":118,"Asset_ID":"OTC118","Name":null,"District_ID":"Salalah Wellfield","Gov_ID":"2","Wlyt_ID":"Salalah","Road_ID":"100530","Latitude":17.092180299999999,"Longitude":54.146919240000003,"GlobalID":"{FD3A17B9-F813-4517-A311-0D5ACED2FB95}"}},{"type":"Feature","id":119,"geometry":{"type":"Point","coordinates":[198328.94280000031,1893187.6886]},"properties":{"OBJECTID":119,"Asset_ID":"OTC119","Name":null,"District_ID":null,"Gov_ID":null,"Wlyt_ID":"Salalah","Road_ID":null,"Latitude":null,"Longitude":null,"GlobalID":"{7B9CCF96-44F2-49D8-812E-AB6449D98352}"}},{"type":"Feature","id":120,"geometry":{"type":"Point","coordinates":[197548.92310000025,1893187.5012999997]},"properties":{"OBJECTID":120,"Asset_ID":"OTC120","Name":null,"District_ID":null,"Gov_ID":null,"Wlyt_ID":"Salalah","Road_ID":null,"Latitude":null,"Longitude":null,"GlobalID":"{0E022716-0005-41CE-8857-2473AC4D25FB}"}}]
}