{
  "type" : "FeatureCollection",
  "crs" : {
    "type" : "name",
    "properties" : {
      "name" : "EPSG:32640"
    }
  },
  "features" : [{"type":"Feature","id":1,"geometry":{"type":"Point","coordinates":[197516.67750000022,1894281.5896000005]},"properties":{"OBJECTID":1,"Asset_ID":"PK1","Name":"منتزة حاربور ","District_ID":null,"Gov_ID":"Dhofar Governorate","Wlyt_ID":"Salalah","Road_ID":"101873","Latitude":17.11315076,"Longitude":54.15752561,"GlobalID":"{C469AB1C-15D5-4D98-A2BF-0A34C7B5F355}"}},{"type":"Feature","id":2,"geometry":{"type":"Point","coordinates":[187801.84929999989,1889113.0723000001]},"properties":{"OBJECTID":2,"Asset_ID":"PK2","Name":"حديقة واحة إتين","District_ID":null,"Gov_ID":"Dhofar Governorate","Wlyt_ID":"Salalah","Road_ID":"102349","Latitude":17.065189700000001,"Longitude":54.067050420000001,"GlobalID":"{497A917A-D57B-40BD-8D20-2CDC56499320}"}},{"type":"Feature","id":3,"geometry":{"type":"Point","coordinates":[187631.70320000034,1889819.9681000002]},"properties":{"OBJECTID":3,"Asset_ID":"PK3","Name":"Ittin Park","District_ID":null,"Gov_ID":"Dhofar Governorate","Wlyt_ID":"Salalah","Road_ID":"104585","Latitude":17.071548150000002,"Longitude":54.065353680000001,"GlobalID":"{F0ED431B-838C-4CCD-842B-20B63D6D59BE}"}},{"type":"Feature","id":4,"geometry":{"type":"Point","coordinates":[188048.28189999983,1891643.9257999994]},"properties":{"OBJECTID":4,"Asset_ID":"PK4","Name":"Atinaland & Dinosaur Park ملاهي اتينا لاند","District_ID":null,"Gov_ID":"Dhofar Governorate","Wlyt_ID":"Salalah","Road_ID":"105140","Latitude":17.088070649999999,"Longitude":54.069006199999997,"GlobalID":"{4A6A80A7-7C55-469E-A83C-E614C4CEA086}"}},{"type":"Feature","id":5,"geometry":{"type":"Point","coordinates":[187729.67090000026,1890549.2539000008]},"properties":{"OBJECTID":5,"Asset_ID":"PK5","Name":"صلالة لاند","District_ID":null,"Gov_ID":"Dhofar Governorate","Wlyt_ID":"Salalah","Road_ID":"105111","Latitude":17.07814514,"Longitude":54.066170190000001,"GlobalID":"{6E642BC4-E2AC-445B-8E9E-D0BBBB8C5245}"}},{"type":"Feature","id":6,"geometry":{"type":"Point","coordinates":[187692.81190000009,1888525.0136999991]},"properties":{"OBJECTID":6,"Asset_ID":"PK6","Name":"الواجهه العصرية (أب تاون) إتين","District_ID":null,"Gov_ID":"Dhofar Governorate","Wlyt_ID":"Salalah","Road_ID":"102348","Latitude":17.059866159999999,"Longitude":54.066110049999999,"GlobalID":"{934DFA82-9834-4C63-930C-7C59DA17FC0A}"}},{"type":"Feature","id":7,"geometry":{"type":"Point","coordinates":[189310.86060000025,1891527.1085000001]},"properties":{"OBJECTID":7,"Asset_ID":"PK7","Name":"Nawahi dhofar amusement park & arcade 2","District_ID":null,"Gov_ID":"Dhofar Governorate","Wlyt_ID":"Salalah","Road_ID":"102204","Latitude":17.087187199999999,"Longitude":54.08087416,"GlobalID":"{7C01FF87-5374-4837-87F5-AADA760A86E0}"}},{"type":"Feature","id":8,"geometry":{"type":"Point","coordinates":[203676.27830000035,1893599.0559]},"properties":{"OBJECTID":8,"Asset_ID":"PK8","Name":"منتزه رزات","District_ID":null,"Gov_ID":"Dhofar Governorate","Wlyt_ID":"Salalah","Road_ID":"101865","Latitude":17.107792620000001,"Longitude":54.215449579999998,"GlobalID":"{5D628372-733F-4A29-8D80-319AB72F1102}"}},{"type":"Feature","id":9,"geometry":{"type":"Point","coordinates":[196865.19180000015,1886299.9469000008]},"properties":{"OBJECTID":9,"Asset_ID":"PK9","Name":"منتزه صغير","District_ID":"al Sada al Janubiyya","Gov_ID":"Dhofar Governorate","Wlyt_ID":"Salalah","Road_ID":"100233","Latitude":17.041004449999999,"Longitude":54.152503590000002,"GlobalID":"{B28CDA46-4812-49D1-BA2E-A2EBAAFDAACA}"}},{"type":"Feature","id":10,"geometry":{"type":"Point","coordinates":[197399.85680000018,1886250.8701000009]},"properties":{"OBJECTID":10,"Asset_ID":"PK10","Name":"منتزه صغير","District_ID":"al Sada al Janubiyya","Gov_ID":"Dhofar Governorate","Wlyt_ID":"Salalah","Road_ID":"100248","Latitude":17.04063167,"Longitude":54.157528159999998,"GlobalID":"{A90FE6E3-286C-4784-B9BB-ED884EB460F1}"}},{"type":"Feature","id":11,"geometry":{"type":"Point","coordinates":[198847.43969999999,1883027.3872999996]},"properties":{"OBJECTID":11,"Asset_ID":"PK11","Name":"Ad Dahariz Park","District_ID":"Dahariz al Janubiyya","Gov_ID":"Dhofar Governorate","Wlyt_ID":"Salalah","Road_ID":"100159","Latitude":17.011718330000001,"Longitude":54.17155159,"GlobalID":"{696D5F68-5D8C-43B9-9971-EE5832A0C78F}"}},{"type":"Feature","id":12,"geometry":{"type":"Point","coordinates":[188265.56450000033,1883246.1826000009]},"properties":{"OBJECTID":12,"Asset_ID":"PK12","Name":"الحديقة المضيئة ","District_ID":"al Wadi","Gov_ID":"Dhofar Governorate","Wlyt_ID":"Salalah","Road_ID":"104306","Latitude":17.012288399999999,"Longitude":54.072227869999999,"GlobalID":"{C0463750-2BE5-41EE-A91F-E07583C64C3E}"}},{"type":"Feature","id":13,"geometry":{"type":"Point","coordinates":[188042.09439999983,1883995.4638]},"properties":{"OBJECTID":13,"Asset_ID":"PK13","Name":"Al Wadi Public Park","District_ID":"al Wadi","Gov_ID":"Dhofar Governorate","Wlyt_ID":"Salalah","Road_ID":"104345","Latitude":17.019022450000001,"Longitude":54.07002576,"GlobalID":"{D00709F9-F9CF-42D9-BD70-0D411329365A}"}},{"type":"Feature","id":14,"geometry":{"type":"Point","coordinates":[188814.24039999954,1884382.5250000004]},"properties":{"OBJECTID":14,"Asset_ID":"PK14","Name":"New Salalah Park","District_ID":"Salalah al Jadida","Gov_ID":"Dhofar Governorate","Wlyt_ID":"Salalah","Road_ID":"104294","Latitude":17.022621019999999,"Longitude":54.077216759999999,"GlobalID":"{DA8B97AD-9C02-47F9-B4FB-E1D7A313547E}"}},{"type":"Feature","id":15,"geometry":{"type":"Point","coordinates":[184932.1688000001,1882349.3222000003]},"properties":{"OBJECTID":15,"Asset_ID":"PK15","Name":"منتزه عام","District_ID":"Auqad al Janubiyya","Gov_ID":"2","Wlyt_ID":"Salalah","Road_ID":"105409","Latitude":17.003739360000001,"Longitude":54.041078460000001,"GlobalID":"{7CB1C8E9-D58F-4CE2-9562-8C953880EADB}"}},{"type":"Feature","id":16,"geometry":{"type":"Point","coordinates":[183998.04349999968,1881657.7005000003]},"properties":{"OBJECTID":16,"Asset_ID":"PK16","Name":"Walking Garden","District_ID":"Auqad al Shamaliyya","Gov_ID":"2","Wlyt_ID":"Salalah","Road_ID":"102645","Latitude":16.99736819,"Longitude":54.032412639999997,"GlobalID":"{52D693BA-E72D-49E0-8CD8-2B7403EEF7D5}"}},{"type":"Feature","id":17,"geometry":{"type":"Point","coordinates":[186200.14690000005,1886347.9054000005]},"properties":{"OBJECTID":17,"Asset_ID":"PK17","Name":"حديقة النسيم المائية","District_ID":"New Industrial Area","Gov_ID":"2","Wlyt_ID":"Salalah","Road_ID":"105210","Latitude":17.040009269999999,"Longitude":54.052409539999999,"GlobalID":"{761864AD-A203-438A-870B-9795C30F9836}"}},{"type":"Feature","id":18,"geometry":{"type":"Point","coordinates":[196704.58029999956,1891140.8332000002]},"properties":{"OBJECTID":18,"Asset_ID":"PK18","Name":"Shabiyat Garden\r\n","District_ID":"al Sada al Shamaliyya","Gov_ID":"2","Wlyt_ID":"Salalah","Road_ID":"102600","Latitude":17.084688060000001,"Longitude":54.150332669999997,"GlobalID":"{F985A068-BC27-4E91-82E4-3F9646350CF7}"}},{"type":"Feature","id":19,"geometry":{"type":"Point","coordinates":[197012.66119999997,1890152.3321000002]},"properties":{"OBJECTID":19,"Asset_ID":"PK19","Name":"حديقة السعادة العامة\r\n","District_ID":"al Sada al Shamaliyya","Gov_ID":"2","Wlyt_ID":"Salalah","Road_ID":"102602","Latitude":17.075804269999999,"Longitude":54.153360220000003,"GlobalID":"{95C6F135-65FF-4AF0-99F3-B9FF28A386EA}"}},{"type":"Feature","id":20,"geometry":{"type":"Point","coordinates":[197018.9589999998,1892349.6052000001]},"properties":{"OBJECTID":20,"Asset_ID":"PK20","Name":"منتزه صغير يخدم سكان الموقع\r\n","District_ID":"al Sada al Shamaliyya","Gov_ID":"2","Wlyt_ID":"Salalah","Road_ID":"102654","Latitude":17.095642640000001,"Longitude":54.153117989999998,"GlobalID":"{E76C4B52-0EDD-4F24-B623-0725AB8EA1FC}"}},{"type":"Feature","id":21,"geometry":{"type":"Point","coordinates":[197253.61390000023,1891606.3398000002]},"properties":{"OBJECTID":21,"Asset_ID":"PK21","Name":"منتزه","District_ID":"al Sada al Shamaliyya","Gov_ID":"2","Wlyt_ID":"Salalah","Road_ID":"102569","Latitude":17.088963209999999,"Longitude":54.155422780000002,"GlobalID":"{58FCF56A-D055-4647-8E2F-BE57DCBB1988}"}},{"type":"Feature","id":22,"geometry":{"type":"Point","coordinates":[182776.93699999992,1884095.5825999994]},"properties":{"OBJECTID":22,"Asset_ID":"PK22","Name":"حديقة البهجة ","District_ID":"Auqad al Shamaliyya","Gov_ID":"2","Wlyt_ID":"Salalah","Road_ID":"105636","Latitude":17.019208200000001,"Longitude":54.02060822,"GlobalID":"{F4A69B92-0E80-45C6-AB9D-F025EE710871}"}},{"type":"Feature","id":23,"geometry":{"type":"Point","coordinates":[183317.09020000044,1884162.6660999991]},"properties":{"OBJECTID":23,"Asset_ID":"PK23","Name":"حديقة عامة","District_ID":"Auqad al Shamaliyya","Gov_ID":"2","Wlyt_ID":"Salalah","Road_ID":"105641","Latitude":17.019888000000002,"Longitude":54.02566685,"GlobalID":"{8A14A69F-7F85-4C0F-A6A7-D63A49EC3035}"}},{"type":"Feature","id":24,"geometry":{"type":"Point","coordinates":[183403.54879999999,1883595.7076999992]},"properties":{"OBJECTID":24,"Asset_ID":"PK24","Name":"حديقة عامة","District_ID":"Auqad al Shamaliyya","Gov_ID":"2","Wlyt_ID":"Salalah","Road_ID":"105604","Latitude":17.014781769999999,"Longitude":54.026558950000002,"GlobalID":"{7152A8A0-2228-4B7B-A59F-65DD0D02B72C}"}},{"type":"Feature","id":25,"geometry":{"type":"Point","coordinates":[182343.15050000045,1882910.5565000009]},"properties":{"OBJECTID":25,"Asset_ID":"PK25","Name":"منتزه البرعمي","District_ID":"Auqad al Shamaliyya","Gov_ID":"2","Wlyt_ID":"Salalah","Road_ID":"105797","Latitude":17.008451019999999,"Longitude":54.016707629999999,"GlobalID":"{BB19D3AE-6D09-4B3E-8A42-4EC7948449A8}"}},{"type":"Feature","id":26,"geometry":{"type":"Point","coordinates":[181326.84289999958,1883039.0222999994]},"properties":{"OBJECTID":26,"Asset_ID":"PK26","Name":"منتزه","District_ID":"Auqad al Shamaliyya","Gov_ID":"2","Wlyt_ID":"Salalah","Road_ID":"105838","Latitude":17.009470610000001,"Longitude":54.007153940000002,"GlobalID":"{06A71EAD-2C89-405C-98B1-FFB806EA29D2}"}},{"type":"Feature","id":27,"geometry":{"type":"Point","coordinates":[181515.72900000028,1883593.6394999996]},"properties":{"OBJECTID":27,"Asset_ID":"PK27","Name":"منتزه","District_ID":"Auqad al Shamaliyya","Gov_ID":"2","Wlyt_ID":"Salalah","Road_ID":"105851","Latitude":17.014503300000001,"Longitude":54.008846570000003,"GlobalID":"{ABA2ABB3-E255-47E5-9C97-285E7A302B64}"}},{"type":"Feature","id":28,"geometry":{"type":"Point","coordinates":[182987.38289999962,1882510.8849999998]},"properties":{"OBJECTID":28,"Asset_ID":"PK28","Name":"حديقة عامة","District_ID":"Auqad al Shamaliyya","Gov_ID":"2","Wlyt_ID":"Salalah","Road_ID":"106425","Latitude":17.004931639999999,"Longitude":54.022809070000001,"GlobalID":"{DB63923E-C95B-4A91-BFA9-D8CC1A69094B}"}},{"type":"Feature","id":29,"geometry":{"type":"Point","coordinates":[183763.64969999995,1882924.6719000004]},"properties":{"OBJECTID":29,"Asset_ID":"PK29","Name":"حديقة عامة","District_ID":"Auqad al Shamaliyya","Gov_ID":"2","Wlyt_ID":"Salalah","Road_ID":"105596","Latitude":17.008773489999999,"Longitude":54.030033250000002,"GlobalID":"{BEDCFCAA-9F36-4E07-AF81-0BA92EC5A4F3}"}},{"type":"Feature","id":30,"geometry":{"type":"Point","coordinates":[183594.99980000034,1883277.1033999994]},"properties":{"OBJECTID":30,"Asset_ID":"PK30","Name":"حديقة عامة","District_ID":"Auqad al Shamaliyya","Gov_ID":"2","Wlyt_ID":"Salalah","Road_ID":"105719","Latitude":17.01193189,"Longitude":54.028400689999998,"GlobalID":"{AD4CC465-7690-4607-8EC6-AB1409D4BEDA}"}},{"type":"Feature","id":31,"geometry":{"type":"Point","coordinates":[183758.72800000012,1883722.8756000008]},"properties":{"OBJECTID":31,"Asset_ID":"PK31","Name":"حديقة السرور","District_ID":"Auqad al Shamaliyya","Gov_ID":"2","Wlyt_ID":"Salalah","Road_ID":"105618","Latitude":17.015978459999999,"Longitude":54.029873379999998,"GlobalID":"{C23D4079-ED95-4E9D-8790-B0A9D3ADFBC2}"}}]
}