{
  "type" : "FeatureCollection",
  "crs" : {
    "type" : "name",
    "properties" : {
      "name" : "EPSG:32640"
    }
  },
  "features" : [{"type":"Feature","id":1,"geometry":{"type":"Point","coordinates":[187849.61340000015,1882866.1348000001]},"properties":{"OBJECTID":1,"Asset_ID":"Phcy1","Name":"International Pharmacy","District_ID":"al Wadi","Gov_ID":"Dhofar Governorate","Wlyt_ID":"Salalah","Road_ID":"104306","Latitude":17.00880124,"Longitude":54.068378449999997,"GlobalID":"{E6E5B851-98B2-4D66-B8DF-F91046147E2D}"}},{"type":"Feature","id":2,"geometry":{"type":"Point","coordinates":[187459.80350000039,1883672.8019999992]},"properties":{"OBJECTID":2,"Asset_ID":"Phcy2","Name":"MARHABA PHARMACY","District_ID":"al Wadi","Gov_ID":"Dhofar Governorate","Wlyt_ID":"Salalah","Road_ID":"104343","Latitude":17.01603076,"Longitude":54.064607410000001,"GlobalID":"{40DF47D1-8F62-433D-B626-B0321EFC6EA9}"}},{"type":"Feature","id":3,"geometry":{"type":"Point","coordinates":[187956.61780000012,1884223.3880000003]},"properties":{"OBJECTID":3,"Asset_ID":"Phcy3","Name":"New Taiba Pharmacy","District_ID":"al Wadi","Gov_ID":"Dhofar Governorate","Wlyt_ID":"Salalah","Road_ID":"104349","Latitude":17.021064970000001,"Longitude":54.069173569999997,"GlobalID":"{59D60044-ED83-4607-B34B-825295DCAC3F}"}},{"type":"Feature","id":4,"geometry":{"type":"Point","coordinates":[187965.28579999972,1884210.0086000003]},"properties":{"OBJECTID":4,"Asset_ID":"Phcy4","Name":"The Wave Pharmacy","District_ID":"al Wadi","Gov_ID":"Dhofar Governorate","Wlyt_ID":"Salalah","Road_ID":"104349","Latitude":17.02094889,"Longitude":54.069274880000002,"GlobalID":"{ACC080ED-0817-4387-B756-D2E45423ACDF}"}},{"type":"Feature","id":5,"geometry":{"type":"Point","coordinates":[188811.78369999956,1884173.6075999998]},"properties":{"OBJECTID":5,"Asset_ID":"Phcy5","Name":"NEW SALALAH PHARAMACY","District_ID":"Salalah al Jadida","Gov_ID":"Dhofar Governorate","Wlyt_ID":"Salalah","Road_ID":"104188","Latitude":17.020734650000001,"Longitude":54.077223009999997,"GlobalID":"{F6DBE4CC-51B9-454E-AA00-19A1606772BD}"}},{"type":"Feature","id":6,"geometry":{"type":"Point","coordinates":[189122.82870000042,1884193.6009]},"properties":{"OBJECTID":6,"Asset_ID":"Phcy6","Name":"صيدلية مودة","District_ID":"Salalah al Jadida","Gov_ID":"Dhofar Governorate","Wlyt_ID":"Salalah","Road_ID":"104210","Latitude":17.02095709,"Longitude":54.08013888,"GlobalID":"{C24FFAFF-A9CC-43CA-8F7A-7738E145DA03}"}},{"type":"Feature","id":7,"geometry":{"type":"Point","coordinates":[189131.7145999996,1883777.2112000007]},"properties":{"OBJECTID":7,"Asset_ID":"Phcy7","Name":"Rose pharmacy","District_ID":"Salalah al Jadida","Gov_ID":"Dhofar Governorate","Wlyt_ID":"Salalah","Road_ID":"104210","Latitude":17.017199229999999,"Longitude":54.080280590000001,"GlobalID":"{619C3F21-4472-4557-BDAE-1CD7B185D878}"}},{"type":"Feature","id":8,"geometry":{"type":"Point","coordinates":[189675.25430000015,1883418.8916999996]},"properties":{"OBJECTID":8,"Asset_ID":"Phcy8","Name":"Noor Al Shifa Pharmacy","District_ID":"Salalah al Jadida","Gov_ID":"Dhofar Governorate","Wlyt_ID":"Salalah","Road_ID":"104189","Latitude":17.01403758,"Longitude":54.085430870000003,"GlobalID":"{6764D8F0-9A8A-4937-A71A-CCE6AFF3979A}"}},{"type":"Feature","id":9,"geometry":{"type":"Point","coordinates":[197267.79079999961,1884597.0668000001]},"properties":{"OBJECTID":9,"Asset_ID":"Phcy9","Name":"Care Pharmacy","District_ID":"Dahariz al Shamaliyya","Gov_ID":"Dhofar Governorate","Wlyt_ID":"Salalah","Road_ID":"100007","Latitude":17.025683239999999,"Longitude":54.156514530000003,"GlobalID":"{3FF010EB-57CC-4389-87B3-DDC0DF62F3CF}"}},{"type":"Feature","id":10,"geometry":{"type":"Point","coordinates":[196497.50320000015,1885967.5984000005]},"properties":{"OBJECTID":10,"Asset_ID":"Phcy10","Name":"Muscat Pharmacy","District_ID":"al Sada al Janubiyya","Gov_ID":"Dhofar Governorate","Wlyt_ID":"Salalah","Road_ID":"100410","Latitude":17.037955499999999,"Longitude":54.149098330000001,"GlobalID":"{C67EE9F5-F946-4B05-A4C8-DE38BF07EFE9}"}},{"type":"Feature","id":11,"geometry":{"type":"Point","coordinates":[196582.5438000001,1887557.5899]},"properties":{"OBJECTID":11,"Asset_ID":"Phcy11","Name":"صيدلية مسقط","District_ID":"al Sada al Janubiyya","Gov_ID":"Dhofar Governorate","Wlyt_ID":"Salalah","Road_ID":"100325","Latitude":17.05232157,"Longitude":54.149678649999998,"GlobalID":"{94AD37F0-05B4-4C0F-B32E-857D8B888C60}"}},{"type":"Feature","id":12,"geometry":{"type":"Point","coordinates":[188287.35130000021,1884368.1487000007]},"properties":{"OBJECTID":12,"Asset_ID":"Phcy12","Name":"CARE MEDICAL SUPPLIES","District_ID":"al Wadi","Gov_ID":"Dhofar Governorate","Wlyt_ID":"Salalah","Road_ID":"104340","Latitude":17.02242008,"Longitude":54.072274720000003,"GlobalID":"{19209F64-BB56-420F-9726-D26F770E79C2}"}},{"type":"Feature","id":13,"geometry":{"type":"Point","coordinates":[187103.88839999959,1882465.6855999995]},"properties":{"OBJECTID":13,"Asset_ID":"Phcy13","Name":"Hala Pharmacy","District_ID":"al Wadi","Gov_ID":"Dhofar Governorate","Wlyt_ID":"Salalah","Road_ID":"105560","Latitude":17.005085179999998,"Longitude":54.061437929999997,"GlobalID":"{50C6E479-C4B7-4BFC-AA27-73F60FDB5522}"}},{"type":"Feature","id":14,"geometry":{"type":"Point","coordinates":[188465.7106999997,1882770.2796999998]},"properties":{"OBJECTID":14,"Asset_ID":"Phcy14","Name":"Hala Pharmacy","District_ID":"Salalah al Gharbiyya","Gov_ID":"Dhofar Governorate","Wlyt_ID":"Salalah","Road_ID":"104481","Latitude":17.00801912,"Longitude":54.074172599999997,"GlobalID":"{D79089FF-6177-4D6D-8820-96DF71DF133A}"}},{"type":"Feature","id":15,"geometry":{"type":"Point","coordinates":[188901.68630000018,1882900.0242999997]},"properties":{"OBJECTID":15,"Asset_ID":"Phcy15","Name":"RMC Pharmacy","District_ID":"Salalah al Gharbiyya","Gov_ID":"Dhofar Governorate","Wlyt_ID":"Salalah","Road_ID":"103824","Latitude":17.009249220000001,"Longitude":54.078245090000003,"GlobalID":"{B155230A-898E-4248-AB0E-4DC1DE8C26E7}"}},{"type":"Feature","id":16,"geometry":{"type":"Point","coordinates":[192296.06120000035,1883711.9998000003]},"properties":{"OBJECTID":16,"Asset_ID":"Phcy16","Name":"Al Riyadh Clinic and Pharmacy","District_ID":"al Qoaf","Gov_ID":"Dhofar Governorate","Wlyt_ID":"Salalah","Road_ID":"104081","Latitude":17.017034750000001,"Longitude":54.109981980000001,"GlobalID":"{71F133A9-4607-4443-BFF0-E50F31BFD6E5}"}},{"type":"Feature","id":17,"geometry":{"type":"Point","coordinates":[197715.22699999996,1883983.1292000003]},"properties":{"OBJECTID":17,"Asset_ID":"Phcy17","Name":"صيدلية مسقط","District_ID":"Dahariz al Shamaliyya","Gov_ID":"Dhofar Governorate","Wlyt_ID":"Salalah","Road_ID":"100153","Latitude":17.020199089999998,"Longitude":54.160797080000002,"GlobalID":"{602376A5-CFA2-473B-BBE9-834EFA1DB819}"}},{"type":"Feature","id":18,"geometry":{"type":"Point","coordinates":[190514.11909999978,1883463.3909000009]},"properties":{"OBJECTID":18,"Asset_ID":"Phcy18","Name":"Mazoon Pharmacy","District_ID":"Salalah al Wousta","Gov_ID":"Dhofar Governorate","Wlyt_ID":"Salalah","Road_ID":"104387","Latitude":17.01455198,"Longitude":54.093295900000001,"GlobalID":"{A613F742-1964-4EB6-B8B4-B8CC077B78F6}"}},{"type":"Feature","id":19,"geometry":{"type":"Point","coordinates":[191106.00150000025,1883385.5684999991]},"properties":{"OBJECTID":19,"Asset_ID":"Phcy19","Name":"Capital Pharmacy","District_ID":"al Zaweya","Gov_ID":"Dhofar Governorate","Wlyt_ID":"Salalah","Road_ID":"103824","Latitude":17.01392873,"Longitude":54.098860520000002,"GlobalID":"{098BDFBF-981D-40EB-8D05-B8B65A3BAB88}"}},{"type":"Feature","id":20,"geometry":{"type":"Point","coordinates":[196869.35950000025,1887602.0581999999]},"properties":{"OBJECTID":20,"Asset_ID":"Phcy20","Name":"صيدية نايف","District_ID":"al Sada al Janubiyya","Gov_ID":"Dhofar Governorate","Wlyt_ID":"Salalah","Road_ID":"100333","Latitude":17.05276083,"Longitude":54.152364499999997,"GlobalID":"{F74A4B86-2D9E-4927-8796-99C2FD20B24D}"}},{"type":"Feature","id":21,"geometry":{"type":"Point","coordinates":[190255.89180000033,1883230.1693999991]},"properties":{"OBJECTID":21,"Asset_ID":"Phcy21","Name":"National Pharmacy","District_ID":"Salalah al Wousta","Gov_ID":"Dhofar Governorate","Wlyt_ID":"Salalah","Road_ID":"103824","Latitude":17.012411849999999,"Longitude":54.090905429999999,"GlobalID":"{AE232A8B-6B71-47A2-81C4-7D604A0CA15A}"}},{"type":"Feature","id":22,"geometry":{"type":"Point","coordinates":[188338.7265999997,1882908.2248999998]},"properties":{"OBJECTID":22,"Asset_ID":"Phcy22","Name":"Al Raihan Pharmacy","District_ID":"al Wadi","Gov_ID":"Dhofar Governorate","Wlyt_ID":"Salalah","Road_ID":"100583","Latitude":17.009247309999999,"Longitude":54.07296178,"GlobalID":"{DF94B0D2-FC69-40CB-842E-6B0C61C083EB}"}},{"type":"Feature","id":23,"geometry":{"type":"Point","coordinates":[190018.92210000008,1883066.3668000009]},"properties":{"OBJECTID":23,"Asset_ID":"Phcy23","Name":"Taiba Pharmacy","District_ID":"Salalah al Gharbiyya","Gov_ID":"Dhofar Governorate","Wlyt_ID":"Salalah","Road_ID":"103824","Latitude":17.01090125,"Longitude":54.088704790000001,"GlobalID":"{D789321F-42C6-4160-87D4-C63263295C94}"}},{"type":"Feature","id":24,"geometry":{"type":"Point","coordinates":[196680.79260000028,1887304.3659000006]},"properties":{"OBJECTID":24,"Asset_ID":"Phcy24","Name":"Al Raazi Poly Clinic, Al Saada","District_ID":"al Sada al Janubiyya","Gov_ID":"Dhofar Governorate","Wlyt_ID":"Salalah","Road_ID":"100220","Latitude":17.05004834,"Longitude":54.150635459999997,"GlobalID":"{BACA46FF-14D6-4A7B-8529-B51B90088C11}"}},{"type":"Feature","id":25,"geometry":{"type":"Point","coordinates":[191705.25729999971,1883401.3144000005]},"properties":{"OBJECTID":25,"Asset_ID":"Phcy25","Name":"Ibn sina pharmacy","District_ID":"Salalah al Sharqiyya","Gov_ID":"Dhofar Governorate","Wlyt_ID":"Salalah","Road_ID":"103824","Latitude":17.01415102,"Longitude":54.104481329999999,"GlobalID":"{A17A8831-EE96-4D47-BD6F-77571DE9F6BF}"}},{"type":"Feature","id":26,"geometry":{"type":"Point","coordinates":[190881.4944000002,1883366.8267999999]},"properties":{"OBJECTID":26,"Asset_ID":"Phcy26","Name":"Waleed Pharmacy","District_ID":"Salalah al Wousta","Gov_ID":"Dhofar Governorate","Wlyt_ID":"Salalah","Road_ID":"104040","Latitude":17.01372946,"Longitude":54.09675652,"GlobalID":"{7B7D9DA4-0C08-44EF-A6A7-55F0B6BC2236}"}},{"type":"Feature","id":27,"geometry":{"type":"Point","coordinates":[184637.01140000019,1882333.2883000001]},"properties":{"OBJECTID":27,"Asset_ID":"Phcy27","Name":"Muscat Pharmacy","District_ID":"Auqad al Shamaliyya","Gov_ID":"Dhofar Governorate","Wlyt_ID":"Salalah","Road_ID":"105564","Latitude":17.00355433,"Longitude":54.038311499999999,"GlobalID":"{649FB5E8-E783-4C85-B78D-97A2A618D74F}"}},{"type":"Feature","id":28,"geometry":{"type":"Point","coordinates":[192189.16210000031,1883922.7335999999]},"properties":{"OBJECTID":28,"Asset_ID":"Phcy28","Name":"Muscat pharmacy","District_ID":"al Qoaf","Gov_ID":"Dhofar Governorate","Wlyt_ID":"Salalah","Road_ID":"103812","Latitude":17.01892299,"Longitude":54.10894966,"GlobalID":"{1C051026-C569-40F1-821F-23B5BA11EB6D}"}},{"type":"Feature","id":29,"geometry":{"type":"Point","coordinates":[192451.70559999999,1883735.9262000006]},"properties":{"OBJECTID":29,"Asset_ID":"Phcy29","Name":"الصيدلية العلمية","District_ID":"al Huseela","Gov_ID":"Dhofar Governorate","Wlyt_ID":"Salalah","Road_ID":"103833","Latitude":17.01727151,"Longitude":54.111439150000002,"GlobalID":"{60829E91-4ACF-4C47-98E0-54401282A6C7}"}},{"type":"Feature","id":30,"geometry":{"type":"Point","coordinates":[189481.08349999972,1883287.0080999993]},"properties":{"OBJECTID":30,"Asset_ID":"Phcy30","Name":"النجمة الذهبية للمستلزمات الطبية","District_ID":"Salalah al Jadida","Gov_ID":"Dhofar Governorate","Wlyt_ID":"Salalah","Road_ID":"104212","Latitude":17.01282084,"Longitude":54.083627389999997,"GlobalID":"{FBFAF6B5-D58E-4860-9911-7361F2105C92}"}},{"type":"Feature","id":31,"geometry":{"type":"Point","coordinates":[189647.84740000032,1883795.0479000006]},"properties":{"OBJECTID":31,"Asset_ID":"Phcy31","Name":"Elixir pharmacy","District_ID":"Salalah al Jadida","Gov_ID":"Dhofar Governorate","Wlyt_ID":"Salalah","Road_ID":"104187","Latitude":17.017429750000002,"Longitude":54.085121119999997,"GlobalID":"{24B3AC09-A7CD-4F0C-8FBF-9DAD4F6FB076}"}},{"type":"Feature","id":32,"geometry":{"type":"Point","coordinates":[190514.4637000002,1883272.0316000003]},"properties":{"OBJECTID":32,"Asset_ID":"Phcy32","Name":"Al Hashar Pharmacy","District_ID":"Salalah al Wousta","Gov_ID":"Dhofar Governorate","Wlyt_ID":"Salalah","Road_ID":"103824","Latitude":17.012824470000002,"Longitude":54.093325810000003,"GlobalID":"{9F3BCDB7-249D-4CDE-8AAE-A95D8EC8A746}"}},{"type":"Feature","id":33,"geometry":{"type":"Point","coordinates":[190321.48900000006,1883326.2686000001]},"properties":{"OBJECTID":33,"Asset_ID":"Phcy33","Name":"صيدلية المواسة","District_ID":"Salalah al Wousta","Gov_ID":"Dhofar Governorate","Wlyt_ID":"Salalah","Road_ID":"104523","Latitude":17.01328822,"Longitude":54.091507530000001,"GlobalID":"{752E9F1B-C279-4C6F-B255-BAF6E0488B03}"}},{"type":"Feature","id":34,"geometry":{"type":"Point","coordinates":[190496.70299999975,1883359.2284999993]},"properties":{"OBJECTID":34,"Asset_ID":"Phcy34","Name":"Muscat Pharmacy","District_ID":"Salalah al Wousta","Gov_ID":"Dhofar Governorate","Wlyt_ID":"Salalah","Road_ID":"104387","Latitude":17.013609280000001,"Longitude":54.093147000000002,"GlobalID":"{C3BDD93C-22CA-4EEE-B85D-A55AB68E459C}"}},{"type":"Feature","id":35,"geometry":{"type":"Point","coordinates":[189244.6473000003,1882949.4046]},"properties":{"OBJECTID":35,"Asset_ID":"Phcy35","Name":"Rafa Pharmacy","District_ID":"Salalah al Gharbiyya","Gov_ID":"Dhofar Governorate","Wlyt_ID":"Salalah","Road_ID":"103824","Latitude":17.009741219999999,"Longitude":54.08145614,"GlobalID":"{B02C6CA2-AE2F-4C10-B744-B233CDF8AE60}"}},{"type":"Feature","id":36,"geometry":{"type":"Point","coordinates":[191319.32529999968,1883394.5492000002]},"properties":{"OBJECTID":36,"Asset_ID":"Phcy36","Name":"SCIENTIFIC PHARMACY","District_ID":"al Zaweya","Gov_ID":"Dhofar Governorate","Wlyt_ID":"Salalah","Road_ID":"103824","Latitude":17.01403835,"Longitude":54.100860949999998,"GlobalID":"{C2322A16-A480-4190-A160-E81008413340}"}},{"type":"Feature","id":37,"geometry":{"type":"Point","coordinates":[189926.99149999954,1883407.9529999997]},"properties":{"OBJECTID":37,"Asset_ID":"Phcy37","Name":"عيادة و صيدلية ابو الذهب","District_ID":"Salalah al Jadida","Gov_ID":"Dhofar Governorate","Wlyt_ID":"Salalah","Road_ID":"103812","Latitude":17.013972670000001,"Longitude":54.08779449,"GlobalID":"{85DC681C-EC63-4D83-AFE6-EC6289C9A878}"}},{"type":"Feature","id":38,"geometry":{"type":"Point","coordinates":[189612.19739999995,1883074.3702000007]},"properties":{"OBJECTID":38,"Asset_ID":"Phcy38","Name":"صيدلية بدر السماء","District_ID":"Salalah al Gharbiyya","Gov_ID":"Dhofar Governorate","Wlyt_ID":"Salalah","Road_ID":"103824","Latitude":17.010918839999999,"Longitude":54.084887360000003,"GlobalID":"{E9DB3F88-BD65-4CE6-9446-B7828659EEDB}"}},{"type":"Feature","id":39,"geometry":{"type":"Point","coordinates":[191237.78330000024,1884076.2559999991]},"properties":{"OBJECTID":39,"Asset_ID":"Phcy39","Name":"Top Family pharmacy","District_ID":"Markaz al Madena","Gov_ID":"Dhofar Governorate","Wlyt_ID":"Salalah","Road_ID":"104147","Latitude":17.020181820000001,"Longitude":54.100000979999997,"GlobalID":"{954BE36A-DBA3-4663-B15E-4183D94B5338}"}},{"type":"Feature","id":40,"geometry":{"type":"Point","coordinates":[191156.38279999979,1883781.8575999998]},"properties":{"OBJECTID":40,"Asset_ID":"Phcy40","Name":"صيدلية المواساة","District_ID":"Markaz al Madena","Gov_ID":"Dhofar Governorate","Wlyt_ID":"Salalah","Road_ID":"104177","Latitude":17.01751312,"Longitude":54.099278130000002,"GlobalID":"{A102CF16-D722-4F41-85D6-1C3DBC275546}"}},{"type":"Feature","id":41,"geometry":{"type":"Point","coordinates":[189158.70830000006,1883172.6525999997]},"properties":{"OBJECTID":41,"Asset_ID":"Phcy41","Name":"Nahawand Pharmacy L.L.C","District_ID":"Salalah al Jadida","Gov_ID":"Dhofar Governorate","Wlyt_ID":"Salalah","Road_ID":"103812","Latitude":17.01174507,"Longitude":54.080618530000002,"GlobalID":"{832CA305-1064-43E6-805A-830F93670F39}"}},{"type":"Feature","id":42,"geometry":{"type":"Point","coordinates":[182869.27350000013,1882930.9833000004]},"properties":{"OBJECTID":42,"Asset_ID":"Phcy42","Name":"Nayef Pharmacy","District_ID":"Auqad al Shamaliyya","Gov_ID":"Dhofar Governorate","Wlyt_ID":"Salalah","Road_ID":"105800","Latitude":17.00870776,"Longitude":54.021640959999999,"GlobalID":"{2E9E3C9F-8695-4E26-B2F7-09EA76C4B1F2}"}},{"type":"Feature","id":43,"geometry":{"type":"Point","coordinates":[196887.56259999983,1887434.4215999991]},"properties":{"OBJECTID":43,"Asset_ID":"Phcy43","Name":"صيدليا ليا","District_ID":"al Sada al Janubiyya","Gov_ID":"Dhofar Governorate","Wlyt_ID":"Salalah","Road_ID":"100334","Latitude":17.051249760000001,"Longitude":54.152558300000003,"GlobalID":"{D715FDD1-94A0-447F-B660-DE3D662ECED3}"}},{"type":"Feature","id":44,"geometry":{"type":"Point","coordinates":[190911.61710000038,1883724.7670000009]},"properties":{"OBJECTID":44,"Asset_ID":"Phcy44","Name":"Regal Pharmacy","District_ID":"Markaz al Madena","Gov_ID":"Dhofar Governorate","Wlyt_ID":"Salalah","Road_ID":"104009","Latitude":17.01696493,"Longitude":54.09698933,"GlobalID":"{B53EA930-33BD-4331-AB4D-B7A7CF28D282}"}},{"type":"Feature","id":45,"geometry":{"type":"Point","coordinates":[183890.88860000018,1883187.2281999998]},"properties":{"OBJECTID":45,"Asset_ID":"Phcy45","Name":"Care Pharmacy","District_ID":"Auqad al Shamaliyya","Gov_ID":"Dhofar Governorate","Wlyt_ID":"Salalah","Road_ID":"105596","Latitude":17.01116111,"Longitude":54.031189679999997,"GlobalID":"{2E4FDD84-627E-4961-9516-E06FF1CC058A}"}},{"type":"Feature","id":46,"geometry":{"type":"Point","coordinates":[187159.17659999989,1883818.6787999999]},"properties":{"OBJECTID":46,"Asset_ID":"Phcy46","Name":"Lulu Pharmacy, Salalah","District_ID":"al Wadi","Gov_ID":"Dhofar Governorate","Wlyt_ID":"Salalah","Road_ID":"105366","Latitude":17.01730693,"Longitude":54.061766050000003,"GlobalID":"{CB7043F8-C13C-4A11-A376-F2197BABD742}"}},{"type":"Feature","id":47,"geometry":{"type":"Point","coordinates":[186060.34179999959,1884266.0111999996]},"properties":{"OBJECTID":47,"Asset_ID":"Phcy47","Name":"صيدلية الرازي","District_ID":"New Industrial Area","Gov_ID":"Dhofar Governorate","Wlyt_ID":"Salalah","Road_ID":"105163","Latitude":17.021195949999999,"Longitude":54.051392319999998,"GlobalID":"{A48E09BA-1DC6-4FC8-A9A6-E6B35384AACF}"}},{"type":"Feature","id":48,"geometry":{"type":"Point","coordinates":[189520.24409999978,1883013.0357000008]},"properties":{"OBJECTID":48,"Asset_ID":"Phcy48","Name":"APEX CARE PHARMACY","District_ID":"Salalah al Gharbiyya","Gov_ID":"Dhofar Governorate","Wlyt_ID":"Salalah","Road_ID":"103824","Latitude":17.010352749999999,"Longitude":54.084033140000003,"GlobalID":"{703FCD88-B99C-41EF-85D0-FA902168BABE}"}},{"type":"Feature","id":49,"geometry":{"type":"Point","coordinates":[186795.04849999957,1888205.6929000001]},"properties":{"OBJECTID":49,"Asset_ID":"Phcy49","Name":"NEW SALALAH PHARMACY","District_ID":null,"Gov_ID":"Dhofar Governorate","Wlyt_ID":"Salalah","Road_ID":"104615","Latitude":17.05686145,"Longitude":54.057729510000001,"GlobalID":"{9F38C91F-76C9-462F-8028-9ACB27FF3F0E}"}},{"type":"Feature","id":50,"geometry":{"type":"Point","coordinates":[182982.56620000023,1887654.5004999992]},"properties":{"OBJECTID":50,"Asset_ID":"Phcy50","Name":"ALRAYA PHARMACY ITTIN","District_ID":null,"Gov_ID":"Dhofar Governorate","Wlyt_ID":"Salalah","Road_ID":"104611","Latitude":17.051363689999999,"Longitude":54.022028679999998,"GlobalID":"{A265FFB9-2E6A-4422-A383-A406652A8107}"}},{"type":"Feature","id":51,"geometry":{"type":"Point","coordinates":[182439.47140000015,1885586.8581000008]},"properties":{"OBJECTID":51,"Asset_ID":"Phcy51","Name":"Suhail pharmacy","District_ID":"Auqad al Shamaliyya Extension","Gov_ID":"Dhofar Governorate","Wlyt_ID":"Salalah","Road_ID":"104830","Latitude":17.032623829999999,"Longitude":54.017228350000003,"GlobalID":"{557E1905-FBB4-4C5D-A4E2-19304720F1A3}"}},{"type":"Feature","id":52,"geometry":{"type":"Point","coordinates":[184356.71289999969,1882242.2810999993]},"properties":{"OBJECTID":52,"Asset_ID":"Phcy52","Name":"Noor al shifa pharmacy Aukat","District_ID":"Auqad al Shamaliyya","Gov_ID":"2","Wlyt_ID":"Salalah","Road_ID":"105563","Latitude":17.002694470000002,"Longitude":54.035694599999999,"GlobalID":"{E732DB76-BA2B-4852-A9D3-8CAEF221030A}"}},{"type":"Feature","id":53,"geometry":{"type":"Point","coordinates":[184512.9495000001,1882039.8208000008]},"properties":{"OBJECTID":53,"Asset_ID":"Phcy53","Name":"Kenz pharmacy","District_ID":"Auqad al Janubiyya","Gov_ID":"2","Wlyt_ID":"Salalah","Road_ID":"105373","Latitude":17.00088813,"Longitude":54.037189189999999,"GlobalID":"{474D8477-778C-4D5F-9DA6-70ABF7ECBB95}"}},{"type":"Feature","id":54,"geometry":{"type":"Point","coordinates":[183890.47539999988,1881666.1564000007]},"properties":{"OBJECTID":54,"Asset_ID":"Phcy54","Name":"Delta Pharmacy, Awqad Nesto","District_ID":"Auqad al Shamaliyya","Gov_ID":"2","Wlyt_ID":"Salalah","Road_ID":"105565","Latitude":16.99742981,"Longitude":54.031402249999999,"GlobalID":"{B71B68A4-7759-4AFB-9FCF-44C940DEA523}"}},{"type":"Feature","id":55,"geometry":{"type":"Point","coordinates":[183515.13509999961,1881719.6728000008]},"properties":{"OBJECTID":55,"Asset_ID":"Phcy55","Name":"AL AROUBA PHARMACY","District_ID":"Auqad al Shamaliyya","Gov_ID":"2","Wlyt_ID":"Salalah","Road_ID":"105566","Latitude":16.997861520000001,"Longitude":54.027873239999998,"GlobalID":"{989F385B-DB92-4415-9096-3C1DDE0E65B0}"}},{"type":"Feature","id":56,"geometry":{"type":"Point","coordinates":[188681.99949999992,1882816.3059]},"properties":{"OBJECTID":56,"Asset_ID":"Phcy56","Name":"صيدلية عالم الدواء فرع المعتزة","District_ID":"Salalah al Gharbiyya","Gov_ID":"2","Wlyt_ID":"Salalah","Road_ID":"104524","Latitude":17.008463819999999,"Longitude":54.076195540000001,"GlobalID":"{49AD7029-4E0B-4FBA-98E4-D7738C550296}"}},{"type":"Feature","id":57,"geometry":{"type":"Point","coordinates":[189747.17090000026,1883195.5826999992]},"properties":{"OBJECTID":57,"Asset_ID":"Phcy57","Name":"Delta Pharmacy","District_ID":"Salalah al Gharbiyya","Gov_ID":"2","Wlyt_ID":"Salalah","Road_ID":"104474","Latitude":17.012031270000001,"Longitude":54.086136879999998,"GlobalID":"{894AA029-70A5-48C4-8962-135F43146AB4}"}},{"type":"Feature","id":58,"geometry":{"type":"Point","coordinates":[190167.48610000033,1883503.8178000003]},"properties":{"OBJECTID":58,"Asset_ID":"Phcy58","Name":"AL ZAHIR PHARMACY","District_ID":"Salalah al Jadida","Gov_ID":"2","Wlyt_ID":"Salalah","Road_ID":"104203","Latitude":17.014870429999998,"Longitude":54.090037719999998,"GlobalID":"{122E52E2-997D-43E0-AE22-5579D68720F0}"}},{"type":"Feature","id":59,"geometry":{"type":"Point","coordinates":[198291.58540000021,1884266.7618000004]},"properties":{"OBJECTID":59,"Asset_ID":"Phcy59","Name":"New Moon Pharmacy","District_ID":"Dahariz al Shamaliyya","Gov_ID":"2","Wlyt_ID":"Salalah","Road_ID":"100002","Latitude":17.022835310000001,"Longitude":54.166167119999997,"GlobalID":"{5261423D-FB58-4902-9DD9-B9BF15727748}"}},{"type":"Feature","id":60,"geometry":{"type":"Point","coordinates":[197750.43599999975,1886116.5788000003]},"properties":{"OBJECTID":60,"Asset_ID":"Phcy60","Name":"صيدلية دينا السعادة","District_ID":"al Sada al Janubiyya","Gov_ID":"2","Wlyt_ID":"Salalah","Road_ID":"100251","Latitude":17.039465270000001,"Longitude":54.160836699999997,"GlobalID":"{7CC3C5FC-CAB4-4292-B3F8-8C0DDBDB064A}"}},{"type":"Feature","id":61,"geometry":{"type":"Point","coordinates":[194288.84190000035,1884156.7522]},"properties":{"OBJECTID":61,"Asset_ID":"Phcy61","Name":"Sinan pharmacy","District_ID":"al Huseela","Gov_ID":"2","Wlyt_ID":"Salalah","Road_ID":"103824","Latitude":17.021314969999999,"Longitude":54.128620150000003,"GlobalID":"{747C7B2F-14A6-495C-8F23-7A06941332A8}"}},{"type":"Feature","id":62,"geometry":{"type":"Point","coordinates":[196701.32919999957,1892400.3080000002]},"properties":{"OBJECTID":62,"Asset_ID":"Phcy62","Name":"Taiba Pharmacy","District_ID":"al Sada al Shamaliyya","Gov_ID":"2","Wlyt_ID":"Salalah","Road_ID":"102596","Latitude":17.096058459999998,"Longitude":54.15012918,"GlobalID":"{FDA9BBF6-5D8F-4AFC-AC8E-75770C146442}"}},{"type":"Feature","id":63,"geometry":{"type":"Point","coordinates":[197545.7407999998,1890785.7117999997]},"properties":{"OBJECTID":63,"Asset_ID":"Phcy63","Name":"Smart pharmacy","District_ID":"al Sada al Shamaliyya","Gov_ID":"2","Wlyt_ID":"Salalah","Road_ID":"100003","Latitude":17.081592830000002,"Longitude":54.158277470000002,"GlobalID":"{09E421B5-91EB-44E3-BEC8-0FEA6CD652A8}"}},{"type":"Feature","id":64,"geometry":{"type":"Point","coordinates":[197691.97929999977,1890353.0922999997]},"properties":{"OBJECTID":64,"Asset_ID":"Phcy64","Name":"Al-Nahda Pharmacy","District_ID":"al Sada al Shamaliyya","Gov_ID":"2","Wlyt_ID":"Salalah","Road_ID":"102471","Latitude":17.077706249999999,"Longitude":54.159709409999998,"GlobalID":"{7064AAB8-33B3-4653-ABC1-E9B96B451A4E}"}},{"type":"Feature","id":65,"geometry":{"type":"Point","coordinates":[197234.19519999996,1891131.6636999995]},"properties":{"OBJECTID":65,"Asset_ID":"Phcy65","Name":"AL WATHEEKA PHARMACY","District_ID":"al Sada al Shamaliyya","Gov_ID":"2","Wlyt_ID":"Salalah","Road_ID":"100003","Latitude":17.084675140000002,"Longitude":54.155305550000001,"GlobalID":"{10E38F22-5109-43F6-8F2E-B293A279098B}"}},{"type":"Feature","id":66,"geometry":{"type":"Point","coordinates":[200533.7078999998,1891788.6593999993]},"properties":{"OBJECTID":66,"Asset_ID":"Phcy66","Name":"Noor Al Shifa Pharmacy","District_ID":"Sahalnout al Shamaliyya","Gov_ID":"2","Wlyt_ID":"Salalah","Road_ID":"102656","Latitude":17.091039339999998,"Longitude":54.186190320000001,"GlobalID":"{430C42E8-8A84-4262-A938-FDD1AE9C2939}"}},{"type":"Feature","id":67,"geometry":{"type":"Point","coordinates":[181485.0393000003,1881841.7434999999]},"properties":{"OBJECTID":67,"Asset_ID":"Phcy67","Name":"Pulse pharmacy\r\n","District_ID":"Auqad al Shamaliyya","Gov_ID":"2","Wlyt_ID":"Salalah","Road_ID":"105725","Latitude":16.99868442,"Longitude":54.008809839999998,"GlobalID":"{1C5EACF3-8165-4AFB-BFB3-ED2B38DBEF54}"}},{"type":"Feature","id":68,"geometry":{"type":"Point","coordinates":[182692.76159999985,1882759.7090000007]},"properties":{"OBJECTID":68,"Asset_ID":"Phcy68","Name":"Care pharmacy","District_ID":"Auqad al Shamaliyya","Gov_ID":"2","Wlyt_ID":"Salalah","Road_ID":"105730","Latitude":17.007137369999999,"Longitude":54.020009340000001,"GlobalID":"{1AE4ABBE-F477-4148-A486-FD2E9F297827}"}},{"type":"Feature","id":69,"geometry":{"type":"Point","coordinates":[183128.49920000043,1883048.5562999994]},"properties":{"OBJECTID":69,"Asset_ID":"Phcy69","Name":"صيدلية عالم الدواء","District_ID":"Auqad al Shamaliyya","Gov_ID":"2","Wlyt_ID":"Salalah","Road_ID":"105730","Latitude":17.009804720000002,"Longitude":54.024056340000001,"GlobalID":"{2A2EF8CC-8352-4132-B61A-1A11705A7587}"}},{"type":"Feature","id":70,"geometry":{"type":"Point","coordinates":[182707.58349999972,1882962.8080000002]},"properties":{"OBJECTID":70,"Asset_ID":"Phcy70","Name":"Oxidant pharmacy","District_ID":"Auqad al Shamaliyya","Gov_ID":"2","Wlyt_ID":"Salalah","Road_ID":"105777","Latitude":17.008972830000001,"Longitude":54.020119389999998,"GlobalID":"{B1C34421-569C-46FD-92BF-C0F28CE567C2}"}},{"type":"Feature","id":71,"geometry":{"type":"Point","coordinates":[182497.06699999981,1883220.8780000005]},"properties":{"OBJECTID":71,"Asset_ID":"Phcy71","Name":"DELTA PHARMACY","District_ID":"Auqad al Shamaliyya","Gov_ID":"2","Wlyt_ID":"Salalah","Road_ID":"105777","Latitude":17.011273540000001,"Longitude":54.018107350000001,"GlobalID":"{9F0C09E5-CC3A-4FF2-A86E-FA2009B0C356}"}}]
}