{
  "type" : "FeatureCollection",
  "crs" : {
    "type" : "name",
    "properties" : {
      "name" : "EPSG:32640"
    }
  },
  "features" : [{"type":"Feature","id":1,"geometry":{"type":"Point","coordinates":[190092.39950000029,1884268.5968999993]},"properties":{"OBJECTID":1,"Asset_ID":"PS1","Name":"Salalah Police Station","District_ID":"Salalah al Jadida","Gov_ID":"2","Wlyt_ID":"Salalah","Road_ID":"104378","Latitude":17.021764619999999,"Longitude":54.089226369999999,"GlobalID":"{DE6BCAE5-830B-4496-A1F1-EDA61A955296}"}},{"type":"Feature","id":2,"geometry":{"type":"Point","coordinates":[196176.05279999971,1889685.1228]},"properties":{"OBJECTID":2,"Asset_ID":"PS2","Name":"Dhofar Police Directorate","District_ID":"Salalah Wellfield","Gov_ID":"2","Wlyt_ID":"Salalah","Road_ID":"100530","Latitude":17.07147578,"Longitude":54.145571369999999,"GlobalID":"{76EA14B1-4858-4D4E-A648-AE29F4D93434}"}},{"type":"Feature","id":3,"geometry":{"type":"Point","coordinates":[184565.02280000038,1883397.0847999994]},"properties":{"OBJECTID":3,"Asset_ID":"PS3","Name":"Awqad Police Station","District_ID":"New Industrial Area","Gov_ID":"2","Wlyt_ID":"Salalah","Road_ID":"105161","Latitude":17.013147799999999,"Longitude":54.037484990000003,"GlobalID":"{99EF671E-EF0A-486B-BE8D-6903AAC181C8}"}},{"type":"Feature","id":4,"geometry":{"type":"Point","coordinates":[190437.73259999976,1883518.3668000009]},"properties":{"OBJECTID":4,"Asset_ID":"PS4","Name":"ROP Traffic Section","District_ID":"Salalah al Wousta","Gov_ID":"2","Wlyt_ID":"Salalah","Road_ID":"104387","Latitude":17.015038050000001,"Longitude":54.092571479999997,"GlobalID":"{BB60351F-A19C-4ECD-A512-AD084C8C5236}"}},{"type":"Feature","id":5,"geometry":{"type":"Point","coordinates":[185754.75540000014,1882991.7235000003]},"properties":{"OBJECTID":5,"Asset_ID":"PS5","Name":"قسم كلاب الشرطة","District_ID":"Mustashfa al Sultan Qboos","Gov_ID":"2","Wlyt_ID":"Salalah","Road_ID":"105357","Latitude":17.009650740000001,"Longitude":54.048705329999997,"GlobalID":"{523EB399-250F-4A07-A459-6A7BEAD133C2}"}},{"type":"Feature","id":6,"geometry":{"type":"Point","coordinates":[195418.94039999973,1889192.5263]},"properties":{"OBJECTID":6,"Asset_ID":"PS6","Name":"قيادة شرطة المهام الخاصة بمحافظة ظفار\n","District_ID":"Salalah Wellfield","Gov_ID":"2","Wlyt_ID":"Salalah","Road_ID":"100579","Latitude":17.066928359999999,"Longitude":54.138532580000003,"GlobalID":"{C017D83E-5ABD-40E9-A1CF-D5A0D5C0C3B0}"}},{"type":"Feature","id":7,"geometry":{"type":"Point","coordinates":[195960.23979999963,1889352.2974999994]},"properties":{"OBJECTID":7,"Asset_ID":"PS7","Name":"Dhofar Police Directorate\n","District_ID":"Salalah Wellfield","Gov_ID":"2","Wlyt_ID":"Salalah","Road_ID":"100561","Latitude":17.068442439999998,"Longitude":54.143591389999997,"GlobalID":"{2BDE0BC9-C8EA-42B9-89B4-C90B7ABB5757}"}},{"type":"Feature","id":8,"geometry":{"type":"Point","coordinates":[195430.3273,1889633.9822000004]},"properties":{"OBJECTID":8,"Asset_ID":"PS8","Name":"قيادة شرطة المهام الخاصة بصلالة\n","District_ID":"Salalah Wellfield","Gov_ID":"2","Wlyt_ID":"Salalah","Road_ID":"100579","Latitude":17.070915400000001,"Longitude":54.138578670000001,"GlobalID":"{433D0C5E-BC55-4333-AE46-9906C12FDC2F}"}},{"type":"Feature","id":9,"geometry":{"type":"Point","coordinates":[196091.57129999995,1889707.8772]},"properties":{"OBJECTID":9,"Asset_ID":"PS9","Name":"قيادة شرطة محافظة ظفار\n","District_ID":"Salalah Wellfield","Gov_ID":"2","Wlyt_ID":"Salalah","Road_ID":"100530","Latitude":17.071670040000001,"Longitude":54.144775260000003,"GlobalID":"{5466FD96-2BB4-47C9-B875-254A7323BE9D}"}}]
}