{
  "type" : "FeatureCollection",
  "crs" : {
    "type" : "name",
    "properties" : {
      "name" : "EPSG:32640"
    }
  },
  "features" : [{"type":"Feature","id":1,"geometry":{"type":"Point","coordinates":[190026.88580000028,1883868.3892999999]},"properties":{"OBJECTID":1,"Asset_ID":"PSS1","Name":"مكتبة التأخي","District_ID":"Salalah al Jadida","Gov_ID":"2","Wlyt_ID":"Salalah","Road_ID":"104248","Latitude":17.018142820000001,"Longitude":54.088667520000001,"GlobalID":"{0DDB6575-1FCC-4C3C-B5BD-7856F60DF97D}"}},{"type":"Feature","id":2,"geometry":{"type":"Point","coordinates":[190006.8432,1883776.0639999993]},"properties":{"OBJECTID":2,"Asset_ID":"PSS2","Name":"حبرالأمة للقرطاسية والمعدات المكتبية","District_ID":"Salalah al Jadida","Gov_ID":"2","Wlyt_ID":"Salalah","Road_ID":"104195","Latitude":17.01730663,"Longitude":54.088492350000003,"GlobalID":"{D91D0DC7-DA91-492D-AE7C-BD7460E9DF10}"}},{"type":"Feature","id":3,"geometry":{"type":"Point","coordinates":[189631.53380000032,1883861.3877000008]},"properties":{"OBJECTID":3,"Asset_ID":"PSS3","Name":"Al Hidayah Book shop","District_ID":"Salalah al Jadida","Gov_ID":"2","Wlyt_ID":"Salalah","Road_ID":"104189","Latitude":17.018026450000001,"Longitude":54.08495877,"GlobalID":"{C5E815C3-6A37-44D0-8D7F-C9D9A55F1FC1}"}},{"type":"Feature","id":4,"geometry":{"type":"Point","coordinates":[189841.99949999992,1883504.0081999991]},"properties":{"OBJECTID":4,"Asset_ID":"PSS4","Name":"Limo Store","District_ID":"Salalah al Jadida","Gov_ID":"2","Wlyt_ID":"Salalah","Road_ID":"104190","Latitude":17.014828420000001,"Longitude":54.086983580000002,"GlobalID":"{E09B3F24-F16D-4660-A0FC-0902649F6A86}"}},{"type":"Feature","id":5,"geometry":{"type":"Point","coordinates":[189106.57440000027,1884025.7664999999]},"properties":{"OBJECTID":5,"Asset_ID":"PSS5","Name":"مكتبة الضحي","District_ID":"Salalah al Jadida","Gov_ID":"2","Wlyt_ID":"Salalah","Road_ID":"104210","Latitude":17.019439729999998,"Longitude":54.080009869999998,"GlobalID":"{A1268563-17A1-489D-B112-1691BFA4A7A2}"}},{"type":"Feature","id":6,"geometry":{"type":"Point","coordinates":[189368.1035000002,1883179.6837000009]},"properties":{"OBJECTID":6,"Asset_ID":"PSS6","Name":"AL KHAREEF BOOK SHOP","District_ID":"Salalah al Gharbiyya","Gov_ID":"2","Wlyt_ID":"Salalah","Road_ID":"103812","Latitude":17.01183674,"Longitude":54.082582299999999,"GlobalID":"{B63C2A0C-B571-4A90-BED5-E319DCBEF61A}"}},{"type":"Feature","id":7,"geometry":{"type":"Point","coordinates":[188339.30790000036,1883067.3616000004]},"properties":{"OBJECTID":7,"Asset_ID":"PSS7","Name":"Al Mashreq Office Supply","District_ID":"al Wadi","Gov_ID":"2","Wlyt_ID":"Salalah","Road_ID":"104330","Latitude":17.010684019999999,"Longitude":54.072944900000003,"GlobalID":"{A36B0EB4-92D8-4744-9600-3178B4F4507A}"}},{"type":"Feature","id":8,"geometry":{"type":"Point","coordinates":[197789.92960000038,1885700.8485000003]},"properties":{"OBJECTID":8,"Asset_ID":"PSS8","Name":"LYNX PRINTING PRESS LLC","District_ID":"Dahariz al Shamaliyya","Gov_ID":"2","Wlyt_ID":"Salalah","Road_ID":"100124","Latitude":17.035717089999999,"Longitude":54.161264029999998,"GlobalID":"{D93C72FE-18F7-4934-9CBF-0A6EB7BA8D05}"}},{"type":"Feature","id":9,"geometry":{"type":"Point","coordinates":[190225.27630000003,1883619.3047000002]},"properties":{"OBJECTID":9,"Asset_ID":"PSS9","Name":"Jabalico Autocad Print and Copy Centre","District_ID":"Salalah al Jadida","Gov_ID":"2","Wlyt_ID":"Salalah","Road_ID":"104386","Latitude":17.015920779999998,"Longitude":54.090563860000003,"GlobalID":"{313652DB-CCAB-4BF3-88AD-89436D82CA0A}"}},{"type":"Feature","id":10,"geometry":{"type":"Point","coordinates":[190173.92590000015,1883438.8973999992]},"properties":{"OBJECTID":10,"Asset_ID":"PSS10","Name":"Golden Graphics","District_ID":"Salalah al Wousta","Gov_ID":"2","Wlyt_ID":"Salalah","Road_ID":"103812","Latitude":17.014313059999999,"Longitude":54.090103550000002,"GlobalID":"{232B0F16-388A-46D3-AA4D-507809B17E94}"}},{"type":"Feature","id":11,"geometry":{"type":"Point","coordinates":[189990.24600000028,1883389.7609999999]},"properties":{"OBJECTID":11,"Asset_ID":"PSS11","Name":"NAIF PRINTING PRESS","District_ID":"Salalah al Gharbiyya","Gov_ID":"2","Wlyt_ID":"Salalah","Road_ID":"103812","Latitude":17.013843829999999,"Longitude":54.088383540000002,"GlobalID":"{7DBF2C1B-0A86-45F6-93BE-C159089823AE}"}},{"type":"Feature","id":12,"geometry":{"type":"Point","coordinates":[189925.7296000002,1883370.9896000009]},"properties":{"OBJECTID":12,"Asset_ID":"PSS12","Name":"AL BASMA OFFICE SUPPLIES AND EQUIPMENTS","District_ID":"Salalah al Gharbiyya","Gov_ID":"2","Wlyt_ID":"Salalah","Road_ID":"103812","Latitude":17.013645839999999,"Longitude":54.087785109999999,"GlobalID":"{53A4F8CF-B7F1-466A-8AD2-8542112C94E8}"}},{"type":"Feature","id":13,"geometry":{"type":"Point","coordinates":[189686.92709999997,1884263.5119000003]},"properties":{"OBJECTID":13,"Asset_ID":"PSS13","Name":"Hoor Al Huda Printing","District_ID":"Salalah al Jadida","Gov_ID":"2","Wlyt_ID":"Salalah","Road_ID":"104417","Latitude":17.021687199999999,"Longitude":54.08542113,"GlobalID":"{C58CDA3F-7B1D-4B1E-A291-C7EB235F2FE3}"}},{"type":"Feature","id":14,"geometry":{"type":"Point","coordinates":[188474.33040000033,1883170.4956999999]},"properties":{"OBJECTID":14,"Asset_ID":"PSS14","Name":"Nishan Graphics Salalah","District_ID":"Salalah al Jadida","Gov_ID":"2","Wlyt_ID":"Salalah","Road_ID":"104318","Latitude":17.011633310000001,"Longitude":54.074197329999997,"GlobalID":"{C1B994E0-3A5A-43DB-B755-6F05AA7E21DD}"}},{"type":"Feature","id":15,"geometry":{"type":"Point","coordinates":[189125.55229999963,1883115.7750000004]},"properties":{"OBJECTID":15,"Asset_ID":"PSS15","Name":"Artist, Khat Al Reef","District_ID":"Salalah al Gharbiyya","Gov_ID":"2","Wlyt_ID":"Salalah","Road_ID":"103812","Latitude":17.011227130000002,"Longitude":54.080315390000003,"GlobalID":"{C1374779-CBF1-4002-800E-F981527FECA1}"}},{"type":"Feature","id":16,"geometry":{"type":"Point","coordinates":[189380.34439999983,1882759.9859999996]},"properties":{"OBJECTID":16,"Asset_ID":"PSS16","Name":"مطابع","District_ID":"Salalah al Gharbiyya","Gov_ID":"2","Wlyt_ID":"Salalah","Road_ID":"103741","Latitude":17.008049459999999,"Longitude":54.08275587,"GlobalID":"{1E9F181D-EE8C-4D73-B772-A41F76D38392}"}},{"type":"Feature","id":17,"geometry":{"type":"Point","coordinates":[190467.70239999983,1882892.2327999994]},"properties":{"OBJECTID":17,"Asset_ID":"PSS17","Name":"الطباعة بأستخدام الآلات الناسخة و الحاسب الالي","District_ID":"Salalah al Wousta","Gov_ID":"2","Wlyt_ID":"Salalah","Road_ID":"103741","Latitude":17.009389429999999,"Longitude":54.092939989999998,"GlobalID":"{FE94AEC8-5B23-491B-8B04-66830E27C5E5}"}},{"type":"Feature","id":18,"geometry":{"type":"Point","coordinates":[190548.57909999974,1882899.2789999992]},"properties":{"OBJECTID":18,"Asset_ID":"PSS18","Name":"صناعة انواع الاختام","District_ID":"Salalah al Wousta","Gov_ID":"2","Wlyt_ID":"Salalah","Road_ID":"103741","Latitude":17.009463889999999,"Longitude":54.09369787,"GlobalID":"{AE6729E0-54CC-4152-8DA3-0DE92072415F}"}},{"type":"Feature","id":19,"geometry":{"type":"Point","coordinates":[189164.82440000027,1882766.6041999999]},"properties":{"OBJECTID":19,"Asset_ID":"PSS19","Name":"مطبعة ريدان","District_ID":"Salalah al Gharbiyya","Gov_ID":"2","Wlyt_ID":"Salalah","Road_ID":"104500","Latitude":17.008080190000001,"Longitude":54.080732750000003,"GlobalID":"{4261B175-FD14-46E4-BB1C-6DE5459457B5}"}},{"type":"Feature","id":20,"geometry":{"type":"Point","coordinates":[185341.95770000014,1886129.0513000004]},"properties":{"OBJECTID":20,"Asset_ID":"PSS20","Name":"سمهرم للطباعة و التغليف\n","District_ID":"New Industrial Area","Gov_ID":"2","Wlyt_ID":"Salalah","Road_ID":"105226","Latitude":17.03791653,"Longitude":54.04438725,"GlobalID":"{0EA2F6CB-4384-4089-8BC4-6EF58FECB978}"}},{"type":"Feature","id":21,"geometry":{"type":"Point","coordinates":[185662.3638000004,1886300.6448999997]},"properties":{"OBJECTID":21,"Asset_ID":"PSS21","Name":"National Paper Bags Factory","District_ID":"New Industrial Area","Gov_ID":"2","Wlyt_ID":"Salalah","Road_ID":"105222","Latitude":17.03950931,"Longitude":54.047369609999997,"GlobalID":"{6BDC318B-A753-4C04-A0E5-99ADD3502D41}"}},{"type":"Feature","id":22,"geometry":{"type":"Point","coordinates":[185488.97229999956,1885329.6041000001]},"properties":{"OBJECTID":22,"Asset_ID":"PSS22","Name":"خدمة الطباعة و تخليص المعاملات","District_ID":"New Industrial Area","Gov_ID":"2","Wlyt_ID":"Salalah","Road_ID":"105216","Latitude":17.030719640000001,"Longitude":54.045880250000003,"GlobalID":"{314D9CBB-C3CE-4825-A609-6B9262CE8BB9}"}},{"type":"Feature","id":23,"geometry":{"type":"Point","coordinates":[193078.00399999972,1884484.2282999996]},"properties":{"OBJECTID":23,"Asset_ID":"PSS23","Name":"طابعات ثلاثية  الأبعاد","District_ID":"al Huseela","Gov_ID":"2","Wlyt_ID":"Salalah","Road_ID":"103813","Latitude":17.024128059999999,"Longitude":54.117212289999998,"GlobalID":"{A0CE7B34-FD4D-44BD-823F-2D74E256232E}"}},{"type":"Feature","id":24,"geometry":{"type":"Point","coordinates":[197619.76609999966,1890375.057]},"properties":{"OBJECTID":24,"Asset_ID":"PSS24","Name":"حسن خطاط و مطبعة ","District_ID":"al Sada al Shamaliyya","Gov_ID":"2","Wlyt_ID":"Salalah","Road_ID":"102603","Latitude":17.077895049999999,"Longitude":54.159028540000001,"GlobalID":"{68F9A4C5-7C03-48E2-BF48-4F5058C46960}"}},{"type":"Feature","id":25,"geometry":{"type":"Point","coordinates":[182952.41820000019,1883037.7504999992]},"properties":{"OBJECTID":25,"Asset_ID":"PSS25","Name":"مكتبة أفق المدينة\n","District_ID":"Auqad al Shamaliyya","Gov_ID":"2","Wlyt_ID":"Salalah","Road_ID":"105899","Latitude":17.009682999999999,"Longitude":54.022405810000002,"GlobalID":"{2F260B44-67F5-46E1-95A5-17107EBD4AAE}"}},{"type":"Feature","id":26,"geometry":{"type":"Point","coordinates":[182365.88129999954,1882848.2324000001]},"properties":{"OBJECTID":26,"Asset_ID":"PSS26","Name":"مكتبة أفق المدينة\n","District_ID":"Auqad al Shamaliyya","Gov_ID":"2","Wlyt_ID":"Salalah","Road_ID":"105796","Latitude":17.007891529999998,"Longitude":54.016929810000001,"GlobalID":"{5837D395-4A11-40DB-A1FE-343F22DA6705}"}}]
}