{"type":"FeatureCollection","features":[{"type":"Feature","id":1,"geometry":{"type":"Polygon","coordinates":[[[54.14602347400006,17.012921223000035],[54.174215572000037,17.021466846000067],[54.172729503000028,17.032421132000024],[54.14234096000007,17.033571724000069],[54.14602347400006,17.012921223000035]]]},"properties":{"OBJECTID":1,"Name":"SLL_SUR_18","FolderPath":"SLL Survey Update","SymbolID":0,"AltMode":0,"Base":0,"Clamped":-1,"Extruded":0,"Snippet":"","PopupInfo":"","Shape_Length":0.091900039149784479,"Shape_Area":0.00047241262815923753}},{"type":"Feature","id":2,"geometry":{"type":"Polygon","coordinates":[[[54.082070710000039,17.047202502000061],[54.078117580000082,17.057037068000056],[54.03162399200005,17.033445789000041],[54.021086406000052,17.029509871000073],[54.020930986000053,17.025968492000061],[54.026159979000056,17.026927096000065],[54.05410617900003,17.032135485000026],[54.062804816000039,17.036138976000075],[54.066724485000066,17.038987772000041],[54.082070710000039,17.047202502000061]]]},"properties":{"OBJECTID":2,"Name":"SLL_SUR_20","FolderPath":"SLL Survey Update","SymbolID":0,"AltMode":0,"Base":0,"Clamped":-1,"Extruded":0,"Snippet":"","PopupInfo":"","Shape_Length":0.14310052870772333,"Shape_Area":0.00057637046921590125}},{"type":"Feature","id":3,"geometry":{"type":"Polygon","coordinates":[[[54.147872822000068,17.006312442000024],[54.143179881000037,17.033151638000049],[54.123262658000044,17.025870430000055],[54.114885868000044,17.025975108000068],[54.122007590000067,17.00187107000005],[54.147872822000068,17.006312442000024]]]},"properties":{"OBJECTID":3,"Name":"SLL_SUR_15","FolderPath":"SLL Survey Update","SymbolID":0,"AltMode":0,"Base":0,"Clamped":-1,"Extruded":0,"Snippet":"","PopupInfo":"","Shape_Length":0.10820814146001367,"Shape_Area":0.00069253814933351021}},{"type":"Feature","id":4,"geometry":{"type":"Polygon","coordinates":[[[54.058398474000057,17.017324176000045],[54.044863811000027,17.009937233000073],[54.037224690000073,17.004785046000052],[54.043399251000039,16.989829358000065],[54.067975439000065,16.994026435000023],[54.068245842000067,17.007579688000078],[54.059045579000042,17.004964339000026],[54.058398474000057,17.017324176000045]]]},"properties":{"OBJECTID":4,"Name":"SLL_SUR_12","FolderPath":"SLL Survey Update","SymbolID":0,"AltMode":0,"Base":0,"Clamped":-1,"Extruded":0,"Snippet":"","PopupInfo":"","Shape_Length":0.10124311207334419,"Shape_Area":0.00052042653413238713}},{"type":"Feature","id":5,"geometry":{"type":"Polygon","coordinates":[[[54.103277002000027,17.071657300000027],[54.10757200900008,17.057291627000041],[54.116256407000037,17.055796100000066],[54.132559410000056,17.06187095000007],[54.162385081000082,17.076148637000074],[54.152957353000033,17.099257952000073],[54.103277002000027,17.071657300000027]]]},"properties":{"OBJECTID":5,"Name":"SLL_SUR 21&22","FolderPath":"SLL Survey Update","SymbolID":0,"AltMode":0,"Base":0,"Clamped":-1,"Extruded":0,"Snippet":"","PopupInfo":"","Shape_Length":0.15606211727483799,"Shape_Area":0.0012870134421268944}},{"type":"Feature","id":6,"geometry":{"type":"Polygon","coordinates":[[[54.123107512000047,17.025090000000034],[54.143494887000031,17.032418028000052],[54.140873856000042,17.047660047000022],[54.138421937000032,17.047517480000067],[54.111323626000058,17.038651848000029],[54.114218544000039,17.02537320700003],[54.123107512000047,17.025090000000034]]]},"properties":{"OBJECTID":6,"Name":"SLL_SUR_16","FolderPath":"SLL Survey Update","SymbolID":0,"AltMode":0,"Base":0,"Clamped":-1,"Extruded":0,"Snippet":"","PopupInfo":"","Shape_Length":0.090581904098468946,"Shape_Area":0.00048597355195368811}},{"type":"Feature","id":7,"geometry":{"type":"Polygon","coordinates":[[[54.018259264000051,16.98068332500003],[54.041457193000042,16.989547066000057],[54.043955407000055,16.989912097000058],[54.037730890000034,17.005115457000045],[54.003517035000073,16.984727901000042],[54.010671011000056,16.972840959000052],[54.018259264000051,16.98068332500003]]]},"properties":{"OBJECTID":7,"Name":"SLL_SUR_11","FolderPath":"SLL Survey Update","SymbolID":0,"AltMode":0,"Base":0,"Clamped":-1,"Extruded":0,"Snippet":"","PopupInfo":"","Shape_Length":0.1084004941982083,"Shape_Area":0.00050984028987377441}},{"type":"Feature","id":8,"geometry":{"type":"Polygon","coordinates":[[[54.097198139000056,16.99817362400006],[54.093453421000049,17.015601820000029],[54.067727267000066,17.007509179000067],[54.067457623000053,16.993843793000053],[54.097198139000056,16.99817362400006]]]},"properties":{"OBJECTID":8,"Name":"SLL_SUR_13","FolderPath":"SLL Survey Update","SymbolID":0,"AltMode":0,"Base":0,"Clamped":-1,"Extruded":0,"Snippet":"","PopupInfo":"","Shape_Length":0.088517034214236651,"Shape_Area":0.00044195661534332937}},{"type":"Feature","id":10,"geometry":{"type":"Polygon","coordinates":[[[54.218548873000032,17.103736492000053],[54.218034180000075,17.105183443000044],[54.169514059000051,17.104129483000065],[54.15237171900003,17.09892538500003],[54.161712593000061,17.075961494000069],[54.218548873000032,17.103736492000053]]]},"properties":{"OBJECTID":10,"Name":"SLL_SUR_28","FolderPath":"SLL Survey Update","SymbolID":0,"AltMode":0,"Base":0,"Clamped":-1,"Extruded":0,"Snippet":"","PopupInfo":"","Shape_Length":0.15603305628209088,"Shape_Area":0.00094864618083751568}},{"type":"Feature","id":11,"geometry":{"type":"Polygon","coordinates":[[[53.992462270000033,17.002800538000031],[54.003601059000061,16.984251564000033],[54.03818364600005,17.004850585000042],[54.023921933000054,17.027651814000023],[53.992462270000033,17.002800538000031]]]},"properties":{"OBJECTID":11,"Name":"SLL_SUR_27","FolderPath":"SLL Survey Update","SymbolID":0,"AltMode":0,"Base":0,"Clamped":-1,"Extruded":0,"Snippet":"","PopupInfo":"","Shape_Length":0.12887431277720368,"Shape_Area":0.0009713302009815108}},{"type":"Feature","id":14,"geometry":{"type":"Polygon","coordinates":[[[54.090518641000074,17.024778961000038],[54.096473605000028,16.997817865000059],[54.122753948000081,17.001961261000076],[54.115793865000057,17.026130235000039],[54.103104598000073,17.025294286000076],[54.090518641000074,17.024778961000038]]]},"properties":{"OBJECTID":14,"Name":"SLL_SUR_14","FolderPath":"SLL_SUR_2026 + GCPs.kmz/SLL_SUR_2026","SymbolID":0,"AltMode":0,"Base":0,"Clamped":-1,"Extruded":0,"Snippet":null,"PopupInfo":null,"Shape_Length":0.10468033306902338,"Shape_Area":0.00067475985689930914}},{"type":"Feature","id":15,"geometry":{"type":"Polygon","coordinates":[[[54.173613240000066,17.031875504000027],[54.19233762600004,17.032506233000049],[54.202905206000082,17.035401506000028],[54.197036470000057,17.055763917000036],[54.182099526000059,17.053815100000065],[54.140431429000046,17.04676697900004],[54.142626367000048,17.033020248000071],[54.173613240000066,17.031875504000027]]]},"properties":{"OBJECTID":15,"Name":"SLL_SUR_19","FolderPath":"SLL_SUR_2026 + GCPs.kmz/SLL_SUR_2026","SymbolID":0,"AltMode":0,"Base":0,"Clamped":-1,"Extruded":0,"Snippet":null,"PopupInfo":null,"Shape_Length":0.15313569182586542,"Shape_Area":0.0011268459316470776}},{"type":"Feature","id":16,"geometry":{"type":"Polygon","coordinates":[[[54.171984850000058,17.032306772000027],[54.175642018000076,17.010938094000039],[54.17572184900007,17.010656134000044],[54.17903113300008,17.011104144000058],[54.183774769000081,17.011894950000055],[54.217824204000067,17.017196024000043],[54.218078509000065,17.024362785000051],[54.218074315000081,17.032952309000052],[54.217489110000031,17.039977000000022],[54.19701451800006,17.034166480000067],[54.192426413000078,17.033035389000077],[54.184604253000032,17.032777077000048],[54.171984850000058,17.032306772000027]]]},"properties":{"OBJECTID":16,"Name":"SLL_SUR_17","FolderPath":"SLL_SUR_2026 + GCPs.kmz/SLL_SUR_2026","SymbolID":0,"AltMode":0,"Base":0,"Clamped":-1,"Extruded":0,"Snippet":null,"PopupInfo":null,"Shape_Length":0.13385360773716881,"Shape_Area":0.00093166646377541363}},{"type":"Feature","id":17,"geometry":{"type":"Polygon","coordinates":[[[54.202419460000044,17.035272576000068],[54.246565944000054,17.048323348000054],[54.242310875000044,17.05475625400004],[54.231059390000041,17.050580041000046],[54.222471253000037,17.051503948000061],[54.216740337000033,17.060270892000062],[54.196471728000063,17.055670434000035],[54.196857181000041,17.054490982000061],[54.202419460000044,17.035272576000068]]]},"properties":{"OBJECTID":17,"Name":"SLL_SUR_25","FolderPath":"SLL_SUR_2026 + GCPs.kmz/SLL_SUR_2026","SymbolID":0,"AltMode":0,"Base":0,"Clamped":-1,"Extruded":0,"Snippet":null,"PopupInfo":null,"Shape_Length":0.12689324570845661,"Shape_Area":0.0006294176722678042}},{"type":"Feature","id":18,"geometry":{"type":"Polygon","coordinates":[[[54.217833301000042,17.032830409000042],[54.217676990000029,17.017174038000064],[54.227504629000066,17.018730380000022],[54.229028737000078,17.018894383000031],[54.246205385000053,17.04848387800007],[54.231994979000035,17.044308688000058],[54.217130288000078,17.039881334000029],[54.217833301000042,17.032830409000042]]]},"properties":{"OBJECTID":18,"Name":"SLL_SUR_26","FolderPath":"SLL_SUR_2026 + GCPs.kmz/SLL_SUR_2026","SymbolID":0,"AltMode":0,"Base":0,"Clamped":-1,"Extruded":0,"Snippet":null,"PopupInfo":null,"Shape_Length":0.09876081130589591,"Shape_Area":0.00047962255527267839}},{"type":"Feature","id":19,"geometry":{"type":"Polygon","coordinates":[[[54.231379153000034,17.080004452000026],[54.218506476000073,17.103831949000039],[54.195622729000036,17.092969233000076],[54.205842438000047,17.065757353000038],[54.209177995000061,17.057842425000047],[54.217332275000047,17.059452118000024],[54.217978193000079,17.067292172000066],[54.222500965000052,17.071599626000022],[54.226811456000064,17.075603203000071],[54.231379153000034,17.080004452000026]]]},"properties":{"OBJECTID":19,"Name":"SLL_SUR_28","FolderPath":"SLL_SUR_2026 + GCPs.kmz/SLL_SUR_2026","SymbolID":0,"AltMode":0,"Base":0,"Clamped":-1,"Extruded":0,"Snippet":null,"PopupInfo":null,"Shape_Length":0.12472026375095391,"Shape_Area":0.00091191072849486495}},{"type":"Feature","id":20,"geometry":{"type":"Polygon","coordinates":[[[54.170558981000056,17.080580302000044],[54.176679942000078,17.052645115000075],[54.197155595000027,17.055474910000044],[54.209464995000076,17.057894776000069],[54.196052853000026,17.093176452000023],[54.170558981000056,17.080580302000044]]]},"properties":{"OBJECTID":20,"Name":"SLL_SUR_29","FolderPath":"SLL_SUR_2026 + GCPs.kmz/SLL_SUR_2026","SymbolID":0,"AltMode":0,"Base":0,"Clamped":-1,"Extruded":0,"Snippet":null,"PopupInfo":null,"Shape_Length":0.12799405433184738,"Shape_Area":0.0010155563494470732}},{"type":"Feature","id":21,"geometry":{"type":"Polygon","coordinates":[[[54.170921830000054,17.080760438000027],[54.146108273000038,17.068606429000056],[54.140105652000045,17.047968813000068],[54.140257381000026,17.046277445000044],[54.177240613000038,17.052722304000042],[54.170921830000054,17.080760438000027]]]},"properties":{"OBJECTID":21,"Name":"SLL_SUR_30","FolderPath":"SLL_SUR_2026 + GCPs.kmz/SLL_SUR_2026","SymbolID":0,"AltMode":0,"Base":0,"Clamped":-1,"Extruded":0,"Snippet":null,"PopupInfo":null,"Shape_Length":0.11710320985647528,"Shape_Area":0.00078694908458969777}},{"type":"Feature","id":22,"geometry":{"type":"Polygon","coordinates":[[[54.037908746000028,17.004587952000065],[54.045170738000081,17.009398391000047],[54.064312229000052,17.020027305000042],[54.055959139000038,17.033404782000048],[54.053524657000082,17.032427939000058],[54.024126949000049,17.026836632000027],[54.037908746000028,17.004587952000065]]]},"properties":{"OBJECTID":22,"Name":"SLL_SUR_31","FolderPath":"SLL_SUR_2026 + GCPs.kmz/SLL_SUR_2026","SymbolID":0,"AltMode":0,"Base":0,"Clamped":-1,"Extruded":0,"Snippet":null,"PopupInfo":null,"Shape_Length":0.10509571812739384,"Shape_Area":0.00062546325763123529}},{"type":"Feature","id":23,"geometry":{"type":"Polygon","coordinates":[[[54.147185505000039,17.006213763000062],[54.176027348000048,17.010671470000034],[54.174822063000079,17.017900030000078],[54.174531135000052,17.019616290000045],[54.174376318000043,17.020539204000045],[54.174326405000045,17.020850093000035],[54.174270102000037,17.021170623000046],[54.174227038000026,17.02142873400004],[54.174215493000077,17.02149722200005],[54.174198515000057,17.021592582000039],[54.173965602000067,17.023003503000041],[54.173424026000077,17.026226999000073],[54.168437999000048,17.023900174000062],[54.164732353000034,17.022159994000049],[54.153061845000082,17.016705850000051],[54.146234962000051,17.01359620900007],[54.147185505000039,17.006213763000062]]]},"properties":{"OBJECTID":23,"Name":null,"FolderPath":null,"SymbolID":null,"AltMode":null,"Base":null,"Clamped":null,"Extruded":null,"Snippet":null,"PopupInfo":null,"Shape_Length":0.082379563206743014,"Shape_Area":0.00033567499116730036}},{"type":"Feature","id":24,"geometry":{"type":"Polygon","coordinates":[[[54.091421291000074,17.023771828000065],[54.084259896000049,17.02293822300004],[54.084167063000052,17.022927457000037],[54.083890479000047,17.022917408000069],[54.083575852000081,17.022905923000053],[54.08310283600008,17.022888218000048],[54.082190211000068,17.022854561000031],[54.081010085000059,17.022811664000074],[54.07993577700006,17.022771049000028],[54.078379903000041,17.022713113000066],[54.076084775000027,17.022626210000055],[54.075347215000079,17.022601699000063],[54.069081014000062,17.022010787000056],[54.064434083000037,17.019990156000063],[54.062766405000048,17.019265310000037],[54.062000302000058,17.01893267500003],[54.061706247000075,17.018803682000055],[54.059746613000073,17.017947659000072],[54.059341890000042,17.017774933000055],[54.058148519000042,17.01725132200005],[54.057847503000062,17.017124610000053],[54.057952252000064,17.014949451000064],[54.058417029000054,17.00472736200004],[54.05937593200008,17.004397034000021],[54.060190266000063,17.004633901000034],[54.064749250000034,17.005954491000068],[54.066789412000048,17.006537302000027],[54.068448653000075,17.007026914000051],[54.070396221000067,17.007657970000025],[54.073230260000059,17.008595626000044],[54.074908243000039,17.009145120000028],[54.082458361000079,17.011625869000056],[54.09349853100008,17.015274999000042],[54.091421291000074,17.023771828000065]]]},"properties":{"OBJECTID":24,"Name":null,"FolderPath":null,"SymbolID":null,"AltMode":null,"Base":null,"Clamped":null,"Extruded":null,"Snippet":null,"PopupInfo":null,"Shape_Length":0.092663990932303611,"Shape_Area":0.0004287431827054837}}]}