{
  "type" : "FeatureCollection",
  "crs" : {
    "type" : "name",
    "properties" : {
      "name" : "EPSG:32640"
    }
  },
  "features" : [{"type":"Feature","id":1,"geometry":{"type":"Point","coordinates":[197717.5756000001,1883878.6250999998]},"properties":{"OBJECTID":1,"Asset_ID":"RO1","Name":"Sanad Service Center","District_ID":"Dahariz al Janubiyya","Gov_ID":"2","Wlyt_ID":"Salalah","Road_ID":"100002","Latitude":17.019255900000001,"Longitude":54.160833359999998,"GlobalID":"{A7C7A8BD-3096-42AA-870F-43D50A8773F2}"}},{"type":"Feature","id":2,"geometry":{"type":"Point","coordinates":[190303.85890000034,1883481.6373999994]},"properties":{"OBJECTID":2,"Asset_ID":"RO2","Name":"Sanad Service Center","District_ID":"Salalah al Wousta","Gov_ID":"2","Wlyt_ID":"Salalah","Road_ID":"104523","Latitude":17.014688499999998,"Longitude":54.091320430000003,"GlobalID":"{3E073AFF-BE5B-423D-B49A-330AC296ADBE}"}},{"type":"Feature","id":3,"geometry":{"type":"Point","coordinates":[190152.46270000003,1883772.2971999999]},"properties":{"OBJECTID":3,"Asset_ID":"RO3","Name":"Sanad Service Center","District_ID":"Salalah al Jadida","Gov_ID":"2","Wlyt_ID":"Salalah","Road_ID":"104187","Latitude":17.017292189999999,"Longitude":54.089859269999998,"GlobalID":"{7D403729-6B4A-4E53-BF17-F88AD82AE321}"}},{"type":"Feature","id":4,"geometry":{"type":"Point","coordinates":[190120.3909,1883783.7073999997]},"properties":{"OBJECTID":4,"Asset_ID":"RO4","Name":"Sanad Service Center","District_ID":"Salalah al Jadida","Gov_ID":"2","Wlyt_ID":"Salalah","Road_ID":"104187","Latitude":17.017390890000001,"Longitude":54.089556739999999,"GlobalID":"{ABA5C18E-286A-4597-825C-CBA2F0ECE3B0}"}},{"type":"Feature","id":5,"geometry":{"type":"Point","coordinates":[190120.49370000046,1883777.4368999992]},"properties":{"OBJECTID":5,"Asset_ID":"RO5","Name":"Sanad Service Center","District_ID":"Salalah al Jadida","Gov_ID":"2","Wlyt_ID":"Salalah","Road_ID":"104187","Latitude":17.017334300000002,"Longitude":54.089558580000002,"GlobalID":"{82DDDA2B-C15C-4A86-BD29-57473DF14374}"}},{"type":"Feature","id":6,"geometry":{"type":"Point","coordinates":[197270.09690000024,1884052.6597000007]},"properties":{"OBJECTID":6,"Asset_ID":"RO6","Name":"مكتب تعقيب معاملات","District_ID":"Dahariz al Shamaliyya","Gov_ID":"2","Wlyt_ID":"Salalah","Road_ID":"100171","Latitude":17.020768449999998,"Longitude":54.156610460000003,"GlobalID":"{AF0D59E7-48C4-493C-BF1A-4D0133D9E119}"}},{"type":"Feature","id":7,"geometry":{"type":"Point","coordinates":[189292.22800000012,1883050.2398000006]},"properties":{"OBJECTID":7,"Asset_ID":"RO7","Name":"Sanad Service Center","District_ID":"Salalah al Gharbiyya","Gov_ID":"2","Wlyt_ID":"Salalah","Road_ID":"104470","Latitude":17.010657940000002,"Longitude":54.081888470000003,"GlobalID":"{1B3DC8F6-0CA6-4156-8BCF-A07C4B5DBA97}"}},{"type":"Feature","id":8,"geometry":{"type":"Point","coordinates":[189633.85149999987,1883048.6146000009]},"properties":{"OBJECTID":8,"Asset_ID":"RO8","Name":"Sanad Service Center","District_ID":"Salalah al Gharbiyya","Gov_ID":"2","Wlyt_ID":"Salalah","Road_ID":"103824","Latitude":17.010689230000001,"Longitude":54.085094150000003,"GlobalID":"{928BD382-C26F-4933-BC29-763590966DC4}"}},{"type":"Feature","id":9,"geometry":{"type":"Point","coordinates":[190237.78409999982,1883226.6297999993]},"properties":{"OBJECTID":9,"Asset_ID":"RO9","Name":"Sanad Service Center","District_ID":"Salalah al Wousta","Gov_ID":"2","Wlyt_ID":"Salalah","Road_ID":"103824","Latitude":17.01237746,"Longitude":54.090736020000001,"GlobalID":"{569F2B28-915C-4B6E-9DCD-601C49D3B625}"}},{"type":"Feature","id":10,"geometry":{"type":"Point","coordinates":[188490.1771999998,1882754.1973000001]},"properties":{"OBJECTID":10,"Asset_ID":"RO10","Name":"Sanad Service Center","District_ID":"Salalah al Gharbiyya","Gov_ID":"2","Wlyt_ID":"Salalah","Road_ID":"104481","Latitude":17.007877239999999,"Longitude":54.07440442,"GlobalID":"{A7E9D8B4-45BB-4C55-AA35-9F3CF03A6DD0}"}},{"type":"Feature","id":11,"geometry":{"type":"Point","coordinates":[189546.61820000038,1882879.4627]},"properties":{"OBJECTID":11,"Asset_ID":"RO11","Name":"Sanad Service Center","District_ID":"Salalah al Gharbiyya","Gov_ID":"2","Wlyt_ID":"Salalah","Road_ID":"104480","Latitude":17.009150439999999,"Longitude":54.084299280000003,"GlobalID":"{B493490C-439A-4F7A-BF28-A4280AA093D9}"}},{"type":"Feature","id":12,"geometry":{"type":"Point","coordinates":[189773.70799999963,1883003.7876999993]},"properties":{"OBJECTID":12,"Asset_ID":"RO12","Name":"Sanad Service Center","District_ID":"Salalah al Gharbiyya","Gov_ID":"2","Wlyt_ID":"Salalah","Road_ID":"104496","Latitude":17.010303350000001,"Longitude":54.086412680000002,"GlobalID":"{F8CAFA29-9D0E-4359-8312-BF6FED2554F3}"}},{"type":"Feature","id":13,"geometry":{"type":"Point","coordinates":[193214.77029999997,1884287.6544000003]},"properties":{"OBJECTID":13,"Asset_ID":"RO13","Name":"Sanad Service Center","District_ID":"al Huseela","Gov_ID":"2","Wlyt_ID":"Salalah","Road_ID":"103815","Latitude":17.022354140000001,"Longitude":54.118523140000001,"GlobalID":"{8CB8CC37-6FD3-4DF5-AFB2-949993A21C75}"}},{"type":"Feature","id":14,"geometry":{"type":"Point","coordinates":[197035.44919999968,1890851.1703999992]},"properties":{"OBJECTID":14,"Asset_ID":"RO14","Name":"Sanad Service Center","District_ID":"al Sada al Shamaliyya","Gov_ID":"2","Wlyt_ID":"Salalah","Road_ID":"102616","Latitude":17.08211657,"Longitude":54.153478329999999,"GlobalID":"{8088FC4E-2F3C-457E-82A8-340DB5A2D179}"}},{"type":"Feature","id":15,"geometry":{"type":"Point","coordinates":[182832.00370000023,1882953.7740000002]},"properties":{"OBJECTID":15,"Asset_ID":"RO15","Name":"ONEIC","District_ID":"Auqad al Shamaliyya","Gov_ID":"2","Wlyt_ID":"Salalah","Road_ID":"105800","Latitude":17.008908380000001,"Longitude":54.021288030000001,"GlobalID":"{4D054FF4-031E-4CCD-B516-1B2160E8B945}"}}]
}