{"type":"FeatureCollection","features":[{"type":"Feature","id":1,"geometry":{"type":"Polygon","coordinates":[[[54.090518641000074,17.024778961000038],[54.096473605000028,16.997817865000059],[54.122753948000081,17.001961261000076],[54.115793865000057,17.026130235000039],[54.103104598000073,17.025294286000076],[54.090518641000074,17.024778961000038]]]},"properties":{"OBJECTID":1,"Shape_Length":0.10468033306902338,"Shape_Area":0.00067475985689930914}},{"type":"Feature","id":2,"geometry":{"type":"Polygon","coordinates":[[[54.202419460000044,17.035272576000068],[54.246565944000054,17.048323348000054],[54.242310875000044,17.05475625400004],[54.231059390000041,17.050580041000046],[54.222471253000037,17.051503948000061],[54.216740337000033,17.060270892000062],[54.196471728000063,17.055670434000035],[54.196857181000041,17.054490982000061],[54.202419460000044,17.035272576000068]]]},"properties":{"OBJECTID":2,"Shape_Length":0.12689324570845661,"Shape_Area":0.0006294176722678042}},{"type":"Feature","id":3,"geometry":{"type":"Polygon","coordinates":[[[54.231379153000034,17.080004452000026],[54.218506476000073,17.103831949000039],[54.195622729000036,17.092969233000076],[54.205842438000047,17.065757353000038],[54.209177995000061,17.057842425000047],[54.217332275000047,17.059452118000024],[54.217978193000079,17.067292172000066],[54.222500965000052,17.071599626000022],[54.226811456000064,17.075603203000071],[54.231379153000034,17.080004452000026]]]},"properties":{"OBJECTID":3,"Shape_Length":0.12472026375095391,"Shape_Area":0.00091191072849486495}},{"type":"Feature","id":4,"geometry":{"type":"Polygon","coordinates":[[[54.170558981000056,17.080580302000044],[54.176679942000078,17.052645115000075],[54.197155595000027,17.055474910000044],[54.209464995000076,17.057894776000069],[54.196052853000026,17.093176452000023],[54.170558981000056,17.080580302000044]]]},"properties":{"OBJECTID":4,"Shape_Length":0.12799405433184738,"Shape_Area":0.0010155563494470732}},{"type":"Feature","id":5,"geometry":{"type":"Polygon","coordinates":[[[54.037908746000028,17.004587952000065],[54.045170738000081,17.009398391000047],[54.064312229000052,17.020027305000042],[54.055959139000038,17.033404782000048],[54.053524657000082,17.032427939000058],[54.024126949000049,17.026836632000027],[54.037908746000028,17.004587952000065]]]},"properties":{"OBJECTID":5,"Shape_Length":0.10509571812739384,"Shape_Area":0.00062546325763123529}}]}