{
  "type" : "FeatureCollection",
  "crs" : {
    "type" : "name",
    "properties" : {
      "name" : "EPSG:32640"
    }
  },
  "features" : [{"type":"Feature","id":1,"geometry":{"type":"Point","coordinates":[203796.57689999975,1893135.2478]},"properties":{"OBJECTID":1,"Asset_ID":"RA1","Name":"دوار رزات","District_ID":null,"Gov_ID":"Dhofar Governorate","Wlyt_ID":"Salalah ","Road_ID":"103672","Latitude":17.10362056,"Longitude":54.216641330000002,"GlobalID":"{821CCC70-F4A7-4A9C-8051-1DF5B8D7E5A6}"}},{"type":"Feature","id":2,"geometry":{"type":"Point","coordinates":[201199.73390000034,1893135.5424000006]},"properties":{"OBJECTID":2,"Asset_ID":"RA2","Name":"دوار صحلنوت","District_ID":null,"Gov_ID":"Dhofar Governorate","Wlyt_ID":"Salalah ","Road_ID":"102598","Latitude":17.10328651,"Longitude":54.192260560000001,"GlobalID":"{71323EB0-C271-45BF-8024-AB79A1039488}"}},{"type":"Feature","id":3,"geometry":{"type":"Point","coordinates":[189400.89169999957,1888942.9990999997]},"properties":{"OBJECTID":3,"Asset_ID":"RA3","Name":null,"District_ID":null,"Gov_ID":"Dhofar Governorate","Wlyt_ID":"Salalah ","Road_ID":"102303","Latitude":17.063870820000002,"Longitude":54.082082309999997,"GlobalID":"{544C7C09-30C8-4161-8622-39F8D334FB82}"}},{"type":"Feature","id":4,"geometry":{"type":"Point","coordinates":[183730.86089999974,1885421.8840999994]},"properties":{"OBJECTID":4,"Asset_ID":"RA4","Name":"AlMuroj Roundabout","District_ID":"Auqad al Shamaliyya Extension","Gov_ID":"Dhofar Governorate","Wlyt_ID":"Salalah ","Road_ID":"100520","Latitude":17.03131213,"Longitude":54.029369709999997,"GlobalID":"{6DDEC0F0-51CD-44EC-A1EF-3CD304C18768}"}},{"type":"Feature","id":5,"geometry":{"type":"Point","coordinates":[180848.37949999981,1883367.9002999999]},"properties":{"OBJECTID":5,"Asset_ID":"RA5","Name":"دوار طوق","District_ID":"Auqad al Shamaliyya","Gov_ID":"Dhofar Governorate","Wlyt_ID":"Salalah ","Road_ID":"100520","Latitude":17.012373319999998,"Longitude":54.002617610000001,"GlobalID":"{F38BF5BA-ACE2-43F6-8BFD-29F624778354}"}},{"type":"Feature","id":6,"geometry":{"type":"Point","coordinates":[188045.03230000008,1891180.2879000008]},"properties":{"OBJECTID":6,"Asset_ID":"RA6","Name":"دوار جرزيز - جبل إتين","District_ID":null,"Gov_ID":"Dhofar Governorate","Wlyt_ID":"Salalah ","Road_ID":"101261","Latitude":17.083884680000001,"Longitude":54.069041159999998,"GlobalID":"{F2074F88-14C7-4D16-8B23-974A8BC5608B}"}},{"type":"Feature","id":8,"geometry":{"type":"Point","coordinates":[203939.90940000024,1887386.3406000007]},"properties":{"OBJECTID":8,"Asset_ID":"RA8","Name":"دوار المعمورة","District_ID":"Sahalnout al Janubiyya","Gov_ID":"Dhofar Governorate","Wlyt_ID":"Salalah ","Road_ID":"480001","Latitude":17.051733500000001,"Longitude":54.218757070000002,"GlobalID":"{03221589-6862-499C-A509-EFE7AF12D146}"}},{"type":"Feature","id":9,"geometry":{"type":"Point","coordinates":[197721.94739999995,1889208.3421]},"properties":{"OBJECTID":9,"Asset_ID":"RA9","Name":"Najur Roundabout","District_ID":"al Sada al Janubiyya","Gov_ID":"Dhofar Governorate","Wlyt_ID":"Salalah ","Road_ID":"100003","Latitude":17.06737502,"Longitude":54.160147209999998,"GlobalID":"{453101E7-C951-44BB-9706-F36F1F9B6239}"}},{"type":"Feature","id":10,"geometry":{"type":"Point","coordinates":[196261.62170000002,1889382.5863000005]},"properties":{"OBJECTID":10,"Asset_ID":"RA10","Name":"As Saadah Roundabout","District_ID":"al Sada al Janubiyya","Gov_ID":"Dhofar Governorate","Wlyt_ID":"Salalah ","Road_ID":"102645","Latitude":17.068755719999999,"Longitude":54.146416119999998,"GlobalID":"{37CA727D-48B0-43AB-BE5D-73ADF4BD1848}"}},{"type":"Feature","id":11,"geometry":{"type":"Point","coordinates":[196775.32400000002,1889280.943]},"properties":{"OBJECTID":11,"Asset_ID":"RA11","Name":"دوار السعادة الشمالية","District_ID":"al Sada al Janubiyya","Gov_ID":"Dhofar Governorate","Wlyt_ID":"Salalah ","Road_ID":"107124","Latitude":17.067905849999999,"Longitude":54.151251870000003,"GlobalID":"{512BC67F-B7A9-4DB5-A41A-8A447307BF2D}"}},{"type":"Feature","id":13,"geometry":{"type":"Point","coordinates":[194756.35429999977,1891396.1273999996]},"properties":{"OBJECTID":13,"Asset_ID":"RA13","Name":"دوار اسير","District_ID":"Salalah Wellfield","Gov_ID":"Dhofar Governorate","Wlyt_ID":"Salalah ","Road_ID":"100520","Latitude":17.086734839999998,"Longitude":54.132009119999999,"GlobalID":"{B32533D5-E401-4BE7-A331-177F187BCCEF}"}},{"type":"Feature","id":14,"geometry":{"type":"Point","coordinates":[196498.36699999962,1892509.0431999993]},"properties":{"OBJECTID":14,"Asset_ID":"RA14","Name":"دوار حمير","District_ID":null,"Gov_ID":"Dhofar Governorate","Wlyt_ID":"Salalah ","Road_ID":"63476","Latitude":17.097013319999999,"Longitude":54.148208869999998,"GlobalID":"{93C27B0D-C33C-4FEC-B183-3E436C807798}"}},{"type":"Feature","id":16,"geometry":{"type":"Point","coordinates":[182374.93780000042,1880283.5885000005]},"properties":{"OBJECTID":16,"Asset_ID":"RA16","Name":"دوار القرم","District_ID":"Wadi Adhan","Gov_ID":"Dhofar Governorate","Wlyt_ID":"Salalah ","Road_ID":"102645","Latitude":16.98474113,"Longitude":54.017381260000001,"GlobalID":"{E220B414-198E-4312-BDCA-66A5F7FAC7B0}"}},{"type":"Feature","id":17,"geometry":{"type":"Point","coordinates":[191120.20909999963,1882060.2345000003]},"properties":{"OBJECTID":17,"Asset_ID":"RA17","Name":"دوار قصر الحصن بمنطقة الحافة","District_ID":"al Husn","Gov_ID":"Dhofar Governorate","Wlyt_ID":"Salalah ","Road_ID":"100002","Latitude":17.001965649999999,"Longitude":54.099178160000001,"GlobalID":"{2F42718B-A47A-4341-9B48-ECA12AC99EE5}"}},{"type":"Feature","id":18,"geometry":{"type":"Point","coordinates":[188601.9523,1881740.5809000004]},"properties":{"OBJECTID":18,"Asset_ID":"RA18","Name":null,"District_ID":"Salalah al Gharbiyya","Gov_ID":"Dhofar Governorate","Wlyt_ID":"Salalah ","Road_ID":"100002","Latitude":16.998741689999999,"Longitude":54.075595249999999,"GlobalID":"{FF0A9766-C110-45A1-B5A2-C14F3A40D4E6}"}},{"type":"Feature","id":19,"geometry":{"type":"Point","coordinates":[192496.04279999994,1884592.5081999991]},"properties":{"OBJECTID":19,"Asset_ID":"RA19","Name":"برج النهضة","District_ID":"al Huseela","Gov_ID":"Dhofar Governorate","Wlyt_ID":"Salalah ","Road_ID":"102645","Latitude":17.025010630000001,"Longitude":54.111736479999998,"GlobalID":"{D0E0DB04-78E2-483D-950B-79FB19AB9582}"}},{"type":"Feature","id":20,"geometry":{"type":"Point","coordinates":[186803.76219999976,1882378.4438000005]},"properties":{"OBJECTID":20,"Asset_ID":"RA20","Name":"Al Mustashfa Roundabout","District_ID":"Auqad al Janubiyya","Gov_ID":"Dhofar Governorate","Wlyt_ID":"Salalah ","Road_ID":"100002","Latitude":17.004256900000001,"Longitude":54.058634300000001,"GlobalID":"{6EFE339B-3055-4F3A-9252-0FB6BD682D6C}"}},{"type":"Feature","id":21,"geometry":{"type":"Point","coordinates":[193370.83320000023,1884181.6127000004]},"properties":{"OBJECTID":21,"Asset_ID":"RA21","Name":"دوار الحصيلة","District_ID":"al Huseela","Gov_ID":"Dhofar Governorate","Wlyt_ID":"Salalah ","Road_ID":"103812","Latitude":17.021417549999999,"Longitude":54.120002270000001,"GlobalID":"{08E054D7-5E10-4CE4-9F93-66B2335E440B}"}},{"type":"Feature","id":22,"geometry":{"type":"Point","coordinates":[195086.00700000022,1885219.3465999998]},"properties":{"OBJECTID":22,"Asset_ID":"RA22","Name":null,"District_ID":"Jerziz Farm","Gov_ID":"2","Wlyt_ID":"Salalah ","Road_ID":"100537","Latitude":17.031013789999999,"Longitude":54.135954609999999,"GlobalID":"{43264E80-5198-44F7-A3B4-B67B23DD16C7}"}},{"type":"Feature","id":23,"geometry":{"type":"Point","coordinates":[194880.56369999982,1885581.0139000006]},"properties":{"OBJECTID":23,"Asset_ID":"RA23","Name":null,"District_ID":"Jerziz Farm","Gov_ID":"2","Wlyt_ID":"Salalah ","Road_ID":"100537","Latitude":17.034251789999999,"Longitude":54.133976869999998,"GlobalID":"{14AEAA71-4A37-4FF1-94CF-B3142AC8D746}"}},{"type":"Feature","id":24,"geometry":{"type":"Point","coordinates":[194431.58150000032,1886076.3317000009]},"properties":{"OBJECTID":24,"Asset_ID":"RA24","Name":null,"District_ID":"Jerziz Farm","Gov_ID":"2","Wlyt_ID":"Salalah ","Road_ID":"100538","Latitude":17.03866408,"Longitude":54.129695099999999,"GlobalID":"{67296E7B-0865-4979-9442-10D8C415E109}"}},{"type":"Feature","id":25,"geometry":{"type":"Point","coordinates":[187883.70849999972,1882724.7412]},"properties":{"OBJECTID":25,"Asset_ID":"RA25","Name":"دوار صلالة الغربية","District_ID":"Salalah al Gharbiyya","Gov_ID":"2","Wlyt_ID":"Salalah ","Road_ID":"103812","Latitude":17.007529399999999,"Longitude":54.068718230000002,"GlobalID":"{520A49B6-1A50-4B2F-BEEA-3FDEB2517B3C}"}},{"type":"Feature","id":26,"geometry":{"type":"Point","coordinates":[199000.38260000013,1884590.0883000009]},"properties":{"OBJECTID":26,"Asset_ID":"RA26","Name":"دوار الدهاريز","District_ID":"Dahariz al Shamaliyya","Gov_ID":"2","Wlyt_ID":"Salalah ","Road_ID":"480001","Latitude":17.025847079999998,"Longitude":54.17277481,"GlobalID":"{DFD9AF77-C98C-4F1B-A145-3FDA4838ABD3}"}},{"type":"Feature","id":27,"geometry":{"type":"Point","coordinates":[195438.12430000026,1885405.4088000003]},"properties":{"OBJECTID":27,"Asset_ID":"RA27","Name":null,"District_ID":"Jerziz Farm","Gov_ID":"2","Wlyt_ID":"Salalah ","Road_ID":"100556","Latitude":17.032740149999999,"Longitude":54.139233470000001,"GlobalID":"{8FA4DE51-818B-4091-8E57-2AA70B6E0B9C}"}},{"type":"Feature","id":28,"geometry":{"type":"Point","coordinates":[195878.95689999964,1884677.5404000003]},"properties":{"OBJECTID":28,"Asset_ID":"RA28","Name":"Ar Rubat Roundabout","District_ID":"al Robat","Gov_ID":"2","Wlyt_ID":"Salalah ","Road_ID":"100001","Latitude":17.026226999999999,"Longitude":54.143470309999998,"GlobalID":"{F01FFA10-55FB-4AF6-A860-B60B93E96C0F}"}}]
}