{
  "type" : "FeatureCollection",
  "crs" : {
    "type" : "name",
    "properties" : {
      "name" : "EPSG:32640"
    }
  },
  "features" : [{"type":"Feature","id":1,"geometry":{"type":"Point","coordinates":[190113.12920000032,1883889.7934000008]},"properties":{"OBJECTID":1,"Asset_ID":"S1","Name":"مدرسة النور للتعليم الاساسي بنات","District_ID":"Salalah al Jadida","Gov_ID":"2","Wlyt_ID":"Salalah","Road_ID":"104181","Latitude":17.018361200000001,"Longitude":54.089528889999997,"GlobalID":"{2B201F20-0025-4738-870C-B132648F3AA8}","School_Type":1}},{"type":"Feature","id":2,"geometry":{"type":"Point","coordinates":[190241.12229999993,1883718.398]},"properties":{"OBJECTID":2,"Asset_ID":"S2","Name":"Al Dhiya Private School","District_ID":"Salalah al Jadida","Gov_ID":"2","Wlyt_ID":"Salalah","Road_ID":"107135","Latitude":17.016836820000002,"Longitude":54.090620540000003,"GlobalID":"{354B2BC1-5A4C-4266-8671-FB0B0FF3F7C7}","School_Type":2}},{"type":"Feature","id":3,"geometry":{"type":"Point","coordinates":[189999.4768000003,1883964.8535999991]},"properties":{"OBJECTID":3,"Asset_ID":"S3","Name":"مدرسة النهضة للتعليم الاساسي بنات\r\n","District_ID":"Salalah al Jadida","Gov_ID":"2","Wlyt_ID":"Salalah","Road_ID":"104249","Latitude":17.018671999999999,"Longitude":54.088672539999997,"GlobalID":"{6DE418C1-A52A-4744-B9FF-CA8622E4A6B9}","School_Type":1}},{"type":"Feature","id":4,"geometry":{"type":"Point","coordinates":[189910.60950000025,1883589.5669999998]},"properties":{"OBJECTID":4,"Asset_ID":"S4","Name":"مدرسة صلالة الجديدة للتعليم الاساسي","District_ID":"Salalah al Jadida","Gov_ID":"2","Wlyt_ID":"Salalah","Road_ID":"104205","Latitude":17.015635270000001,"Longitude":54.08751685,"GlobalID":"{B86DC78F-5DF8-4431-B7C2-F30CCA399ADA}","School_Type":1}},{"type":"Feature","id":5,"geometry":{"type":"Point","coordinates":[189325.11139999982,1883280.0697000008]},"properties":{"OBJECTID":5,"Asset_ID":"S5","Name":"مدرسة خالد بن الوليد للتعليم الاساسي  للبنين","District_ID":"Salalah al Jadida","Gov_ID":"2","Wlyt_ID":"Salalah","Road_ID":"104213","Latitude":17.01293969,"Longitude":54.082124669999999,"GlobalID":"{C5F65E2B-2AD0-4840-AF60-2804181672F7}","School_Type":1}},{"type":"Feature","id":6,"geometry":{"type":"Point","coordinates":[189192.95990000013,1883983.3186000008]},"properties":{"OBJECTID":6,"Asset_ID":"S6","Name":"Western Salalah School for Basic Education","District_ID":"Salalah al Jadida","Gov_ID":"2","Wlyt_ID":"Salalah","Road_ID":"104265","Latitude":17.019262019999999,"Longitude":54.080833470000002,"GlobalID":"{BD737605-56D1-4C9D-BADD-35FE754BAFB6}","School_Type":1}},{"type":"Feature","id":8,"geometry":{"type":"Point","coordinates":[188718.52080000006,1883516.9091999996]},"properties":{"OBJECTID":8,"Asset_ID":"S8","Name":"Planetary School for Basic Education","District_ID":"Salalah al Jadida","Gov_ID":"2","Wlyt_ID":"Salalah","Road_ID":"104305","Latitude":17.014793579999999,"Longitude":54.076439989999997,"GlobalID":"{7455F716-0673-4DCE-A859-5F4E13709730}","School_Type":1}},{"type":"Feature","id":9,"geometry":{"type":"Point","coordinates":[187163.99469999969,1882592.7524999995]},"properties":{"OBJECTID":9,"Asset_ID":"S9","Name":"Al Qantrah Preparatory School of Boys","District_ID":"al Wadi","Gov_ID":"2","Wlyt_ID":"Salalah","Road_ID":"105470","Latitude":17.00641263,"Longitude":54.062001440000003,"GlobalID":"{07A9B6E6-D7D4-4351-A7B8-88AEF3DCF320}","School_Type":1}},{"type":"Feature","id":10,"geometry":{"type":"Point","coordinates":[187286.15160000045,1882705.7456999999]},"properties":{"OBJECTID":10,"Asset_ID":"S10","Name":"BRIGHT STAR INTERNATIONAL SCHOOL SALALAH","District_ID":"al Wadi","Gov_ID":"2","Wlyt_ID":"Salalah","Road_ID":"105354","Latitude":17.00728681,"Longitude":54.06317284,"GlobalID":"{44CEE7BC-B19C-449F-985C-C92F48E7CADD}","School_Type":2}},{"type":"Feature","id":11,"geometry":{"type":"Point","coordinates":[187631.12959999964,1883448.7840999998]},"properties":{"OBJECTID":11,"Asset_ID":"S11","Name":"Planetary School for Basic Education","District_ID":"al Wadi","Gov_ID":"2","Wlyt_ID":"Salalah","Road_ID":"104335","Latitude":17.014031620000001,"Longitude":54.066246499999998,"GlobalID":"{333A5465-3FDC-464A-8907-76B683B0ED64}","School_Type":1}},{"type":"Feature","id":12,"geometry":{"type":"Point","coordinates":[188500.3331000004,1884232.6878999993]},"properties":{"OBJECTID":12,"Asset_ID":"S12","Name":"مدرسة التقوى الخاصة","District_ID":"al Wadi","Gov_ID":"2","Wlyt_ID":"Salalah","Road_ID":"104339","Latitude":17.021208000000001,"Longitude":54.074216229999998,"GlobalID":"{A75203AE-0B5A-4ADF-A873-05CA0AB85E69}","School_Type":2}},{"type":"Feature","id":13,"geometry":{"type":"Point","coordinates":[189406.31979999971,1884377.0477000009]},"properties":{"OBJECTID":13,"Asset_ID":"S13","Name":"مدرسة","District_ID":"Salalah al Jadida","Gov_ID":"2","Wlyt_ID":"Salalah","Road_ID":"104298","Latitude":17.02265139,"Longitude":54.082773330000002,"GlobalID":"{5FABD7DC-AC11-4078-AAC1-60ECE7F7606C}","School_Type":2}},{"type":"Feature","id":14,"geometry":{"type":"Point","coordinates":[187398.90490000043,1883983.8388999999]},"properties":{"OBJECTID":14,"Asset_ID":"S14","Name":"مدرسة الوادي للتعليم الاساسي","District_ID":"al Wadi","Gov_ID":"2","Wlyt_ID":"Salalah","Road_ID":"104342","Latitude":17.018830430000001,"Longitude":54.06399219,"GlobalID":"{2973855E-ED19-40EC-8644-72075EF51AEA}","School_Type":1}},{"type":"Feature","id":15,"geometry":{"type":"Point","coordinates":[197479.01530000009,1885296.5583999995]},"properties":{"OBJECTID":15,"Asset_ID":"S15","Name":"British School Salalah المدرسة البريطانية صلالة\r\n","District_ID":"Dahariz al Shamaliyya","Gov_ID":"2","Wlyt_ID":"Salalah","Road_ID":"100006","Latitude":17.032026219999999,"Longitude":54.158401320000003,"GlobalID":"{3FA40024-7EE4-4FC7-B879-B51A9994FB9E}","School_Type":2}},{"type":"Feature","id":16,"geometry":{"type":"Point","coordinates":[197562.88779999968,1885289.9849999994]},"properties":{"OBJECTID":16,"Asset_ID":"S16","Name":"Pakistan School Salalah","District_ID":"Dahariz al Shamaliyya","Gov_ID":"2","Wlyt_ID":"Salalah","Road_ID":"100143","Latitude":17.031977879999999,"Longitude":54.159189329999997,"GlobalID":"{CED52A76-38CC-4A3D-9768-31896BB7F07A}","School_Type":1}},{"type":"Feature","id":17,"geometry":{"type":"Point","coordinates":[197686.36679999996,1886073.6897]},"properties":{"OBJECTID":17,"Asset_ID":"S17","Name":"Bahjat Al'afkar school","District_ID":"al Sada al Janubiyya","Gov_ID":"2","Wlyt_ID":"Salalah","Road_ID":"100251","Latitude":17.039069640000001,"Longitude":54.160241249999999,"GlobalID":"{924A5338-0855-45B8-A984-A7F7FBBE1482}","School_Type":2}},{"type":"Feature","id":18,"geometry":{"type":"Point","coordinates":[198432.72530000005,1883968.1905000005]},"properties":{"OBJECTID":18,"Asset_ID":"S18","Name":"Al-Sultan Timor bin faisal school","District_ID":"Dahariz al Shamaliyya","Gov_ID":"2","Wlyt_ID":"Salalah","Road_ID":"100052","Latitude":17.02015815,"Longitude":54.167532199999997,"GlobalID":"{7031F794-5D96-416A-AA12-BB4F5CAAE611}","School_Type":1}},{"type":"Feature","id":19,"geometry":{"type":"Point","coordinates":[198400.38289999962,1884106.5668000001]},"properties":{"OBJECTID":19,"Asset_ID":"S19","Name":"مدرسة ٢٣ يوليو للتعليم الأساسي","District_ID":"Dahariz al Shamaliyya","Gov_ID":"2","Wlyt_ID":"Salalah","Road_ID":"100052","Latitude":17.021403240000001,"Longitude":54.167209880000001,"GlobalID":"{38F0D8B8-DA06-49AD-BC32-9A9EF5EF8279}","School_Type":1}},{"type":"Feature","id":20,"geometry":{"type":"Point","coordinates":[198483.49060000014,1883168.8419000003]},"properties":{"OBJECTID":20,"Asset_ID":"S20","Name":"Training Center in Salalah - Ministry of Education","District_ID":"Dahariz al Janubiyya","Gov_ID":"2","Wlyt_ID":"Salalah","Road_ID":"100013","Latitude":17.012947919999998,"Longitude":54.168117180000003,"GlobalID":"{2CA548EC-4C21-4970-B227-68D15A9B4813}","School_Type":1}},{"type":"Feature","id":21,"geometry":{"type":"Point","coordinates":[187931.0811999999,1882859.0811999999]},"properties":{"OBJECTID":21,"Asset_ID":"S21","Name":"مدرسة المعتزة للتعليم الاساسي","District_ID":"al Wadi","Gov_ID":"2","Wlyt_ID":"Salalah","Road_ID":"104322","Latitude":17.008813440000001,"Longitude":54.069107580000001,"GlobalID":"{3F081B54-6A16-48E2-B587-146C4022E817}","School_Type":1}},{"type":"Feature","id":22,"geometry":{"type":"Point","coordinates":[187807.42709999997,1883711.1476000007]},"properties":{"OBJECTID":22,"Asset_ID":"S22","Name":"مدرسة الانوار الحديثة الخاصة","District_ID":"al Wadi","Gov_ID":"2","Wlyt_ID":"Salalah","Road_ID":"104358","Latitude":17.016424000000001,"Longitude":54.067863809999999,"GlobalID":"{7C599FAB-033D-46DE-B5C0-8490AF9ECF10}","School_Type":2}},{"type":"Feature","id":23,"geometry":{"type":"Point","coordinates":[197178.99990000017,1884140.9999000002]},"properties":{"OBJECTID":23,"Asset_ID":"S23","Name":"مدرسة المناهل الخاصة بنات","District_ID":"Dahariz al Shamaliyya","Gov_ID":"2","Wlyt_ID":"Salalah","Road_ID":"100007","Latitude":17.02155406,"Longitude":54.155743549999997,"GlobalID":"{48CC0182-492E-49D1-9858-FF420C791D4B}","School_Type":2}},{"type":"Feature","id":24,"geometry":{"type":"Point","coordinates":[189116.41679999977,1884287.352]},"properties":{"OBJECTID":24,"Asset_ID":"S24","Name":"Kidzee Dream School","District_ID":"Salalah al Jadida","Gov_ID":"2","Wlyt_ID":"Salalah","Road_ID":"104210","Latitude":17.021817129999999,"Longitude":54.080042669999997,"GlobalID":"{D79A776A-647E-4428-B627-5176FEA1C1E1}","School_Type":2}},{"type":"Feature","id":25,"geometry":{"type":"Point","coordinates":[189633.35730000027,1884329.1109999996]},"properties":{"OBJECTID":25,"Asset_ID":"S25","Name":"Rawdt Al Gama'ia","District_ID":"Salalah al Jadida","Gov_ID":"2","Wlyt_ID":"Salalah","Road_ID":"104355","Latitude":17.022119119999999,"Longitude":54.08491892,"GlobalID":"{C6466549-0A14-4310-B042-641006B21EC8}","School_Type":2}},{"type":"Feature","id":26,"geometry":{"type":"Point","coordinates":[187744.13040000014,1883487.8571000006]},"properties":{"OBJECTID":26,"Asset_ID":"S26","Name":"مدرسة الرائد الخاصة","District_ID":"al Wadi","Gov_ID":"2","Wlyt_ID":"Salalah","Road_ID":"104367","Latitude":17.014399650000001,"Longitude":54.067301290000003,"GlobalID":"{492DFFC3-0F1B-4849-810F-91F10C38DF27}","School_Type":2}},{"type":"Feature","id":27,"geometry":{"type":"Point","coordinates":[197460.00719999988,1884435.9607999995]},"properties":{"OBJECTID":27,"Asset_ID":"S27","Name":"مدرسة الدهاريز للتعليم الاساسي","District_ID":"Dahariz al Shamaliyya","Gov_ID":"2","Wlyt_ID":"Salalah","Road_ID":"100092","Latitude":17.024253949999999,"Longitude":54.158340330000001,"GlobalID":"{EED3B93D-C443-467E-AF10-9EE8C3DBF0DD}","School_Type":1}},{"type":"Feature","id":28,"geometry":{"type":"Point","coordinates":[197673.03399999999,1885475.6519000009]},"properties":{"OBJECTID":28,"Asset_ID":"S28","Name":"Indian School Salalah","District_ID":"Dahariz al Shamaliyya","Gov_ID":"2","Wlyt_ID":"Salalah","Road_ID":"100014","Latitude":17.033668599999999,"Longitude":54.160197689999997,"GlobalID":"{A3A97D74-1D16-47AA-B754-71609A0F017A}","School_Type":2}},{"type":"Feature","id":29,"geometry":{"type":"Point","coordinates":[183387.72190000024,1881492.6894000005]},"properties":{"OBJECTID":29,"Asset_ID":"S29","Name":"Redan Private school","District_ID":"Auqad al Shamaliyya","Gov_ID":"2","Wlyt_ID":"Salalah","Road_ID":"105724","Latitude":16.995795009999998,"Longitude":54.026710199999997,"GlobalID":"{494570CA-E807-4C31-927C-AECF2C8773A2}","School_Type":2}},{"type":"Feature","id":30,"geometry":{"type":"Point","coordinates":[184112.22039999999,1881934.8359999992]},"properties":{"OBJECTID":30,"Asset_ID":"S30","Name":"Bright Minds Private school","District_ID":"Auqad al Shamaliyya","Gov_ID":"2","Wlyt_ID":"Salalah","Road_ID":"105585","Latitude":16.99988561,"Longitude":54.033444439999997,"GlobalID":"{DAE67214-F57B-4582-A808-546E96AE876D}","School_Type":2}},{"type":"Feature","id":31,"geometry":{"type":"Point","coordinates":[186643.56060000043,1882809.3256000001]},"properties":{"OBJECTID":31,"Asset_ID":"S31","Name":"مدرسة الكنوز للتعليم الاساسي","District_ID":"Mustashfa al Sultan Qboos","Gov_ID":"2","Wlyt_ID":"Salalah","Road_ID":"105512","Latitude":17.008124970000001,"Longitude":54.057070430000003,"GlobalID":"{5940C96B-1368-46AB-8705-E0F2EDEF4357}","School_Type":1}},{"type":"Feature","id":32,"geometry":{"type":"Point","coordinates":[186726.75239999965,1882769.8093999997]},"properties":{"OBJECTID":32,"Asset_ID":"S32","Name":"مدرسة أم سليم الأنصارية للبنات ","District_ID":"Mustashfa al Sultan Qboos","Gov_ID":"2","Wlyt_ID":"Salalah","Road_ID":"105512","Latitude":17.007779530000001,"Longitude":54.057856559999998,"GlobalID":"{2464B889-1F33-424A-BADF-BFBFE70471B4}","School_Type":1}},{"type":"Feature","id":33,"geometry":{"type":"Point","coordinates":[186725.19259999972,1882945.0322999991]},"properties":{"OBJECTID":33,"Asset_ID":"S33","Name":"مدرسة خولة بنت حكيم للبنات","District_ID":"Mustashfa al Sultan Qboos","Gov_ID":"2","Wlyt_ID":"Salalah","Road_ID":"105356","Latitude":17.00936115,"Longitude":54.057817210000003,"GlobalID":"{FAB89475-033A-4DDB-8836-45D22DBB2AB7}","School_Type":1}},{"type":"Feature","id":34,"geometry":{"type":"Point","coordinates":[185388.22439999972,1882003.1721999999]},"properties":{"OBJECTID":34,"Asset_ID":"S34","Name":"مدرسة عوقد للتعليم الاساسي للبنات ","District_ID":"Auqad al Janubiyya","Gov_ID":"2","Wlyt_ID":"Salalah","Road_ID":"105477","Latitude":17.0006767,"Longitude":54.045406319999998,"GlobalID":"{92B2CC02-82D8-4339-8423-EFB4ABAFDB46}","School_Type":1}},{"type":"Feature","id":35,"geometry":{"type":"Point","coordinates":[184890.60390000045,1882181.4557000007]},"properties":{"OBJECTID":35,"Asset_ID":"S35","Name":"مدرسة فاطمة الزهراء للتعليم الاساسي بنات  ","District_ID":"Auqad al Janubiyya","Gov_ID":"2","Wlyt_ID":"Salalah","Road_ID":"105408","Latitude":17.002218289999998,"Longitude":54.040712300000003,"GlobalID":"{D852494C-FD77-4D1B-A375-C9FC846116FF}","School_Type":1}},{"type":"Feature","id":36,"geometry":{"type":"Point","coordinates":[185734.68939999957,1881368.5463999994]},"properties":{"OBJECTID":36,"Asset_ID":"S36","Name":"مدرسة السلطان قابوس للبنين","District_ID":"Auqad al Janubiyya","Gov_ID":"2","Wlyt_ID":"Salalah","Road_ID":"105454","Latitude":16.99499479,"Longitude":54.048746649999998,"GlobalID":"{09E433EE-E321-40E8-9452-334574658897}","School_Type":1}},{"type":"Feature","id":37,"geometry":{"type":"Point","coordinates":[185521.51020000037,1881325.9104999993]},"properties":{"OBJECTID":37,"Asset_ID":"S37","Name":"مدرسة السلطان قابوس لبنات ","District_ID":"Auqad al Janubiyya","Gov_ID":"2","Wlyt_ID":"Salalah","Road_ID":"105454","Latitude":16.994580880000001,"Longitude":54.046752660000003,"GlobalID":"{E7932853-AE43-402C-A2FA-9CFD53006201}","School_Type":1}},{"type":"Feature","id":38,"geometry":{"type":"Point","coordinates":[193635.53419999965,1884090.0298999995]},"properties":{"OBJECTID":38,"Asset_ID":"S38","Name":"محمد بن القاسم الثقفي للتعليم الاساسي للبنين","District_ID":"al Huseela","Gov_ID":"2","Wlyt_ID":"Salalah","Road_ID":"103867","Latitude":17.02062591,"Longitude":54.122498819999997,"GlobalID":"{6E2C9376-296E-47CD-AFA4-87EFF7C181E5}","School_Type":1}},{"type":"Feature","id":39,"geometry":{"type":"Point","coordinates":[193783.19479999971,1883761.3313999996]},"properties":{"OBJECTID":39,"Asset_ID":"S39","Name":"مدرسة حامل المسك لتدريس القرآن الكريم","District_ID":"al Huseela","Gov_ID":"2","Wlyt_ID":"Salalah","Road_ID":"103920","Latitude":17.017678,"Longitude":54.123929799999999,"GlobalID":"{7E310B6B-BD48-4266-8E54-F1CDED4328F3}","School_Type":2}},{"type":"Feature","id":40,"geometry":{"type":"Point","coordinates":[193949.50430000015,1884196.0577000007]},"properties":{"OBJECTID":40,"Asset_ID":"S40","Name":"مدرسة القرض للتعليم الاساسي للبنات ","District_ID":"al Huseela","Gov_ID":"2","Wlyt_ID":"Salalah","Road_ID":"103867","Latitude":17.02162482,"Longitude":54.125430430000002,"GlobalID":"{A4B4A66E-D7A8-4251-8114-B4C016765000}","School_Type":1}},{"type":"Feature","id":41,"geometry":{"type":"Point","coordinates":[197286.26960000023,1891084.9667000007]},"properties":{"OBJECTID":41,"Asset_ID":"S41","Name":"مدرسة سمهرم الخاصة\r\n","District_ID":"al Sada al Shamaliyya","Gov_ID":"2","Wlyt_ID":"Salalah","Road_ID":"100003","Latitude":17.084260409999999,"Longitude":54.15580078,"GlobalID":"{FCD325B7-6D7D-4247-89FD-DC3D0D9D875C}","School_Type":2}},{"type":"Feature","id":42,"geometry":{"type":"Point","coordinates":[197280.56259999983,1890219.7860000003]},"properties":{"OBJECTID":42,"Asset_ID":"S42","Name":"مدرسة السعادة للتعليم الاساسي بنات\r\n","District_ID":"al Sada al Shamaliyya","Gov_ID":"2","Wlyt_ID":"Salalah","Road_ID":"102607","Latitude":17.07644857,"Longitude":54.155865720000001,"GlobalID":"{74165620-E095-4012-8D13-1529FC563978}","School_Type":1}},{"type":"Feature","id":43,"geometry":{"type":"Point","coordinates":[197216.32670000009,1890005.4427000005]},"properties":{"OBJECTID":43,"Asset_ID":"S43","Name":"مدرسة البدائع والأجيال للتعليم الأساسي\r\n","District_ID":"al Sada al Shamaliyya","Gov_ID":"2","Wlyt_ID":"Salalah","Road_ID":"102602","Latitude":17.074504950000001,"Longitude":54.155292099999997,"GlobalID":"{F69EE319-C803-48C4-9189-9008D915E8E1}","School_Type":1}},{"type":"Feature","id":44,"geometry":{"type":"Point","coordinates":[196502.20050000027,1889977.0668000001]},"properties":{"OBJECTID":44,"Asset_ID":"S44","Name":"مدرسة سبل السلام الخاصة\r\n","District_ID":"al Sada al Shamaliyya","Gov_ID":"2","Wlyt_ID":"Salalah","Road_ID":"102510","Latitude":17.074154589999999,"Longitude":54.148592690000001,"GlobalID":"{DB5CD605-6D37-4EFA-B9BC-179BDD078D41}","School_Type":2}},{"type":"Feature","id":45,"geometry":{"type":"Point","coordinates":[196586.86330000032,1889751.9597999994]},"properties":{"OBJECTID":45,"Asset_ID":"S45","Name":"مدرسة البليد للبنين\r\n","District_ID":"al Sada al Shamaliyya","Gov_ID":"2","Wlyt_ID":"Salalah","Road_ID":"102500","Latitude":17.072133449999999,"Longitude":54.14941829,"GlobalID":"{48E9EDCB-BC86-4542-A259-A595CC2C9E57}","School_Type":1}},{"type":"Feature","id":46,"geometry":{"type":"Point","coordinates":[183953.60840000026,1882548.4507999998]},"properties":{"OBJECTID":46,"Asset_ID":"S46","Name":"مدرسة ضياء البيان الخاصة\n","District_ID":"Auqad al Shamaliyya","Gov_ID":"2","Wlyt_ID":"Salalah","Road_ID":"105566","Latitude":17.005403229999999,"Longitude":54.031869059999998,"GlobalID":"{EA0CD566-F45A-42F1-A5C7-1777C480AB4B}","School_Type":2}},{"type":"Feature","id":47,"geometry":{"type":"Point","coordinates":[182574.91530000046,1882393.1460999995]},"properties":{"OBJECTID":47,"Asset_ID":"S47","Name":"مدرسة براعم صلالة الخاصة | Baraem Salalah Private School\n","District_ID":"Auqad al Shamaliyya","Gov_ID":"2","Wlyt_ID":"Salalah","Road_ID":"105749","Latitude":17.003812109999998,"Longitude":54.01895605,"GlobalID":"{0647071E-1FEB-456D-B61E-D0B1033E144C}","School_Type":2}},{"type":"Feature","id":48,"geometry":{"type":"Point","coordinates":[182094.88030000031,1882262.9612000007]},"properties":{"OBJECTID":48,"Asset_ID":"S48","Name":"مدرسة تعليم اساسي من الصف ( 5 - 9 )\n","District_ID":"Auqad al Shamaliyya","Gov_ID":"2","Wlyt_ID":"Salalah","Road_ID":"105775","Latitude":17.002570859999999,"Longitude":54.014470959999997,"GlobalID":"{8B0D37B7-E60E-4B32-A46A-FA106CAB184F}","School_Type":1}},{"type":"Feature","id":49,"geometry":{"type":"Point","coordinates":[181800.30480000004,1882319.7255000006]},"properties":{"OBJECTID":49,"Asset_ID":"S49","Name":"مدرسة نور ظفار الخاصة\n","District_ID":"Auqad al Shamaliyya","Gov_ID":"2","Wlyt_ID":"Salalah","Road_ID":"105730","Latitude":17.003042709999999,"Longitude":54.011699139999997,"GlobalID":"{7ABA2FF7-7C28-4F9D-B832-D41EC20A4E42}","School_Type":2}},{"type":"Feature","id":50,"geometry":{"type":"Point","coordinates":[183189.56419999991,1883726.6751000006]},"properties":{"OBJECTID":50,"Asset_ID":"S50","Name":"مدرسة اسامه بن زيد للبنين (5-9)\n","District_ID":"Auqad al Shamaliyya","Gov_ID":"2","Wlyt_ID":"Salalah","Road_ID":"105714","Latitude":17.015934680000001,"Longitude":54.02453251,"GlobalID":"{3431FEB6-BBB4-4866-8646-9AC064A24764}","School_Type":1}},{"type":"Feature","id":51,"geometry":{"type":"Point","coordinates":[182144.5362999998,1883345.4823000003]},"properties":{"OBJECTID":51,"Asset_ID":"S51","Name":"مدرسة درة ظفار للتعليم الأساسي بنات(٥-١٠)\n","District_ID":"Auqad al Shamaliyya","Gov_ID":"2","Wlyt_ID":"Salalah","Road_ID":"105819","Latitude":17.012349839999999,"Longitude":54.014781919999997,"GlobalID":"{3E5F7514-345E-4800-998C-0CDD2A6DCDDC}","School_Type":1}}]
}