{
  "type" : "FeatureCollection",
  "crs" : {
    "type" : "name",
    "properties" : {
      "name" : "EPSG:32640"
    }
  },
  "features" : [{"type":"Feature","id":1,"geometry":{"type":"Point","coordinates":[188452.83440000005,1882997.8172999993]},"properties":{"OBJECTID":1,"Asset_ID":"SS1","Name":"One point car","District_ID":"Salalah al Jadida","Gov_ID":"2","Wlyt_ID":"Salalah","Road_ID":"104319","Latitude":17.010071530000001,"Longitude":54.07401986,"GlobalID":"{5A3CF34B-795F-4450-87FC-4E2C6472DED8}"}},{"type":"Feature","id":2,"geometry":{"type":"Point","coordinates":[185372.43180000037,1883788.2891000006]},"properties":{"OBJECTID":2,"Asset_ID":"SS2","Name":"VIP AUTO","District_ID":"New Industrial Area","Gov_ID":"2","Wlyt_ID":"Salalah","Road_ID":"105164","Latitude":17.01678961,"Longitude":54.045005250000003,"GlobalID":"{BD3D5A94-6476-4885-A600-C759E924D97D}"}},{"type":"Feature","id":3,"geometry":{"type":"Point","coordinates":[192510.62559999991,1884371.4386999998]},"properties":{"OBJECTID":3,"Asset_ID":"SS3","Name":"قطع غيار العربية","District_ID":"al Huseela","Gov_ID":"2","Wlyt_ID":"Salalah","Road_ID":"103814","Latitude":17.023016760000001,"Longitude":54.11190397,"GlobalID":"{0EEF2D74-6E12-4740-A7F4-4849E4C9270C}"}},{"type":"Feature","id":4,"geometry":{"type":"Point","coordinates":[196935.09659999982,1887630.8568999991]},"properties":{"OBJECTID":4,"Asset_ID":"SS4","Name":"دنلوب","District_ID":"al Sada al Janubiyya","Gov_ID":"2","Wlyt_ID":"Salalah","Road_ID":"100333","Latitude":17.05302949,"Longitude":54.152977540000002,"GlobalID":"{D88E47F5-9255-412B-BE31-67800731A96E}"}},{"type":"Feature","id":5,"geometry":{"type":"Point","coordinates":[195789.86199999973,1885716.8886999991]},"properties":{"OBJECTID":5,"Asset_ID":"SS5","Name":"تنظيف السيارات و تبديل الزيت","District_ID":"al Sada al Janubiyya","Gov_ID":"2","Wlyt_ID":"Salalah","Road_ID":"100340","Latitude":17.035598709999999,"Longitude":54.142491630000002,"GlobalID":"{A30966CF-1B42-48E4-B3CA-328802E3C91C}"}},{"type":"Feature","id":6,"geometry":{"type":"Point","coordinates":[191658.53079999983,1883814.6461999994]},"properties":{"OBJECTID":6,"Asset_ID":"SS6","Name":"تاجير السيارات","District_ID":"al Zaweya","Gov_ID":"2","Wlyt_ID":"Salalah","Road_ID":"104140","Latitude":17.017876309999998,"Longitude":54.103985459999997,"GlobalID":"{F8D6C6C0-EA86-4A6C-8B65-C48A176AF547}"}},{"type":"Feature","id":7,"geometry":{"type":"Point","coordinates":[186914.52049999963,1884005.3925000001]},"properties":{"OBJECTID":7,"Asset_ID":"SS7","Name":"Toyota Service Station – Maintenance & Spare Parts","District_ID":"Salalah Airport","Gov_ID":"2","Wlyt_ID":"Salalah","Road_ID":"100521","Latitude":17.01895931,"Longitude":54.059444079999999,"GlobalID":"{532DBECE-BBB4-40B2-BBF8-B78E8264C5EB}"}},{"type":"Feature","id":8,"geometry":{"type":"Point","coordinates":[185394.98680000007,1883750.2854999993]},"properties":{"OBJECTID":8,"Asset_ID":"SS8","Name":"Mazda & Geely – Service, Maintenance & Spare Parts","District_ID":"New Industrial Area","Gov_ID":"2","Wlyt_ID":"Salalah","Road_ID":"105164","Latitude":17.016449609999999,"Longitude":54.045222269999996,"GlobalID":"{C70BDE06-F4EB-4D69-ABC2-A3D5A3AAD1AE}"}},{"type":"Feature","id":9,"geometry":{"type":"Point","coordinates":[185568.41540000029,1883408.1906000003]},"properties":{"OBJECTID":9,"Asset_ID":"SS9","Name":"دنلوب","District_ID":"New Industrial Area","Gov_ID":"2","Wlyt_ID":"Salalah","Road_ID":"105164","Latitude":17.013385,"Longitude":54.046897999999999,"GlobalID":"{CB3DB619-4955-49BB-AAF2-8D8411D51C5E}"}},{"type":"Feature","id":10,"geometry":{"type":"Point","coordinates":[185314.35230000038,1883761.5546000004]},"properties":{"OBJECTID":10,"Asset_ID":"SS10","Name":"Hyundai – Service, Maintenance & Spare Parts","District_ID":"New Industrial Area","Gov_ID":"2","Wlyt_ID":"Salalah","Road_ID":"105174","Latitude":17.016540339999999,"Longitude":54.044464089999998,"GlobalID":"{3D4F2997-6407-4556-ACC5-AF067B0D2823}"}},{"type":"Feature","id":11,"geometry":{"type":"Point","coordinates":[185335.89149999991,1883703.7352000009]},"properties":{"OBJECTID":11,"Asset_ID":"SS11","Name":"HINO SERVICE STATION","District_ID":"New Industrial Area","Gov_ID":"2","Wlyt_ID":"Salalah","Road_ID":"105164","Latitude":17.01602132,"Longitude":54.044674389999997,"GlobalID":"{B6FD9864-2C91-4A7B-A81D-C2065D4FB61F}"}},{"type":"Feature","id":12,"geometry":{"type":"Point","coordinates":[185395.4907999998,1883604.7542000003]},"properties":{"OBJECTID":12,"Asset_ID":"SS12","Name":"Arabian Car Marketing Co. LLC. FORD","District_ID":"New Industrial Area","Gov_ID":"2","Wlyt_ID":"Salalah","Road_ID":"105166","Latitude":17.015135900000001,"Longitude":54.045247629999999,"GlobalID":"{A1679D5C-83BF-4670-9832-D0CBFA91B023}"}},{"type":"Feature","id":13,"geometry":{"type":"Point","coordinates":[185487.38750000019,1883462.3911000006]},"properties":{"OBJECTID":13,"Asset_ID":"SS13","Name":"Mercedes-Benz Service Centre\r\nشركة الزواوي للتجارة وكالة مرسيدس صلالة","District_ID":"New Industrial Area","Gov_ID":"2","Wlyt_ID":"Salalah","Road_ID":"105164","Latitude":17.01386325,"Longitude":54.046130050000002,"GlobalID":"{704681E1-B1A3-46C6-B4E1-369E64D573CC}"}},{"type":"Feature","id":14,"geometry":{"type":"Point","coordinates":[185536.63999999966,1883366.9109000005]},"properties":{"OBJECTID":14,"Asset_ID":"SS14","Name":"Al HASHAR AND CO. LLC","District_ID":"New Industrial Area","Gov_ID":"2","Wlyt_ID":"Salalah","Road_ID":"105167","Latitude":17.013008020000001,"Longitude":54.046605700000001,"GlobalID":"{5A121B69-CF8F-4BED-8FAD-57F73B6F6E19}"}},{"type":"Feature","id":15,"geometry":{"type":"Point","coordinates":[185637.0418999996,1883953.0568000004]},"properties":{"OBJECTID":15,"Asset_ID":"SS15","Name":"زياد الكهربائي","District_ID":"New Industrial Area","Gov_ID":"2","Wlyt_ID":"Salalah","Road_ID":"105174","Latitude":17.018313110000001,"Longitude":54.047464740000002,"GlobalID":"{2AD3432D-2EEF-4AFC-9872-657B41C7FBF6}"}},{"type":"Feature","id":16,"geometry":{"type":"Point","coordinates":[185600.34059999976,1883927.0782999992]},"properties":{"OBJECTID":16,"Asset_ID":"SS16","Name":"GMC Service Station – Maintenance & Spare Parts","District_ID":"New Industrial Area","Gov_ID":"2","Wlyt_ID":"Salalah","Road_ID":"105174","Latitude":17.01807359,"Longitude":54.047124050000001,"GlobalID":"{60916FE4-C68A-4AC2-8669-755AF64858FC}"}},{"type":"Feature","id":17,"geometry":{"type":"Point","coordinates":[185416.05510000046,1883590.3246999998]},"properties":{"OBJECTID":17,"Asset_ID":"SS17","Name":"Faisal Muhaad Bait Saeed Establishment – Service, Maintenance & Spare Parts","District_ID":"New Industrial Area","Gov_ID":"2","Wlyt_ID":"Salalah","Road_ID":"105166","Latitude":17.015008439999999,"Longitude":54.045442629999997,"GlobalID":"{7E3DD4AD-BB45-4380-A5B3-8274E6D0FE8F}"}},{"type":"Feature","id":18,"geometry":{"type":"Point","coordinates":[185441.21050000004,1883658.4645000007]},"properties":{"OBJECTID":18,"Asset_ID":"SS18","Name":"OTE Group - ISUZU Showroom, Salalah","District_ID":"New Industrial Area","Gov_ID":"2","Wlyt_ID":"Salalah","Road_ID":"105164","Latitude":17.015626999999999,"Longitude":54.045668999999997,"GlobalID":"{0A501141-F959-45EF-9C86-C1888BD6A7D4}"}},{"type":"Feature","id":19,"geometry":{"type":"Point","coordinates":[185579.88839999959,1883242.6104000006]},"properties":{"OBJECTID":19,"Asset_ID":"SS19","Name":"MG Showroom – Mohsin Haider Darwish LLC – Service, Maintenance & Spare Parts","District_ID":"New Industrial Area","Gov_ID":"2","Wlyt_ID":"Salalah","Road_ID":"105164","Latitude":17.01189179,"Longitude":54.047029100000003,"GlobalID":"{622356E7-CF51-48C6-8039-D9D8058F9F56}"}},{"type":"Feature","id":20,"geometry":{"type":"Point","coordinates":[185375.18379999977,1883595.0890999995]},"properties":{"OBJECTID":20,"Asset_ID":"SS20","Name":"Reliable Automotive LLC - Kia Motors","District_ID":"New Industrial Area","Gov_ID":"2","Wlyt_ID":"Salalah","Road_ID":"105166","Latitude":17.015045879999999,"Longitude":54.04505846,"GlobalID":"{46AFFDAC-378F-4FB5-8EA9-9C146CDCBDA5}"}},{"type":"Feature","id":21,"geometry":{"type":"Point","coordinates":[186062.48390000034,1883515.6226000004]},"properties":{"OBJECTID":21,"Asset_ID":"SS21","Name":"Saud bahwan toyota Service And workshop","District_ID":"New Industrial Area","Gov_ID":"2","Wlyt_ID":"Salalah","Road_ID":"105170","Latitude":17.014422110000002,"Longitude":54.051518559999998,"GlobalID":"{887ED9E6-BF15-4113-88EB-8981BEC86056}"}},{"type":"Feature","id":22,"geometry":{"type":"Point","coordinates":[185577.62260000035,1883289.9006999992]},"properties":{"OBJECTID":22,"Asset_ID":"SS22","Name":"Sayarti Car Rental Salalah","District_ID":"New Industrial Area","Gov_ID":"2","Wlyt_ID":"Salalah","Road_ID":"105164","Latitude":17.012318400000002,"Longitude":54.047001139999999,"GlobalID":"{4E05018A-93D5-4EBC-B2C6-9D35AE119DB9}"}},{"type":"Feature","id":23,"geometry":{"type":"Point","coordinates":[191539.03920000046,1883783.0035999995]},"properties":{"OBJECTID":23,"Asset_ID":"SS23","Name":"تاجير السيارات","District_ID":"al Zaweya","Gov_ID":"2","Wlyt_ID":"Salalah","Road_ID":"104140","Latitude":17.017574669999998,"Longitude":54.102868610000002,"GlobalID":"{BE52EFD7-8A1E-464B-8CB0-FE7041F0D592}"}},{"type":"Feature","id":24,"geometry":{"type":"Point","coordinates":[192177.22559999954,1883974.3647000007]},"properties":{"OBJECTID":24,"Asset_ID":"SS24","Name":"عوض فهد الشنفري للهكرباء","District_ID":"al Qoaf","Gov_ID":"2","Wlyt_ID":"Salalah","Road_ID":"103812","Latitude":17.019387519999999,"Longitude":54.108830490000003,"GlobalID":"{B65EDF15-CF91-4019-9699-3CA99C94FA24}"}},{"type":"Feature","id":25,"geometry":{"type":"Point","coordinates":[192503.48060000036,1884371.2070000004]},"properties":{"OBJECTID":25,"Asset_ID":"SS25","Name":"W J Towell & Co LLC","District_ID":"al Huseela","Gov_ID":"2","Wlyt_ID":"Salalah","Road_ID":"103814","Latitude":17.023013720000002,"Longitude":54.111836949999997,"GlobalID":"{70E4C7D8-D274-4CA0-91E6-E9EE90E9E690}"}},{"type":"Feature","id":26,"geometry":{"type":"Point","coordinates":[193032.78550000023,1884471.9655000009]},"properties":{"OBJECTID":26,"Asset_ID":"SS26","Name":"Al Robat Car Wash","District_ID":"al Huseela","Gov_ID":"2","Wlyt_ID":"Salalah","Road_ID":"103813","Latitude":17.02399389,"Longitude":54.116789930000003,"GlobalID":"{A9C3237D-15F1-4545-B586-A8B87F9EB1FC}"}},{"type":"Feature","id":27,"geometry":{"type":"Point","coordinates":[186030.48709999956,1884291.5781999994]},"properties":{"OBJECTID":27,"Asset_ID":"SS27","Name":"المدينة لقطع غيار الاصلية","District_ID":"New Industrial Area","Gov_ID":"2","Wlyt_ID":"Salalah","Road_ID":"105163","Latitude":17.021422699999999,"Longitude":54.051108569999997,"GlobalID":"{B9CC353D-08FE-4D94-AB16-4C12F107818F}"}},{"type":"Feature","id":28,"geometry":{"type":"Point","coordinates":[185605.71600000001,1883338.3131000008]},"properties":{"OBJECTID":28,"Asset_ID":"SS28","Name":"Jetour Oman - Salalah Service Center","District_ID":"New Industrial Area","Gov_ID":"2","Wlyt_ID":"Salalah","Road_ID":"105164","Latitude":17.01275927,"Longitude":54.047257879999997,"GlobalID":"{496C5FED-469F-4709-B120-C5ED87D066A2}"}},{"type":"Feature","id":29,"geometry":{"type":"Point","coordinates":[185128.83980000019,1883836.7794000003]},"properties":{"OBJECTID":29,"Asset_ID":"SS29","Name":"العدناني لغسيل السيارات","District_ID":"New Industrial Area","Gov_ID":"2","Wlyt_ID":"Salalah","Road_ID":"105172","Latitude":17.017194119999999,"Longitude":54.042712770000001,"GlobalID":"{E0C589DF-6C18-4641-9AE8-5B6B3EC7122A}"}},{"type":"Feature","id":30,"geometry":{"type":"Point","coordinates":[196791.66720000003,1892736.5925999992]},"properties":{"OBJECTID":30,"Asset_ID":"SS30","Name":"دنلوب","District_ID":null,"Gov_ID":"2","Wlyt_ID":"Salalah","Road_ID":"101857","Latitude":17.09910644,"Longitude":54.150931059999998,"GlobalID":"{5D2964DC-7F46-45BD-AE35-778AA2B00479}"}},{"type":"Feature","id":31,"geometry":{"type":"Point","coordinates":[196870.92650000006,1892853.7366000004]},"properties":{"OBJECTID":31,"Asset_ID":"SS31","Name":"دنلوب","District_ID":null,"Gov_ID":"2","Wlyt_ID":"Salalah","Road_ID":"101992","Latitude":17.100174519999999,"Longitude":54.15165906,"GlobalID":"{60F90C64-4326-4451-880C-CFD05858C38A}"}},{"type":"Feature","id":32,"geometry":{"type":"Point","coordinates":[198616.1632000003,1896448.1830000002]},"properties":{"OBJECTID":32,"Asset_ID":"SS32","Name":"تنظيف و تلميع السيارات","District_ID":null,"Gov_ID":"2","Wlyt_ID":"Salalah","Road_ID":"101870","Latitude":17.132856260000001,"Longitude":54.167552090000001,"GlobalID":"{A62A01AC-49BD-4C41-AF82-CFE3D9A1164E}"}},{"type":"Feature","id":33,"geometry":{"type":"Point","coordinates":[198697.8487999998,1896489.7585000005]},"properties":{"OBJECTID":33,"Asset_ID":"SS33","Name":"تنظيف و تلميع السيارات","District_ID":null,"Gov_ID":"2","Wlyt_ID":"Salalah","Road_ID":"101892","Latitude":17.133242370000001,"Longitude":54.168313410000003,"GlobalID":"{2C7D40A2-CEE3-48DE-8E41-86948B35CB31}"}},{"type":"Feature","id":34,"geometry":{"type":"Point","coordinates":[187476.15780000016,1882616.5705999993]},"properties":{"OBJECTID":34,"Asset_ID":"SS34","Name":"لمسة وكالة","District_ID":"al Wadi","Gov_ID":"2","Wlyt_ID":"Salalah","Road_ID":"103812","Latitude":17.00649773,"Longitude":54.064909530000001,"GlobalID":"{D04D857B-84F1-4ED9-B3A4-10CA6222F176}"}},{"type":"Feature","id":35,"geometry":{"type":"Point","coordinates":[186895.37359999958,1882822.0976999998]},"properties":{"OBJECTID":35,"Asset_ID":"SS35","Name":"Top Plus Oil Change & Car wash","District_ID":"al Wadi","Gov_ID":"2","Wlyt_ID":"Salalah","Road_ID":"105371","Latitude":17.008274440000001,"Longitude":54.0594313,"GlobalID":"{F2481D3F-20DA-4D38-BDCF-4EA125301115}"}},{"type":"Feature","id":36,"geometry":{"type":"Point","coordinates":[186867.79590000026,1882781.1919999998]},"properties":{"OBJECTID":36,"Asset_ID":"SS36","Name":"تلبيس و زينة السيارات","District_ID":"al Wadi","Gov_ID":"2","Wlyt_ID":"Salalah","Road_ID":"105338","Latitude":17.007942709999998,"Longitude":54.059179110000002,"GlobalID":"{80D47107-E1C8-40A4-B34C-F10DE14BAA55}"}},{"type":"Feature","id":37,"geometry":{"type":"Point","coordinates":[186868.10319999978,1882776.6597000007]},"properties":{"OBJECTID":37,"Asset_ID":"SS37","Name":"ميزان الكتروني للسيارات","District_ID":"al Wadi","Gov_ID":"2","Wlyt_ID":"Salalah","Road_ID":"105338","Latitude":17.007901830000002,"Longitude":54.059182640000003,"GlobalID":"{405FC696-4606-478D-B893-D06446CCF21E}"}},{"type":"Feature","id":38,"geometry":{"type":"Point","coordinates":[186867.79590000026,1882772.0505999997]},"properties":{"OBJECTID":38,"Asset_ID":"SS38","Name":"مغسلة سيارات","District_ID":"al Wadi","Gov_ID":"2","Wlyt_ID":"Salalah","Road_ID":"105338","Latitude":17.007860180000002,"Longitude":54.059180400000002,"GlobalID":"{E619887A-B1C4-49D3-B983-CB9B171EA27C}"}},{"type":"Feature","id":39,"geometry":{"type":"Point","coordinates":[185241.05449999962,1882868.3505000006]},"properties":{"OBJECTID":39,"Asset_ID":"SS39","Name":"مغسلة سيارات","District_ID":"Mustashfa al Sultan Qboos","Gov_ID":"2","Wlyt_ID":"Salalah","Road_ID":"105482","Latitude":17.008466989999999,"Longitude":54.043902969999998,"GlobalID":"{93F999C5-338A-4162-896C-B89A03360EAD}"}},{"type":"Feature","id":40,"geometry":{"type":"Point","coordinates":[185159.82160000037,1882411.7960000001]},"properties":{"OBJECTID":40,"Asset_ID":"SS40","Name":"اصلاح اطارات السيارات وميزانيتها","District_ID":"Auqad al Janubiyya","Gov_ID":"2","Wlyt_ID":"Salalah","Road_ID":"105414","Latitude":17.004334400000001,"Longitude":54.04320551,"GlobalID":"{580C7CCD-F1C4-45BE-930F-CCDF551AF1F1}"}},{"type":"Feature","id":41,"geometry":{"type":"Point","coordinates":[184636.87999999989,1882396.4696999993]},"properties":{"OBJECTID":41,"Asset_ID":"SS41","Name":"اصلاح ميزان المركبات و اللاطارات","District_ID":"Auqad al Shamaliyya","Gov_ID":"2","Wlyt_ID":"Salalah","Road_ID":"105567","Latitude":17.004124669999999,"Longitude":54.03830129,"GlobalID":"{0B477962-65A3-4A9C-9939-69FA172D22CB}"}},{"type":"Feature","id":42,"geometry":{"type":"Point","coordinates":[184647.89080000017,1882383.3510999996]},"properties":{"OBJECTID":42,"Asset_ID":"SS42","Name":"تلبيس و زينة السيارات","District_ID":"Auqad al Shamaliyya","Gov_ID":"2","Wlyt_ID":"Salalah","Road_ID":"105567","Latitude":17.00400775,"Longitude":54.038406459999997,"GlobalID":"{D0475143-C1EB-41B8-A4F6-746DFF0649EE}"}},{"type":"Feature","id":43,"geometry":{"type":"Point","coordinates":[189745.34190000035,1883208.3824000005]},"properties":{"OBJECTID":43,"Asset_ID":"SS43","Name":"بيع زينة و اكسسوارات المركبات","District_ID":"Salalah al Gharbiyya","Gov_ID":"Dhofar Governorate","Wlyt_ID":"Salalah","Road_ID":"104474","Latitude":17.012142000000001,"Longitude":54.086095880000002,"GlobalID":"{7E40CB3E-DCF1-4BBA-A3A3-B5E4772201D2}"}},{"type":"Feature","id":44,"geometry":{"type":"Point","coordinates":[189742.94409999996,1883229.0302000009]},"properties":{"OBJECTID":44,"Asset_ID":"SS44","Name":"بيع زينة و اكسسوارات المركبات","District_ID":"Salalah al Gharbiyya","Gov_ID":"Dhofar Governorate","Wlyt_ID":"Salalah","Road_ID":"104471","Latitude":17.01232808,"Longitude":54.086070499999998,"GlobalID":"{488566DE-7603-489D-B7D0-A6DB2A296414}"}},{"type":"Feature","id":45,"geometry":{"type":"Point","coordinates":[189701.62239999976,1883247.5580000002]},"properties":{"OBJECTID":45,"Asset_ID":"SS45","Name":"بيع زينة و اكسسوارات المركبات","District_ID":"Salalah al Gharbiyya","Gov_ID":"Dhofar Governorate","Wlyt_ID":"Salalah","Road_ID":"104468","Latitude":17.012494360000002,"Longitude":54.085702240000003,"GlobalID":"{B34C3F27-B5E5-4EB0-B1AE-BC8BDBF6232E}"}},{"type":"Feature","id":46,"geometry":{"type":"Point","coordinates":[189739.98849999998,1883244.2829999998]},"properties":{"OBJECTID":46,"Asset_ID":"SS46","Name":"Al Bilad Car Accessories","District_ID":"Salalah al Gharbiyya","Gov_ID":"Dhofar Governorate","Wlyt_ID":"Salalah","Road_ID":"104471","Latitude":17.012465379999998,"Longitude":54.086040629999999,"GlobalID":"{C19A6005-C6E9-4919-B94C-99EB81A0311B}"}},{"type":"Feature","id":47,"geometry":{"type":"Point","coordinates":[193151.10580000002,1885105.4462000001]},"properties":{"OBJECTID":47,"Asset_ID":"SS47","Name":"مغسلة السيارة\n","District_ID":"Salalah Airport","Gov_ID":"Dhofar Governorate","Wlyt_ID":"Salalah","Road_ID":"100557","Latitude":17.029728720000001,"Longitude":54.117812600000001,"GlobalID":"{7FA5D582-B1AC-4405-9484-91437864AC17}"}},{"type":"Feature","id":48,"geometry":{"type":"Point","coordinates":[198076.26819999982,1884106.9381000008]},"properties":{"OBJECTID":48,"Asset_ID":"SS48","Name":"اصلاح الايطارات","District_ID":"Dahariz al Shamaliyya","Gov_ID":"Dhofar Governorate","Wlyt_ID":"Salalah","Road_ID":"100059","Latitude":17.021364179999999,"Longitude":54.164168279999998,"GlobalID":"{A9B4BA79-841D-4C9E-BC84-ACD9A1842AC9}"}},{"type":"Feature","id":49,"geometry":{"type":"Point","coordinates":[197300.93340000045,1884045.3801000006]},"properties":{"OBJECTID":49,"Asset_ID":"SS49","Name":"تنجيد و تلبيس السيارات ","District_ID":"Dahariz al Shamaliyya","Gov_ID":"Dhofar Governorate","Wlyt_ID":"Salalah","Road_ID":"100007","Latitude":17.020706780000001,"Longitude":54.156900829999998,"GlobalID":"{32A7DAF5-39EA-4498-BD44-59956D51EB12}"}},{"type":"Feature","id":50,"geometry":{"type":"Point","coordinates":[188198.65560000017,1882757.6890999991]},"properties":{"OBJECTID":50,"Asset_ID":"SS50","Name":"سخاء المدينة لزينة تلبيس السيارات ","District_ID":"Salalah al Gharbiyya","Gov_ID":"Dhofar Governorate","Wlyt_ID":"Salalah","Road_ID":"103824","Latitude":17.007877180000001,"Longitude":54.071666219999997,"GlobalID":"{6938D205-936D-4134-A294-73820C0E9EF1}"}},{"type":"Feature","id":51,"geometry":{"type":"Point","coordinates":[188470.04800000042,1882798.3361000009]},"properties":{"OBJECTID":51,"Asset_ID":"SS51","Name":"تنجيد مقاعد السيارات و بيع زينة و اكسسوارات المركبات","District_ID":"Salalah al Gharbiyya","Gov_ID":"Dhofar Governorate","Wlyt_ID":"Salalah","Road_ID":"104568","Latitude":17.008277320000001,"Longitude":54.074212260000003,"GlobalID":"{9CC25184-518F-48FD-98F7-194BFA271EF3}"}},{"type":"Feature","id":52,"geometry":{"type":"Point","coordinates":[189540.49859999958,1883014.8879000004]},"properties":{"OBJECTID":52,"Asset_ID":"SS52","Name":"VEHICLE CUSHION MAKER","District_ID":"Salalah al Gharbiyya","Gov_ID":"Dhofar Governorate","Wlyt_ID":"Salalah","Road_ID":"103824","Latitude":17.010384460000001,"Longitude":54.084222740000001,"GlobalID":"{B64AB7D6-DBC3-4BB7-8E89-8DBDCCA3E0B8}"}},{"type":"Feature","id":53,"geometry":{"type":"Point","coordinates":[189553.70770000014,1883016.2678999994]},"properties":{"OBJECTID":53,"Asset_ID":"SS53","Name":"بيع زينة اكسسوارات المركبات","District_ID":"Salalah al Gharbiyya","Gov_ID":"Dhofar Governorate","Wlyt_ID":"Salalah","Road_ID":"103824","Latitude":17.010398689999999,"Longitude":54.084346490000001,"GlobalID":"{A9292994-7662-472A-86DE-2261A27F6A5F}"}},{"type":"Feature","id":54,"geometry":{"type":"Point","coordinates":[189661.39919999987,1883050.8552000001]},"properties":{"OBJECTID":54,"Asset_ID":"SS54","Name":"تلبيس و زينة السيارات ","District_ID":"Salalah al Gharbiyya","Gov_ID":"Dhofar Governorate","Wlyt_ID":"Salalah","Road_ID":"104480","Latitude":17.010719600000002,"Longitude":54.085352579999999,"GlobalID":"{B48A675E-3DB8-4959-8DAC-3B490AEF9757}"}},{"type":"Feature","id":55,"geometry":{"type":"Point","coordinates":[188333.48830000032,1882486.9785999991]},"properties":{"OBJECTID":55,"Asset_ID":"SS55","Name":"ميزان الكتروني للسيارات و تصليح اطارات السيارات","District_ID":"Salalah al Gharbiyya","Gov_ID":"Dhofar Governorate","Wlyt_ID":"Salalah","Road_ID":"103741","Latitude":17.005443719999999,"Longitude":54.07297174,"GlobalID":"{C371833B-50FA-483D-BF2A-8D381D4C72C3}"}},{"type":"Feature","id":56,"geometry":{"type":"Point","coordinates":[189614.80810000002,1883007.4653999992]},"properties":{"OBJECTID":56,"Asset_ID":"SS56","Name":"بيع زينة و اكسسوارت المركبات","District_ID":"Salalah al Gharbiyya","Gov_ID":"Dhofar Governorate","Wlyt_ID":"Salalah","Road_ID":"103824","Latitude":17.01031631,"Longitude":54.084904209999998,"GlobalID":"{489C01E3-790B-45B2-9984-0C8C4C6199DC}"}},{"type":"Feature","id":57,"geometry":{"type":"Point","coordinates":[189613.67949999962,1883016.1182000004]},"properties":{"OBJECTID":57,"Asset_ID":"SS57","Name":"بيع زينة و اكسسوارت المركبات","District_ID":"Salalah al Gharbiyya","Gov_ID":"Dhofar Governorate","Wlyt_ID":"Salalah","Road_ID":"103824","Latitude":17.010394269999999,"Longitude":54.084892410000002,"GlobalID":"{3714C546-8FCB-4D1A-8386-EB79EB6C9307}"}},{"type":"Feature","id":58,"geometry":{"type":"Point","coordinates":[190077.20139999967,1883062.0848999992]},"properties":{"OBJECTID":58,"Asset_ID":"SS58","Name":"ALKARAM Car Accessories","District_ID":"Salalah al Gharbiyya","Gov_ID":"Dhofar Governorate","Wlyt_ID":"Salalah","Road_ID":"103824","Latitude":17.010874300000001,"Longitude":54.08922561,"GlobalID":"{5FCE2C45-F05D-4005-B407-C78DF22FDE15}"}},{"type":"Feature","id":59,"geometry":{"type":"Point","coordinates":[184492.35869999975,1885719.216]},"properties":{"OBJECTID":59,"Asset_ID":"SS59","Name":"تنظيف و تلميع السيارات","District_ID":"New Industrial Area","Gov_ID":"Dhofar Governorate","Wlyt_ID":"Salalah","Road_ID":"105278","Latitude":17.034100609999999,"Longitude":54.036472979999999,"GlobalID":"{F1FDFE8B-E15E-430F-B38B-980CA2F70A08}"}},{"type":"Feature","id":60,"geometry":{"type":"Point","coordinates":[184418.54069999978,1885574.5919000003]},"properties":{"OBJECTID":60,"Asset_ID":"SS60","Name":"مخرطة","District_ID":"New Industrial Area","Gov_ID":"Dhofar Governorate","Wlyt_ID":"Salalah","Road_ID":"105234","Latitude":17.032784929999998,"Longitude":54.035800870000003,"GlobalID":"{323DE942-4136-4C55-8F59-0D0AFF71AC0E}"}},{"type":"Feature","id":61,"geometry":{"type":"Point","coordinates":[184422.00320000015,1885576.8550000004]},"properties":{"OBJECTID":61,"Asset_ID":"SS61","Name":"تصليح بيبات الهيدروليك","District_ID":"New Industrial Area","Gov_ID":"Dhofar Governorate","Wlyt_ID":"Salalah","Road_ID":"105234","Latitude":17.032805830000001,"Longitude":54.03583304,"GlobalID":"{7F700DE3-5A52-4DCA-8E06-3972514970F9}"}},{"type":"Feature","id":62,"geometry":{"type":"Point","coordinates":[184428.24909999967,1885580.1546999998]},"properties":{"OBJECTID":62,"Asset_ID":"SS62","Name":"التقنية الجديدة المبتكرة","District_ID":"New Industrial Area","Gov_ID":"Dhofar Governorate","Wlyt_ID":"Salalah","Road_ID":"105234","Latitude":17.03283648,"Longitude":54.03589118,"GlobalID":"{2138A8E9-17D2-47F0-9A66-5DF0ED52BD9B}"}},{"type":"Feature","id":63,"geometry":{"type":"Point","coordinates":[184559.71150000021,1885648.1203000005]},"properties":{"OBJECTID":63,"Asset_ID":"SS63","Name":"بيع الاطارات و لوازمها ","District_ID":"New Industrial Area","Gov_ID":"Dhofar Governorate","Wlyt_ID":"Salalah","Road_ID":"105234","Latitude":17.033468020000001,"Longitude":54.037115110000002,"GlobalID":"{8B6FA9B7-6A9B-45F7-83B0-1145BDF3BDE4}"}},{"type":"Feature","id":64,"geometry":{"type":"Point","coordinates":[184554.73359999992,1885645.0280000009]},"properties":{"OBJECTID":64,"Asset_ID":"SS64","Name":"اصلاح كهرباء المركبات","District_ID":"New Industrial Area","Gov_ID":"Dhofar Governorate","Wlyt_ID":"Salalah","Road_ID":"105234","Latitude":17.033439430000001,"Longitude":54.037068840000003,"GlobalID":"{2B524110-EA6B-40C2-A3D7-3C46C742F6F0}"}},{"type":"Feature","id":65,"geometry":{"type":"Point","coordinates":[184547.7193,1885641.1813999992]},"properties":{"OBJECTID":65,"Asset_ID":"SS65","Name":"اصلاح ماكينة المركبات","District_ID":"New Industrial Area","Gov_ID":"Dhofar Governorate","Wlyt_ID":"Salalah","Road_ID":"105234","Latitude":17.033403740000001,"Longitude":54.037003570000003,"GlobalID":"{1DD4907E-86AC-40BB-AC48-FE3690CFEE15}"}},{"type":"Feature","id":66,"geometry":{"type":"Point","coordinates":[184545.07949999999,1885639.9746000003]},"properties":{"OBJECTID":66,"Asset_ID":"SS66","Name":"اصلاح ماكينة المركبات","District_ID":"New Industrial Area","Gov_ID":"Dhofar Governorate","Wlyt_ID":"Salalah","Road_ID":"105234","Latitude":17.033392490000001,"Longitude":54.03697897,"GlobalID":"{C1BDC762-D45F-4380-805C-BC1CD9D89974}"}},{"type":"Feature","id":67,"geometry":{"type":"Point","coordinates":[184542.96760000009,1885638.5416000001]},"properties":{"OBJECTID":67,"Asset_ID":"SS67","Name":"اصلاح ماكينة المركبات","District_ID":"New Industrial Area","Gov_ID":"Dhofar Governorate","Wlyt_ID":"Salalah","Road_ID":"105234","Latitude":17.03337926,"Longitude":54.036959359999997,"GlobalID":"{310006EC-DE68-4AAA-9730-DC62E7CFC13B}"}},{"type":"Feature","id":68,"geometry":{"type":"Point","coordinates":[184540.47869999986,1885637.1840000004]},"properties":{"OBJECTID":68,"Asset_ID":"SS68","Name":"اصلاح ماكينة المركبات","District_ID":"New Industrial Area","Gov_ID":"Dhofar Governorate","Wlyt_ID":"Salalah","Road_ID":"105234","Latitude":17.033366659999999,"Longitude":54.036936189999999,"GlobalID":"{88E3CD6A-0C10-45C3-837C-9C1E8C1745AB}"}},{"type":"Feature","id":69,"geometry":{"type":"Point","coordinates":[184533.76599999983,1885633.9408]},"properties":{"OBJECTID":69,"Asset_ID":"SS69","Name":"بيع الاطارات و لوازمها ","District_ID":"New Industrial Area","Gov_ID":"Dhofar Governorate","Wlyt_ID":"Salalah","Road_ID":"105234","Latitude":17.033336469999998,"Longitude":54.036873659999998,"GlobalID":"{4218214B-FF2B-4E11-B885-3E676A7992F9}"}},{"type":"Feature","id":70,"geometry":{"type":"Point","coordinates":[184521.47200000007,1885627.3036000002]},"properties":{"OBJECTID":70,"Asset_ID":"SS70","Name":"اصلاح كهرباء المركبات ","District_ID":"New Industrial Area","Gov_ID":"Dhofar Governorate","Wlyt_ID":"Salalah","Road_ID":"105234","Latitude":17.03327487,"Longitude":54.036759250000003,"GlobalID":"{8663631C-51D1-4469-9EE3-E7CEEE9F14D3}"}},{"type":"Feature","id":71,"geometry":{"type":"Point","coordinates":[184510.86099999957,1885621.9910000004]},"properties":{"OBJECTID":71,"Asset_ID":"SS71","Name":"بيع الاطارات و لوازمها ","District_ID":"New Industrial Area","Gov_ID":"Dhofar Governorate","Wlyt_ID":"Salalah","Road_ID":"105234","Latitude":17.033225460000001,"Longitude":54.036660429999998,"GlobalID":"{DA68A657-5B53-4870-9FE5-62B89656724F}"}},{"type":"Feature","id":72,"geometry":{"type":"Point","coordinates":[184514.86780000012,1885624.7015000004]},"properties":{"OBJECTID":72,"Asset_ID":"SS72","Name":"بيع قطع غيار الشاحنات ","District_ID":"New Industrial Area","Gov_ID":"Dhofar Governorate","Wlyt_ID":"Salalah","Road_ID":"105234","Latitude":17.033250469999999,"Longitude":54.03669764,"GlobalID":"{B2A351E3-9721-4AC6-B0D1-26555F13A142}"}},{"type":"Feature","id":73,"geometry":{"type":"Point","coordinates":[184498.8404000001,1885615.9806999993]},"properties":{"OBJECTID":73,"Asset_ID":"SS73","Name":"اصلاح ماكينة المركبات","District_ID":"New Industrial Area","Gov_ID":"Dhofar Governorate","Wlyt_ID":"Salalah","Road_ID":"105234","Latitude":17.03316955,"Longitude":54.036548490000001,"GlobalID":"{9D8B910D-1A38-4F44-913D-9AEB3425A519}"}},{"type":"Feature","id":74,"geometry":{"type":"Point","coordinates":[184525.31020000018,1885558.5176999997]},"properties":{"OBJECTID":74,"Asset_ID":"SS74","Name":"محطات غسيل و تشحيم المركبات","District_ID":"New Industrial Area","Gov_ID":"Dhofar Governorate","Wlyt_ID":"Salalah","Road_ID":"105234","Latitude":17.032654440000002,"Longitude":54.036805049999998,"GlobalID":"{F1A541E6-1B19-4ECD-B90E-5931D158A55E}"}},{"type":"Feature","id":75,"geometry":{"type":"Point","coordinates":[184615.10989999957,1885605.0883000009]},"properties":{"OBJECTID":75,"Asset_ID":"SS75","Name":"اصلاح ماكينة المركبات","District_ID":"New Industrial Area","Gov_ID":"Dhofar Governorate","Wlyt_ID":"Salalah","Road_ID":"105234","Latitude":17.033087139999999,"Longitude":54.03764108,"GlobalID":"{46BD8F95-FC7B-4C93-979D-60993C23B0C9}"}},{"type":"Feature","id":76,"geometry":{"type":"Point","coordinates":[184698.17860000022,1885634.0077999998]},"properties":{"OBJECTID":76,"Asset_ID":"SS76","Name":"اصلاح الاطارات و العجلات المعدنية ","District_ID":"New Industrial Area","Gov_ID":"Dhofar Governorate","Wlyt_ID":"Salalah","Road_ID":"105228","Latitude":17.033359569999998,"Longitude":54.038416460000001,"GlobalID":"{8BEA399C-6F1A-42B0-9185-299758CC7F78}"}},{"type":"Feature","id":77,"geometry":{"type":"Point","coordinates":[184699.29409999959,1885641.8169999998]},"properties":{"OBJECTID":77,"Asset_ID":"SS77","Name":"بيع الاطارات و لوازمها ","District_ID":"New Industrial Area","Gov_ID":"Dhofar Governorate","Wlyt_ID":"Salalah","Road_ID":"105234","Latitude":17.03343022,"Longitude":54.03842581,"GlobalID":"{C61E54CB-BF1B-4B1D-A811-C26C2B199AD7}"}},{"type":"Feature","id":78,"geometry":{"type":"Point","coordinates":[184706.96600000001,1885652.6055999994]},"properties":{"OBJECTID":78,"Asset_ID":"SS78","Name":"اصلاح كهرباء المركبات","District_ID":"New Industrial Area","Gov_ID":"Dhofar Governorate","Wlyt_ID":"Salalah","Road_ID":"105234","Latitude":17.033528660000002,"Longitude":54.038496270000003,"GlobalID":"{5E4A6277-8BD8-47A1-A0BC-949377E3B3AC}"}},{"type":"Feature","id":79,"geometry":{"type":"Point","coordinates":[184716.22360000014,1885657.5382000003]},"properties":{"OBJECTID":79,"Asset_ID":"SS79","Name":"بيع قطع الغيار و لوازم المعدات الثقيلة ذات المحركات","District_ID":"New Industrial Area","Gov_ID":"Dhofar Governorate","Wlyt_ID":"Salalah","Road_ID":"105234","Latitude":17.033574460000001,"Longitude":54.038582439999999,"GlobalID":"{B234078C-B24F-4ACD-9617-7F2A93547ABF}"}},{"type":"Feature","id":80,"geometry":{"type":"Point","coordinates":[185662.51620000042,1886318.0175000001]},"properties":{"OBJECTID":80,"Asset_ID":"SS80","Name":"اصلاح الاطارات و بيع الاطارات ","District_ID":"New Industrial Area","Gov_ID":"Dhofar Governorate","Wlyt_ID":"Salalah","Road_ID":"105212","Latitude":17.039666159999999,"Longitude":54.047368570000003,"GlobalID":"{47A94992-2CCF-439E-A48E-B8D04A7404C3}"}},{"type":"Feature","id":81,"geometry":{"type":"Point","coordinates":[185459.17899999954,1886147.8894999996]},"properties":{"OBJECTID":81,"Asset_ID":"SS81","Name":"اصلاح و سمكرة و دهان المركبات","District_ID":"New Industrial Area","Gov_ID":"Dhofar Governorate","Wlyt_ID":"Salalah","Road_ID":"105226","Latitude":17.038102590000001,"Longitude":54.04548458,"GlobalID":"{B0584396-4FDD-4AE4-A892-304C0316CA45}"}},{"type":"Feature","id":82,"geometry":{"type":"Point","coordinates":[185603.22259999998,1885703.2371999994]},"properties":{"OBJECTID":82,"Asset_ID":"SS82","Name":"اصلاح ماكينات المركبات","District_ID":"New Industrial Area","Gov_ID":"Dhofar Governorate","Wlyt_ID":"Salalah","Road_ID":"105222","Latitude":17.03410818,"Longitude":54.046899359999998,"GlobalID":"{2704F19F-9E86-4F03-8A07-58B74E1F4418}"}},{"type":"Feature","id":83,"geometry":{"type":"Point","coordinates":[185577.17229999974,1885689.8138999995]},"properties":{"OBJECTID":83,"Asset_ID":"SS83","Name":"اصلاح كهرباء المركبات","District_ID":"New Industrial Area","Gov_ID":"Dhofar Governorate","Wlyt_ID":"Salalah","Road_ID":"105222","Latitude":17.033983450000001,"Longitude":54.046656810000002,"GlobalID":"{7A30274F-1FF3-4146-8A2F-E5121A50B89D}"}},{"type":"Feature","id":84,"geometry":{"type":"Point","coordinates":[185536.87050000019,1885669.9882999994]},"properties":{"OBJECTID":84,"Asset_ID":"SS84","Name":"اصلاح ماكينات المركبات","District_ID":"New Industrial Area","Gov_ID":"Dhofar Governorate","Wlyt_ID":"Salalah","Road_ID":"105221","Latitude":17.033798969999999,"Longitude":54.046281430000001,"GlobalID":"{4379232C-F2DF-45B6-BE13-C4834D807DFC}"}},{"type":"Feature","id":85,"geometry":{"type":"Point","coordinates":[186058.29000000004,1885756.4581000004]},"properties":{"OBJECTID":85,"Asset_ID":"SS85","Name":"ميكانيك ","District_ID":"New Industrial Area","Gov_ID":"Dhofar Governorate","Wlyt_ID":"Salalah","Road_ID":"105213","Latitude":17.034650670000001,"Longitude":54.051162099999999,"GlobalID":"{D9CAB78B-2003-4C54-8821-C8AC537249A0}"}},{"type":"Feature","id":86,"geometry":{"type":"Point","coordinates":[186057.35819999967,1885754.6771000009]},"properties":{"OBJECTID":86,"Asset_ID":"SS86","Name":"اصلاح الاطارات","District_ID":"New Industrial Area","Gov_ID":"Dhofar Governorate","Wlyt_ID":"Salalah","Road_ID":"105213","Latitude":17.034634459999999,"Longitude":54.05115361,"GlobalID":"{54944E50-9806-4160-A476-3D8A6C690935}"}},{"type":"Feature","id":87,"geometry":{"type":"Point","coordinates":[186052.85400000028,1885739.1791999992]},"properties":{"OBJECTID":87,"Asset_ID":"SS87","Name":"اصلاح ماكينات المركبات","District_ID":"New Industrial Area","Gov_ID":"Dhofar Governorate","Wlyt_ID":"Salalah","Road_ID":"105213","Latitude":17.034493940000001,"Longitude":54.051113540000003,"GlobalID":"{C78921BF-E708-43D9-A542-6BBE2B94E2BE}"}},{"type":"Feature","id":88,"geometry":{"type":"Point","coordinates":[185744.16420000046,1885608.2610999998]},"properties":{"OBJECTID":88,"Asset_ID":"SS88","Name":"اصلاح كهرباء المركبات و فحص المركبات بالكمبيوتر","District_ID":"New Industrial Area","Gov_ID":"Dhofar Governorate","Wlyt_ID":"Salalah","Road_ID":"105213","Latitude":17.033270009999999,"Longitude":54.048235390000002,"GlobalID":"{3333552A-6874-452F-BFEB-55430BB2FCFE}"}},{"type":"Feature","id":89,"geometry":{"type":"Point","coordinates":[185730.87249999959,1885647.0945999995]},"properties":{"OBJECTID":89,"Asset_ID":"SS89","Name":"اصلاح ميكانك المركبات","District_ID":"New Industrial Area","Gov_ID":"Dhofar Governorate","Wlyt_ID":"Salalah","Road_ID":"105213","Latitude":17.03361876,"Longitude":54.048105159999999,"GlobalID":"{B2B00C43-263F-4006-90F0-BC4D1DA4DB85}"}},{"type":"Feature","id":90,"geometry":{"type":"Point","coordinates":[185510.77979999967,1885534.7807]},"properties":{"OBJECTID":90,"Asset_ID":"SS90","Name":"اصلاح ميكانك المركبات","District_ID":"New Industrial Area","Gov_ID":"Dhofar Governorate","Wlyt_ID":"Salalah","Road_ID":"105213","Latitude":17.032574830000001,"Longitude":54.046055780000003,"GlobalID":"{B136410B-2546-4186-B1A2-4985E7FD4966}"}},{"type":"Feature","id":91,"geometry":{"type":"Point","coordinates":[185489.33150000032,1885523.5468000006]},"properties":{"OBJECTID":91,"Asset_ID":"SS91","Name":"اصلاح الايطارات و العجلات المعدنية","District_ID":"New Industrial Area","Gov_ID":"Dhofar Governorate","Wlyt_ID":"Salalah","Road_ID":"105213","Latitude":17.032470490000001,"Longitude":54.045856110000003,"GlobalID":"{DB0C1E0B-E6DD-455F-9D61-98D71DB0CF17}"}},{"type":"Feature","id":92,"geometry":{"type":"Point","coordinates":[185482.04839999974,1885519.0757999998]},"properties":{"OBJECTID":92,"Asset_ID":"SS92","Name":"بيع قطع الغيار الجديدة للمركبات","District_ID":"New Industrial Area","Gov_ID":"Dhofar Governorate","Wlyt_ID":"Salalah","Road_ID":"105213","Latitude":17.032429140000001,"Longitude":54.045788399999999,"GlobalID":"{7059D695-A9FD-4809-8EF3-5E6467CB7C9E}"}},{"type":"Feature","id":93,"geometry":{"type":"Point","coordinates":[185537.80659999978,1885589.4356999993]},"properties":{"OBJECTID":93,"Asset_ID":"SS93","Name":"اصلاح المركبات الثقيلة و الخفيفة و سمكرة و دهان","District_ID":"New Industrial Area","Gov_ID":"Dhofar Governorate","Wlyt_ID":"Salalah","Road_ID":"105221","Latitude":17.033071920000001,"Longitude":54.046301640000003,"GlobalID":"{5AC8277F-394A-422D-9C4B-E7F3A8E89943}"}},{"type":"Feature","id":94,"geometry":{"type":"Point","coordinates":[185832.17009999976,1885495.8329000007]},"properties":{"OBJECTID":94,"Asset_ID":"SS94","Name":"اصلاح ميكانك المركبات","District_ID":"New Industrial Area","Gov_ID":"Dhofar Governorate","Wlyt_ID":"Salalah","Road_ID":"105216","Latitude":17.03226707,"Longitude":54.049077150000002,"GlobalID":"{20E6998B-A703-41F0-A9C3-AB544A15C9D4}"}},{"type":"Feature","id":95,"geometry":{"type":"Point","coordinates":[185492.87789999973,1885331.3126999997]},"properties":{"OBJECTID":95,"Asset_ID":"SS95","Name":"بيع و اصلاح الاطارات و لوازمها","District_ID":"New Industrial Area","Gov_ID":"Dhofar Governorate","Wlyt_ID":"Salalah","Road_ID":"105216","Latitude":17.0307356,"Longitude":54.045916660000003,"GlobalID":"{131EAA6F-227A-44BC-AFA9-631A25818B31}"}},{"type":"Feature","id":96,"geometry":{"type":"Point","coordinates":[186179.51740000024,1885541.3565999996]},"properties":{"OBJECTID":96,"Asset_ID":"SS96","Name":"اصلاح ميكانك المركبات","District_ID":"New Industrial Area","Gov_ID":"Dhofar Governorate","Wlyt_ID":"Salalah","Road_ID":"105213","Latitude":17.03272535,"Longitude":54.052330140000002,"GlobalID":"{569AE323-BD39-42C0-B6A9-4AD53D829843}"}},{"type":"Feature","id":97,"geometry":{"type":"Point","coordinates":[186116.85979999974,1885663.3278999999]},"properties":{"OBJECTID":97,"Asset_ID":"SS97","Name":"اصلاح ميكانك المركبات","District_ID":"New Industrial Area","Gov_ID":"Dhofar Governorate","Wlyt_ID":"Salalah","Road_ID":"105213","Latitude":17.03381791,"Longitude":54.051724900000004,"GlobalID":"{04FC58DD-21AC-43FB-BACD-C0EBCA490686}"}},{"type":"Feature","id":98,"geometry":{"type":"Point","coordinates":[186111.19840000011,1885675.8424999993]},"properties":{"OBJECTID":98,"Asset_ID":"SS98","Name":"اصلاح و سمكرة و دهان المركبات","District_ID":"New Industrial Area","Gov_ID":"Dhofar Governorate","Wlyt_ID":"Salalah","Road_ID":"105213","Latitude":17.033930120000001,"Longitude":54.051670000000001,"GlobalID":"{E9EAF8D1-0DC1-4EB8-8F8E-12B4DDD39328}"}},{"type":"Feature","id":99,"geometry":{"type":"Point","coordinates":[185207.26219999976,1885829.9990999997]},"properties":{"OBJECTID":99,"Asset_ID":"SS99","Name":"بيع الاطارات و لوازمها","District_ID":"New Industrial Area","Gov_ID":"Dhofar Governorate","Wlyt_ID":"Salalah","Road_ID":"105195","Latitude":17.03519846,"Longitude":54.043165739999999,"GlobalID":"{0AE188BE-CCE0-4EC6-A431-33E9635410CB}"}},{"type":"Feature","id":100,"geometry":{"type":"Point","coordinates":[185225.1054999996,1885819.2588999998]},"properties":{"OBJECTID":100,"Asset_ID":"SS100","Name":"المراد لقطع الغيار و المعدات","District_ID":"New Industrial Area","Gov_ID":"Dhofar Governorate","Wlyt_ID":"Salalah","Road_ID":"105195","Latitude":17.035103939999999,"Longitude":54.043334700000003,"GlobalID":"{C8F794B1-DB19-483A-9E6E-D9121A8D9151}"}},{"type":"Feature","id":101,"geometry":{"type":"Point","coordinates":[185229.98739999998,1885810.7155000009]},"properties":{"OBJECTID":101,"Asset_ID":"SS101","Name":"اصلاح ريديتر المركبات و تنظيفها ","District_ID":"New Industrial Area","Gov_ID":"Dhofar Governorate","Wlyt_ID":"Salalah","Road_ID":"105195","Latitude":17.03502748,"Longitude":54.04338173,"GlobalID":"{BB3D848D-E305-4E44-B2CD-9E8F7A4448FC}"}},{"type":"Feature","id":102,"geometry":{"type":"Point","coordinates":[185235.11340000015,1885799.6092000008]},"properties":{"OBJECTID":102,"Asset_ID":"SS102","Name":"اصلاح الاطارات و العجلات المعدنية","District_ID":"New Industrial Area","Gov_ID":"Dhofar Governorate","Wlyt_ID":"Salalah","Road_ID":"105195","Latitude":17.034927920000001,"Longitude":54.043431400000003,"GlobalID":"{C8BE2401-2BBB-4DF9-8D8A-7C572EEEB13D}"}},{"type":"Feature","id":103,"geometry":{"type":"Point","coordinates":[185237.55719999969,1885651.1111999992]},"properties":{"OBJECTID":103,"Asset_ID":"SS103","Name":"الذهبية لقطع غيار السيارات","District_ID":"New Industrial Area","Gov_ID":"Dhofar Governorate","Wlyt_ID":"Salalah","Road_ID":"105195","Latitude":17.033587700000002,"Longitude":54.04347542,"GlobalID":"{134ACCAE-8214-45D8-8EE3-106864EC6DA3}"}},{"type":"Feature","id":104,"geometry":{"type":"Point","coordinates":[185309.07419999968,1885653.0300999992]},"properties":{"OBJECTID":104,"Asset_ID":"SS104","Name":"بيع قطع الغيار الجديدة للمركبات","District_ID":"New Industrial Area","Gov_ID":"Dhofar Governorate","Wlyt_ID":"Salalah","Road_ID":"105195","Latitude":17.033614790000001,"Longitude":54.044146249999997,"GlobalID":"{EF13CEB3-1DEF-4C61-AA75-6B81BF678F63}"}},{"type":"Feature","id":105,"geometry":{"type":"Point","coordinates":[185249.14890000038,1885634.7229999993]},"properties":{"OBJECTID":105,"Asset_ID":"SS105","Name":"اصلاح ميكانك المركبات","District_ID":"New Industrial Area","Gov_ID":"Dhofar Governorate","Wlyt_ID":"Salalah","Road_ID":"105195","Latitude":17.03344134,"Longitude":54.043586519999998,"GlobalID":"{908B2EF6-4591-4C22-9ED1-FDCBA7D2E7A1}"}},{"type":"Feature","id":106,"geometry":{"type":"Point","coordinates":[185329.21210000012,1885615.9276000001]},"properties":{"OBJECTID":106,"Asset_ID":"SS106","Name":"بيع قطع الغيار الجديدة للمركبات","District_ID":"New Industrial Area","Gov_ID":"Dhofar Governorate","Wlyt_ID":"Salalah","Road_ID":"105195","Latitude":17.0332826,"Longitude":54.044340480000002,"GlobalID":"{334905C2-241E-41EE-A99B-4F3DBB07C3B0}"}},{"type":"Feature","id":107,"geometry":{"type":"Point","coordinates":[185273.31429999974,1885592.0063000005]},"properties":{"OBJECTID":107,"Asset_ID":"SS107","Name":"اصلاح كهرباء المركبات و شحن البطاريات","District_ID":"New Industrial Area","Gov_ID":"Dhofar Governorate","Wlyt_ID":"Salalah","Road_ID":"105195","Latitude":17.03305902,"Longitude":54.04381935,"GlobalID":"{590BF096-AA98-4166-B021-406E65AC375C}"}},{"type":"Feature","id":108,"geometry":{"type":"Point","coordinates":[185276.36550000031,1885586.7583000008]},"properties":{"OBJECTID":108,"Asset_ID":"SS108","Name":"بيع الايطارات و لوازمها","District_ID":"New Industrial Area","Gov_ID":"Dhofar Governorate","Wlyt_ID":"Salalah","Road_ID":"105195","Latitude":17.033012060000001,"Longitude":54.04384872,"GlobalID":"{E00F3B16-3372-4C60-9FED-1518524A31FF}"}},{"type":"Feature","id":109,"geometry":{"type":"Point","coordinates":[185277.95210000034,1885582.7306999993]},"properties":{"OBJECTID":109,"Asset_ID":"SS109","Name":"بيع قطع الغيار الجديدة للمركبات","District_ID":"New Industrial Area","Gov_ID":"Dhofar Governorate","Wlyt_ID":"Salalah","Road_ID":"105195","Latitude":17.032975919999998,"Longitude":54.04386418,"GlobalID":"{61E0E57F-EE45-4939-AA33-111326B3A078}"}},{"type":"Feature","id":110,"geometry":{"type":"Point","coordinates":[185282.10170000046,1885575.0416999999]},"properties":{"OBJECTID":110,"Asset_ID":"SS110","Name":"اصلاح ميكانك المركبات","District_ID":"New Industrial Area","Gov_ID":"Dhofar Governorate","Wlyt_ID":"Salalah","Road_ID":"105195","Latitude":17.03290707,"Longitude":54.043904210000001,"GlobalID":"{A6BF4436-C4E5-490E-8A47-4A019482E3E2}"}},{"type":"Feature","id":111,"geometry":{"type":"Point","coordinates":[185284.17650000006,1885570.7699999996]},"properties":{"OBJECTID":111,"Asset_ID":"SS111","Name":"اصلاح سمكرة و دهان السيارات","District_ID":"New Industrial Area","Gov_ID":"Dhofar Governorate","Wlyt_ID":"Salalah","Road_ID":"105195","Latitude":17.032868789999998,"Longitude":54.04392429,"GlobalID":"{6160E918-6B1C-44DA-A2B0-FC26879D5CA7}"}},{"type":"Feature","id":112,"geometry":{"type":"Point","coordinates":[185305.19699999969,1885527.6148000006]},"properties":{"OBJECTID":112,"Asset_ID":"SS112","Name":"اصلاح ميكانك المركبات","District_ID":"New Industrial Area","Gov_ID":"Dhofar Governorate","Wlyt_ID":"Salalah","Road_ID":"105195","Latitude":17.032482080000001,"Longitude":54.044127660000001,"GlobalID":"{1C3168BD-CF64-4312-B452-36E2BBFA3504}"}},{"type":"Feature","id":113,"geometry":{"type":"Point","coordinates":[185307.8964999998,1885523.2156000007]},"properties":{"OBJECTID":113,"Asset_ID":"SS113","Name":"بيع قطع الغيار الجديدة للمركبات","District_ID":"New Industrial Area","Gov_ID":"Dhofar Governorate","Wlyt_ID":"Salalah","Road_ID":"105195","Latitude":17.03244274,"Longitude":54.044153620000003,"GlobalID":"{76D85235-BB48-4120-A517-C6F605D3E3CD}"}},{"type":"Feature","id":114,"geometry":{"type":"Point","coordinates":[185309.44620000012,1885519.3663999997]},"properties":{"OBJECTID":114,"Asset_ID":"SS114","Name":"اصلاح كهرباء المركبات و شحن البطاريات","District_ID":"New Industrial Area","Gov_ID":"Dhofar Governorate","Wlyt_ID":"Salalah","Road_ID":"105195","Latitude":17.032408199999999,"Longitude":54.044168710000001,"GlobalID":"{1C3C58CF-80E1-4B69-8B84-B7471594E87F}"}},{"type":"Feature","id":115,"geometry":{"type":"Point","coordinates":[185310.75850000046,1885517.0887000002]},"properties":{"OBJECTID":115,"Asset_ID":"SS115","Name":"اصلاح قوارب و زوارق الصيد","District_ID":"New Industrial Area","Gov_ID":"Dhofar Governorate","Wlyt_ID":"Salalah","Road_ID":"105195","Latitude":17.03238782,"Longitude":54.044181350000002,"GlobalID":"{792A9CE5-F499-4012-993C-81B6D6628BA2}"}},{"type":"Feature","id":116,"geometry":{"type":"Point","coordinates":[185312.5549999997,1885512.6363999993]},"properties":{"OBJECTID":116,"Asset_ID":"SS116","Name":"بيع قطع الغيار الجديدة للمركبات","District_ID":"New Industrial Area","Gov_ID":"Dhofar Governorate","Wlyt_ID":"Salalah","Road_ID":"105195","Latitude":17.032347869999999,"Longitude":54.04419884,"GlobalID":"{BB4E336E-E4A0-4017-892B-CF91401ABF60}"}},{"type":"Feature","id":117,"geometry":{"type":"Point","coordinates":[185314.27350000013,1885508.0277999993]},"properties":{"OBJECTID":117,"Asset_ID":"SS117","Name":"تصليح ايطارات السيارات ","District_ID":"New Industrial Area","Gov_ID":"Dhofar Governorate","Wlyt_ID":"Salalah","Road_ID":"105195","Latitude":17.032306500000001,"Longitude":54.044215620000003,"GlobalID":"{E8B99EBE-8C81-4C42-A416-026BC6DD3237}"}},{"type":"Feature","id":118,"geometry":{"type":"Point","coordinates":[185328.11369999964,1885479.2344000004]},"properties":{"OBJECTID":118,"Asset_ID":"SS118","Name":"بيع قطع غيار و لوازم المعدات الثقيلة ذات المحركات","District_ID":"New Industrial Area","Gov_ID":"Dhofar Governorate","Wlyt_ID":"Salalah","Road_ID":"105195","Latitude":17.032048459999999,"Longitude":54.044349570000001,"GlobalID":"{584369F6-1617-49B2-93A3-D69365396FF3}"}},{"type":"Feature","id":119,"geometry":{"type":"Point","coordinates":[185455.07359999977,1885377.6602999996]},"properties":{"OBJECTID":119,"Asset_ID":"SS119","Name":"قطع غيار الشاحنات و المعدات","District_ID":"New Industrial Area","Gov_ID":"Dhofar Governorate","Wlyt_ID":"Salalah","Road_ID":"105216","Latitude":17.03114884,"Longitude":54.04555534,"GlobalID":"{AB74F9DD-9980-4DA1-8F80-3293426476A4}"}},{"type":"Feature","id":120,"geometry":{"type":"Point","coordinates":[185419.0390999997,1885305.3166000005]},"properties":{"OBJECTID":120,"Asset_ID":"SS120","Name":"بيع قطع الغيار الجديدة للمركبات","District_ID":"New Industrial Area","Gov_ID":"Dhofar Governorate","Wlyt_ID":"Salalah","Road_ID":"105195","Latitude":17.030490839999999,"Longitude":54.04522747,"GlobalID":"{63D041EF-894D-4F32-B845-B428622699D6}"}},{"type":"Feature","id":121,"geometry":{"type":"Point","coordinates":[184841.15859999973,1885248.7793000005]},"properties":{"OBJECTID":121,"Asset_ID":"SS121","Name":"بيع قطع الغيار الجديدة للمركبات","District_ID":"New Industrial Area","Gov_ID":"Dhofar Governorate","Wlyt_ID":"Salalah","Road_ID":"105228","Latitude":17.029901519999999,"Longitude":54.03981289,"GlobalID":"{94FE2491-E1AD-49E9-BE29-916BB8534659}"}},{"type":"Feature","id":122,"geometry":{"type":"Point","coordinates":[185061.99839999992,1885638.4492000006]},"properties":{"OBJECTID":122,"Asset_ID":"SS122","Name":"اصلاح و سمكرة و دهان المركبات","District_ID":"New Industrial Area","Gov_ID":"Dhofar Governorate","Wlyt_ID":"Salalah","Road_ID":"105254","Latitude":17.033449409999999,"Longitude":54.041829810000003,"GlobalID":"{05CC4025-77EF-4B36-8AC9-70A8BB060798}"}},{"type":"Feature","id":123,"geometry":{"type":"Point","coordinates":[185160.73639999982,1885593.2764999997]},"properties":{"OBJECTID":123,"Asset_ID":"SS123","Name":"اصلاح ميكانك المركبات","District_ID":"New Industrial Area","Gov_ID":"Dhofar Governorate","Wlyt_ID":"Salalah","Road_ID":"105253","Latitude":17.033055109999999,"Longitude":54.042762760000002,"GlobalID":"{DD541DCF-38A4-44A9-9000-58DD6B7616E6}"}},{"type":"Feature","id":124,"geometry":{"type":"Point","coordinates":[185122.84819999989,1885596.6188999992]},"properties":{"OBJECTID":124,"Asset_ID":"SS124","Name":"بيع قطع الغيار الجديدة للمركبات","District_ID":"New Industrial Area","Gov_ID":"Dhofar Governorate","Wlyt_ID":"Salalah","Road_ID":"105253","Latitude":17.03308011,"Longitude":54.042406759999999,"GlobalID":"{0E7F110B-7D33-4A18-A8D2-98370996286E}"}},{"type":"Feature","id":125,"geometry":{"type":"Point","coordinates":[185050.04970000032,1885739.1866999995]},"properties":{"OBJECTID":125,"Asset_ID":"SS125","Name":"اصلاح و سمكرة و دهان المركبات","District_ID":"New Industrial Area","Gov_ID":"Dhofar Governorate","Wlyt_ID":"Salalah","Road_ID":"105253","Latitude":17.034357180000001,"Longitude":54.041703380000001,"GlobalID":"{EF0A2CC4-3815-4CF8-B63D-AD89F818D328}"}},{"type":"Feature","id":126,"geometry":{"type":"Point","coordinates":[184143.08069999982,1885163.1616999991]},"properties":{"OBJECTID":126,"Asset_ID":"SS126","Name":"تنظيف و تلميع السيارات ","District_ID":"New Industrial Area","Gov_ID":"Dhofar Governorate","Wlyt_ID":"Salalah","Road_ID":"105234","Latitude":17.029033080000001,"Longitude":54.033274650000003,"GlobalID":"{AC4F2A81-19B2-452A-B3BB-BF78DD3B838D}"}},{"type":"Feature","id":127,"geometry":{"type":"Point","coordinates":[184186.72979999986,1885272.4894999992]},"properties":{"OBJECTID":127,"Asset_ID":"SS127","Name":"اصلاح ميكانك المركبات","District_ID":"New Industrial Area","Gov_ID":"Dhofar Governorate","Wlyt_ID":"Salalah","Road_ID":"105234","Latitude":17.030025989999999,"Longitude":54.033668659999996,"GlobalID":"{02F6BC88-3569-42E2-9F53-6DE88355F081}"}},{"type":"Feature","id":128,"geometry":{"type":"Point","coordinates":[184298.72169999965,1885380.6901999991]},"properties":{"OBJECTID":128,"Asset_ID":"SS128","Name":"اصلاح و سمكرة و دهان المركبات","District_ID":"New Industrial Area","Gov_ID":"Dhofar Governorate","Wlyt_ID":"Salalah","Road_ID":"105250","Latitude":17.031018100000001,"Longitude":54.034704140000002,"GlobalID":"{E011BB7B-4E4A-4EC0-8010-6E5A30786982}"}},{"type":"Feature","id":129,"geometry":{"type":"Point","coordinates":[192931.57029999979,1884485.4515000004]},"properties":{"OBJECTID":129,"Asset_ID":"SS129","Name":"اصلاح ميزان المركبات","District_ID":"al Huseela","Gov_ID":"Dhofar Governorate","Wlyt_ID":"Salalah","Road_ID":"103813","Latitude":17.024102160000002,"Longitude":54.115838269999998,"GlobalID":"{ABE51DC0-F444-4480-A801-9B56F3C306C6}"}},{"type":"Feature","id":130,"geometry":{"type":"Point","coordinates":[192943.73489999957,1884485.8215999994]},"properties":{"OBJECTID":130,"Asset_ID":"SS130","Name":"تنظيف و تلميع السيارات","District_ID":"al Huseela","Gov_ID":"Dhofar Governorate","Wlyt_ID":"Salalah","Road_ID":"103813","Latitude":17.02410712,"Longitude":54.115952370000002,"GlobalID":"{35FB24DD-5A43-4B12-AE41-CD5D9DC396F3}"}},{"type":"Feature","id":131,"geometry":{"type":"Point","coordinates":[193032.77099999972,1884484.9945]},"properties":{"OBJECTID":131,"Asset_ID":"SS131","Name":"SALAMTAK FAST SERVICE CENTRE","District_ID":"al Huseela","Gov_ID":"Dhofar Governorate","Wlyt_ID":"Salalah","Road_ID":"103813","Latitude":17.024111510000001,"Longitude":54.116787989999999,"GlobalID":"{A7BDD179-1044-4426-9905-4483394DEF86}"}},{"type":"Feature","id":132,"geometry":{"type":"Point","coordinates":[193004.67520000041,1884278.2982999999]},"properties":{"OBJECTID":132,"Asset_ID":"SS132","Name":"ميزان الكتروني للسيارات و تصليح اطارات السيارات","District_ID":"al Huseela","Gov_ID":"Dhofar Governorate","Wlyt_ID":"Salalah","Road_ID":"103815","Latitude":17.022241709999999,"Longitude":54.116552939999998,"GlobalID":"{D3ADF6D8-0EF3-423B-8038-FA02A1624B7C}"}},{"type":"Feature","id":133,"geometry":{"type":"Point","coordinates":[193009.57160000037,1884278.7646999992]},"properties":{"OBJECTID":133,"Asset_ID":"SS133","Name":"تنظيف و تلميع السيارات","District_ID":"al Huseela","Gov_ID":"Dhofar Governorate","Wlyt_ID":"Salalah","Road_ID":"103815","Latitude":17.022246580000001,"Longitude":54.11659882,"GlobalID":"{B4645B14-95C1-48FF-AC31-B1C0C8CAD981}"}},{"type":"Feature","id":134,"geometry":{"type":"Point","coordinates":[193014.58449999988,1884279.8138999995]},"properties":{"OBJECTID":134,"Asset_ID":"SS134","Name":"الباهي لتلميع السيارات","District_ID":"al Huseela","Gov_ID":"Dhofar Governorate","Wlyt_ID":"Salalah","Road_ID":"103815","Latitude":17.022256720000001,"Longitude":54.116645720000001,"GlobalID":"{6A9CB103-22C1-49C4-88AF-A207808A31DC}"}},{"type":"Feature","id":135,"geometry":{"type":"Point","coordinates":[193022.16330000013,1884281.0437000003]},"properties":{"OBJECTID":135,"Asset_ID":"SS135","Name":"تنظيف و تلميع السيارات","District_ID":"al Huseela","Gov_ID":"Dhofar Governorate","Wlyt_ID":"Salalah","Road_ID":"103815","Latitude":17.022268830000002,"Longitude":54.116716670000002,"GlobalID":"{ADD6ED72-3199-40A6-895B-BC2513206750}"}},{"type":"Feature","id":136,"geometry":{"type":"Point","coordinates":[193028.09210000001,1884282.1744999997]},"properties":{"OBJECTID":136,"Asset_ID":"SS136","Name":"تصليح اطارات السيارات","District_ID":"al Huseela","Gov_ID":"Dhofar Governorate","Wlyt_ID":"Salalah","Road_ID":"103815","Latitude":17.022279829999999,"Longitude":54.116772140000002,"GlobalID":"{9A86B493-251D-46E4-AAD1-A245E33094CD}"}},{"type":"Feature","id":137,"geometry":{"type":"Point","coordinates":[193021.18719999958,1884248.5940000005]},"properties":{"OBJECTID":137,"Asset_ID":"SS137","Name":"تنظيف و تلميع السيارات","District_ID":"al Huseela","Gov_ID":"Dhofar Governorate","Wlyt_ID":"Salalah","Road_ID":"103815","Latitude":17.021975739999998,"Longitude":54.116712,"GlobalID":"{072AC5F7-5FED-403B-B4F3-B0341B5D7A94}"}},{"type":"Feature","id":138,"geometry":{"type":"Point","coordinates":[193028.87519999966,1884250.2653000001]},"properties":{"OBJECTID":138,"Asset_ID":"SS138","Name":"تنظيف و تلميع السيارات","District_ID":"al Huseela","Gov_ID":"Dhofar Governorate","Wlyt_ID":"Salalah","Road_ID":"103815","Latitude":17.021991849999999,"Longitude":54.116783910000002,"GlobalID":"{05DD254E-3336-4842-BEAC-1F7530A6161C}"}},{"type":"Feature","id":139,"geometry":{"type":"Point","coordinates":[193036.61089999974,1884251.6500000004]},"properties":{"OBJECTID":139,"Asset_ID":"SS139","Name":"تنظيف و تلميع السيارات","District_ID":"al Huseela","Gov_ID":"Dhofar Governorate","Wlyt_ID":"Salalah","Road_ID":"103815","Latitude":17.02200538,"Longitude":54.116856310000003,"GlobalID":"{4961D2EB-4936-4E35-B184-51F3C0776B13}"}},{"type":"Feature","id":140,"geometry":{"type":"Point","coordinates":[193041.72020000033,1884252.6527999993]},"properties":{"OBJECTID":140,"Asset_ID":"SS140","Name":"تنظيف و تلميع السيارات","District_ID":"al Huseela","Gov_ID":"Dhofar Governorate","Wlyt_ID":"Salalah","Road_ID":"103815","Latitude":17.022015119999999,"Longitude":54.11690411,"GlobalID":"{ED1529B3-A456-48A2-8D56-1AE84E20CBEF}"}},{"type":"Feature","id":141,"geometry":{"type":"Point","coordinates":[193051.77350000013,1884254.6326000001]},"properties":{"OBJECTID":141,"Asset_ID":"SS141","Name":"محطة غسيل و تشحيم المركبات","District_ID":"al Huseela","Gov_ID":"Dhofar Governorate","Wlyt_ID":"Salalah","Road_ID":"103815","Latitude":17.02203433,"Longitude":54.116998180000003,"GlobalID":"{76DADD43-485B-4372-9B84-63D260EBCD58}"}},{"type":"Feature","id":142,"geometry":{"type":"Point","coordinates":[193059.15539999958,1884256.3206999991]},"properties":{"OBJECTID":142,"Asset_ID":"SS142","Name":"تنظيف و تلميع السيارات","District_ID":"al Huseela","Gov_ID":"Dhofar Governorate","Wlyt_ID":"Salalah","Road_ID":"103815","Latitude":17.022050549999999,"Longitude":54.117067210000002,"GlobalID":"{2A099860-41D2-4AD0-A486-3BFD68AD3548}"}},{"type":"Feature","id":143,"geometry":{"type":"Point","coordinates":[193102.04129999969,1884264.7677999996]},"properties":{"OBJECTID":143,"Asset_ID":"SS143","Name":"تنظيف و تلميع السيارات","District_ID":"al Huseela","Gov_ID":"Dhofar Governorate","Wlyt_ID":"Salalah","Road_ID":"103815","Latitude":17.02213252,"Longitude":54.117468479999999,"GlobalID":"{76F246A0-32DC-4565-B4FD-23FBAD796776}"}},{"type":"Feature","id":144,"geometry":{"type":"Point","coordinates":[193112.97070000041,1884266.9537000004]},"properties":{"OBJECTID":144,"Asset_ID":"SS144","Name":"تنظيف و تلميع السيارات","District_ID":"al Huseela","Gov_ID":"Dhofar Governorate","Wlyt_ID":"Salalah","Road_ID":"103815","Latitude":17.022153710000001,"Longitude":54.117570739999998,"GlobalID":"{C1AF8322-BDB1-4CDA-9E16-0E6B8A37C732}"}},{"type":"Feature","id":145,"geometry":{"type":"Point","coordinates":[193172.90000000037,1884270.4875000007]},"properties":{"OBJECTID":145,"Asset_ID":"SS145","Name":"اصلاح كهرباء المركبات","District_ID":"al Huseela","Gov_ID":"Dhofar Governorate","Wlyt_ID":"Salalah","Road_ID":"103815","Latitude":17.022193590000001,"Longitude":54.118132610000004,"GlobalID":"{BE49872C-C652-4827-9A8E-26BE19337DF8}"}},{"type":"Feature","id":146,"geometry":{"type":"Point","coordinates":[193188.75490000006,1884282.0614999998]},"properties":{"OBJECTID":146,"Asset_ID":"SS146","Name":"تنظيف و تلميع السيارات","District_ID":"al Huseela","Gov_ID":"Dhofar Governorate","Wlyt_ID":"Salalah","Road_ID":"103815","Latitude":17.022300189999999,"Longitude":54.118279790000003,"GlobalID":"{9F0C373C-7251-4E01-B2D0-B2F9B7F73C9F}"}},{"type":"Feature","id":147,"geometry":{"type":"Point","coordinates":[193202.40869999956,1884284.7475000005]},"properties":{"OBJECTID":147,"Asset_ID":"SS147","Name":"تنظيف و تلميع السيارات","District_ID":"al Huseela","Gov_ID":"Dhofar Governorate","Wlyt_ID":"Salalah","Road_ID":"103815","Latitude":17.022326249999999,"Longitude":54.118407550000001,"GlobalID":"{FEC80930-5826-4C9B-86BE-AD62540EA8BC}"}},{"type":"Feature","id":148,"geometry":{"type":"Point","coordinates":[193211.7620000001,1884287.0336000007]},"properties":{"OBJECTID":148,"Asset_ID":"SS148","Name":"بيع زينة و اكسسوارات المركبات","District_ID":"al Huseela","Gov_ID":"Dhofar Governorate","Wlyt_ID":"Salalah","Road_ID":"103815","Latitude":17.022348130000001,"Longitude":54.118495000000003,"GlobalID":"{6BC775A2-6BED-40F7-94DB-EC9F17A7A232}"}},{"type":"Feature","id":149,"geometry":{"type":"Point","coordinates":[193228.15890000015,1884290.4227000009]},"properties":{"OBJECTID":149,"Asset_ID":"SS149","Name":"تنظيف و تلميع السيارات","District_ID":"al Huseela","Gov_ID":"Dhofar Governorate","Wlyt_ID":"Salalah","Road_ID":"103815","Latitude":17.022380909999999,"Longitude":54.118648399999998,"GlobalID":"{086A9976-98CE-4525-90DB-8B45ECFCD64A}"}},{"type":"Feature","id":150,"geometry":{"type":"Point","coordinates":[193373.06769999955,1884353.9586999994]},"properties":{"OBJECTID":150,"Asset_ID":"SS150","Name":"الرغوة لتلميع و تنظيف السيارات","District_ID":"al Huseela","Gov_ID":"Dhofar Governorate","Wlyt_ID":"Salalah","Road_ID":"103815","Latitude":17.022973790000002,"Longitude":54.119999419999999,"GlobalID":"{1088735F-4D50-48A8-8896-9214CAE8C07A}"}},{"type":"Feature","id":151,"geometry":{"type":"Point","coordinates":[193351.55640000012,1884349.5099999998]},"properties":{"OBJECTID":151,"Asset_ID":"SS151","Name":"تنظيف و تلميع السيارات","District_ID":"al Huseela","Gov_ID":"Dhofar Governorate","Wlyt_ID":"Salalah","Road_ID":"103815","Latitude":17.022930769999999,"Longitude":54.119798179999997,"GlobalID":"{71CEB301-68C3-4819-A38B-4EAF9838E408}"}},{"type":"Feature","id":152,"geometry":{"type":"Point","coordinates":[193340.43929999974,1884347.1971000005]},"properties":{"OBJECTID":152,"Asset_ID":"SS152","Name":"تنظيف و تلميع السيارات","District_ID":"al Huseela","Gov_ID":"Dhofar Governorate","Wlyt_ID":"Salalah","Road_ID":"103815","Latitude":17.022908409999999,"Longitude":54.119694170000002,"GlobalID":"{D86AAD3D-0FBF-44A2-A089-7567641A704F}"}},{"type":"Feature","id":153,"geometry":{"type":"Point","coordinates":[192957.26970000006,1884336.4614000004]},"properties":{"OBJECTID":153,"Asset_ID":"SS153","Name":"اصلاح كهرباء المركبات و شحن البطاريات","District_ID":"al Huseela","Gov_ID":"Dhofar Governorate","Wlyt_ID":"Salalah","Road_ID":"103816","Latitude":17.0227605,"Longitude":54.11610005,"GlobalID":"{30C91449-4EAE-48E8-BA24-4568975C5F9F}"}},{"type":"Feature","id":154,"geometry":{"type":"Point","coordinates":[193003.3208999997,1884335.8831999991]},"properties":{"OBJECTID":154,"Asset_ID":"SS154","Name":"تبديل زيوت المركبات","District_ID":"al Huseela","Gov_ID":"Dhofar Governorate","Wlyt_ID":"Salalah","Road_ID":"103814","Latitude":17.022761410000001,"Longitude":54.11653226,"GlobalID":"{5FCB93FE-5CCE-4A7F-B0A7-5CBF8162E5AB}"}},{"type":"Feature","id":155,"geometry":{"type":"Point","coordinates":[193059.86419999972,1884368.7410000004]},"properties":{"OBJECTID":155,"Asset_ID":"SS155","Name":"Car Care Products","District_ID":"al Huseela","Gov_ID":"Dhofar Governorate","Wlyt_ID":"Salalah","Road_ID":"103814","Latitude":17.023065580000001,"Longitude":54.117058309999997,"GlobalID":"{511A04B9-AF2C-41BF-8DDC-5281946919A0}"}},{"type":"Feature","id":156,"geometry":{"type":"Point","coordinates":[193211.7620000001,1884287.0336000007]},"properties":{"OBJECTID":156,"Asset_ID":"SS156","Name":"بيع زينة و اكسسوارات المركبات","District_ID":"al Huseela","Gov_ID":"2","Wlyt_ID":"Salalah","Road_ID":"103815","Latitude":17.022348130000001,"Longitude":54.118495000000003,"GlobalID":"{5AF64F2B-802A-455A-8B5B-0A1AF4138D1F}"}},{"type":"Feature","id":157,"geometry":{"type":"Point","coordinates":[193228.15890000015,1884290.4227000009]},"properties":{"OBJECTID":157,"Asset_ID":"SS157","Name":"تنظيف و تلميع السيارات","District_ID":"al Huseela","Gov_ID":"2","Wlyt_ID":"Salalah","Road_ID":"103815","Latitude":17.022380909999999,"Longitude":54.118648399999998,"GlobalID":"{26259CA1-D437-42DA-B11A-08C5961B5414}"}},{"type":"Feature","id":158,"geometry":{"type":"Point","coordinates":[193373.06769999955,1884353.9586999994]},"properties":{"OBJECTID":158,"Asset_ID":"SS158","Name":"الرغوة لتلميع و تنظيف السيارات","District_ID":"al Huseela","Gov_ID":"2","Wlyt_ID":"Salalah","Road_ID":"103815","Latitude":17.022973790000002,"Longitude":54.119999419999999,"GlobalID":"{42802B0A-6BCE-4479-8247-9BB507787417}"}},{"type":"Feature","id":159,"geometry":{"type":"Point","coordinates":[193351.55640000012,1884349.5099999998]},"properties":{"OBJECTID":159,"Asset_ID":"SS159","Name":"تنظيف و تلميع السيارات","District_ID":"al Huseela","Gov_ID":"2","Wlyt_ID":"Salalah","Road_ID":"103815","Latitude":17.022930769999999,"Longitude":54.119798179999997,"GlobalID":"{1A1E9D73-981A-47E6-8208-4DCDDE71FBC7}"}},{"type":"Feature","id":160,"geometry":{"type":"Point","coordinates":[193340.43929999974,1884347.1971000005]},"properties":{"OBJECTID":160,"Asset_ID":"SS160","Name":"تنظيف و تلميع السيارات","District_ID":"al Huseela","Gov_ID":"2","Wlyt_ID":"Salalah","Road_ID":"103815","Latitude":17.022908409999999,"Longitude":54.119694170000002,"GlobalID":"{F42D7C04-8502-45A6-8499-68B77619D7C6}"}},{"type":"Feature","id":161,"geometry":{"type":"Point","coordinates":[192957.26970000006,1884336.4614000004]},"properties":{"OBJECTID":161,"Asset_ID":"SS161","Name":"اصلاح كهرباء المركبات و شحن البطاريات","District_ID":"al Huseela","Gov_ID":"2","Wlyt_ID":"Salalah","Road_ID":"103816","Latitude":17.0227605,"Longitude":54.11610005,"GlobalID":"{57E1BB4E-EFEE-4516-B314-8330F35C9DC0}"}},{"type":"Feature","id":162,"geometry":{"type":"Point","coordinates":[193003.3208999997,1884335.8831999991]},"properties":{"OBJECTID":162,"Asset_ID":"SS162","Name":"تبديل زيوت المركبات","District_ID":"al Huseela","Gov_ID":"2","Wlyt_ID":"Salalah","Road_ID":"103814","Latitude":17.022761410000001,"Longitude":54.11653226,"GlobalID":"{77B835DB-968B-48F7-97F3-3FA875406FCC}"}},{"type":"Feature","id":163,"geometry":{"type":"Point","coordinates":[193059.86419999972,1884368.7410000004]},"properties":{"OBJECTID":163,"Asset_ID":"SS163","Name":"Car Care Products","District_ID":"al Huseela","Gov_ID":"2","Wlyt_ID":"Salalah","Road_ID":"103814","Latitude":17.023065580000001,"Longitude":54.117058309999997,"GlobalID":"{8E4DA01D-26F3-4A3F-BB64-4215CE2E3A90}"}},{"type":"Feature","id":164,"geometry":{"type":"Point","coordinates":[192958.82980000041,1884331.9997000005]},"properties":{"OBJECTID":164,"Asset_ID":"SS164","Name":"اصلاح كهرباء السيارات و شحن البطاريات","District_ID":"al Huseela","Gov_ID":"2","Wlyt_ID":"Salalah","Road_ID":"103816","Latitude":17.02272043,"Longitude":54.116115299999997,"GlobalID":"{D28D807D-947D-4633-BD0B-F00FF21B73B1}"}},{"type":"Feature","id":165,"geometry":{"type":"Point","coordinates":[192959.62650000025,1884327.0745999999]},"properties":{"OBJECTID":165,"Asset_ID":"SS165","Name":"اصلاح ريديتر المركبات و تنظيفها ","District_ID":"al Huseela","Gov_ID":"2","Wlyt_ID":"Salalah","Road_ID":"103816","Latitude":17.022676069999999,"Longitude":54.116123459999997,"GlobalID":"{CE1654C0-3923-44BF-9DB4-8FA3D9F469F8}"}},{"type":"Feature","id":166,"geometry":{"type":"Point","coordinates":[192965.9095999999,1884288.7967000008]},"properties":{"OBJECTID":166,"Asset_ID":"SS166","Name":"Al Nawras Car Polishing","District_ID":"al Huseela","Gov_ID":"2","Wlyt_ID":"Salalah","Road_ID":"103816","Latitude":17.02233133,"Longitude":54.116187719999999,"GlobalID":"{E00CE486-181C-45BA-B61E-864157F60AA2}"}},{"type":"Feature","id":167,"geometry":{"type":"Point","coordinates":[192993.01329999976,1884324.8451000005]},"properties":{"OBJECTID":167,"Asset_ID":"SS167","Name":"اصلاح كهرباء المركبات","District_ID":"al Huseela","Gov_ID":"2","Wlyt_ID":"Salalah","Road_ID":"103816","Latitude":17.022660389999999,"Longitude":54.116437070000003,"GlobalID":"{028BA11F-FB2F-4C5D-A982-A7ED563F38F8}"}},{"type":"Feature","id":168,"geometry":{"type":"Point","coordinates":[192994.09609999973,1884319.1973999999]},"properties":{"OBJECTID":168,"Asset_ID":"SS168","Name":"بيع الأطارات و لوازمها","District_ID":"al Huseela","Gov_ID":"2","Wlyt_ID":"Salalah","Road_ID":"103816","Latitude":17.022609540000001,"Longitude":54.116448009999999,"GlobalID":"{4F7C5599-10DA-4B03-A60E-7585BC2E483C}"}},{"type":"Feature","id":169,"geometry":{"type":"Point","coordinates":[193020.33220000006,1884191.9107000008]},"properties":{"OBJECTID":169,"Asset_ID":"SS169","Name":"اصلاح كهرباء المركبات و شحن البطاريات","District_ID":"al Huseela","Gov_ID":"2","Wlyt_ID":"Salalah","Road_ID":"103816","Latitude":17.02146389,"Longitude":54.116711819999999,"GlobalID":"{0E5966B6-ED6D-441F-85B5-0C462F45F0C6}"}},{"type":"Feature","id":170,"geometry":{"type":"Point","coordinates":[193023.79710000008,1884162.1575000007]},"properties":{"OBJECTID":170,"Asset_ID":"SS170","Name":"محطة غسيل و تشحيم المركبات","District_ID":"al Huseela","Gov_ID":"2","Wlyt_ID":"Salalah","Road_ID":"103816","Latitude":17.02119574,"Longitude":54.116748450000003,"GlobalID":"{FD67FACF-F9F7-461C-AC0C-786053C1B5B5}"}},{"type":"Feature","id":171,"geometry":{"type":"Point","coordinates":[193026.68059999961,1884147.5634000003]},"properties":{"OBJECTID":171,"Asset_ID":"SS171","Name":"تصليح كهرباء السيارة","District_ID":"al Huseela","Gov_ID":"2","Wlyt_ID":"Salalah","Road_ID":"103816","Latitude":17.021064370000001,"Longitude":54.116777519999999,"GlobalID":"{CF56169D-5CBA-440A-A85E-C2C067850D5B}"}},{"type":"Feature","id":172,"geometry":{"type":"Point","coordinates":[193027.81230000034,1884142.0182000007]},"properties":{"OBJECTID":172,"Asset_ID":"SS172","Name":"كهربائي سيارات","District_ID":"al Huseela","Gov_ID":"2","Wlyt_ID":"Salalah","Road_ID":"103816","Latitude":17.021014449999999,"Longitude":54.116788909999997,"GlobalID":"{3175951D-0DF7-4B05-A732-363447BEAC02}"}},{"type":"Feature","id":173,"geometry":{"type":"Point","coordinates":[193079.24749999959,1884136.3792000003]},"properties":{"OBJECTID":173,"Asset_ID":"SS173","Name":"بيع الاطارات و لوازمها ","District_ID":"al Huseela","Gov_ID":"2","Wlyt_ID":"Salalah","Road_ID":"103981","Latitude":17.020970389999999,"Longitude":54.11727235,"GlobalID":"{9D9BF9D1-0F06-4687-AAF4-C8600C1519AB}"}},{"type":"Feature","id":174,"geometry":{"type":"Point","coordinates":[193110.3300999999,1884142.8790000007]},"properties":{"OBJECTID":174,"Asset_ID":"SS174","Name":"دانوب","District_ID":"al Huseela","Gov_ID":"2","Wlyt_ID":"Salalah","Road_ID":"103981","Latitude":17.021033209999999,"Longitude":54.11756312,"GlobalID":"{C4681212-FBC1-42D3-B1BB-FFE5121D39D8}"}},{"type":"Feature","id":175,"geometry":{"type":"Point","coordinates":[196216.95909999963,1892113.8875999991]},"properties":{"OBJECTID":175,"Asset_ID":"SS175","Name":"خدمتك","District_ID":"Salalah Wellfield","Gov_ID":"2","Wlyt_ID":"Salalah","Road_ID":"100530","Latitude":17.093408549999999,"Longitude":54.145621439999999,"GlobalID":"{59DB45F6-C576-44AD-88EE-4E0072ADE397}"}},{"type":"Feature","id":176,"geometry":{"type":"Point","coordinates":[197582.67200000025,1890885.0242999997]},"properties":{"OBJECTID":176,"Asset_ID":"SS176","Name":"محطة تغيير الزيوت","District_ID":"al Sada al Shamaliyya","Gov_ID":"2","Wlyt_ID":"Salalah","Road_ID":"102597","Latitude":17.082494310000001,"Longitude":54.158610549999999,"GlobalID":"{913A0A03-5D7C-4004-82A1-11A19C79802C}"}},{"type":"Feature","id":177,"geometry":{"type":"Point","coordinates":[182751.11649999954,1882884.0080999993]},"properties":{"OBJECTID":177,"Asset_ID":"SS177","Name":"غسيل السيارات يدويا","District_ID":"Auqad al Shamaliyya","Gov_ID":"2","Wlyt_ID":"Salalah","Road_ID":"105777","Latitude":17.00826747,"Longitude":54.020539079999999,"GlobalID":"{BE009665-B2B9-4C26-A83E-93E52309FC65}"}},{"type":"Feature","id":178,"geometry":{"type":"Point","coordinates":[182488.83750000037,1883354.4153000005]},"properties":{"OBJECTID":178,"Asset_ID":"SS178","Name":"بيع اكسسوارات و زينة المركبات","District_ID":"Auqad al Shamaliyya","Gov_ID":"2","Wlyt_ID":"Salalah","Road_ID":"105818","Latitude":17.012477879999999,"Longitude":54.018011039999998,"GlobalID":"{771A5369-9E01-4AEC-8BC6-0BF466BA6E63}"}},{"type":"Feature","id":179,"geometry":{"type":"Point","coordinates":[182720.84920000006,1883038.3300999999]},"properties":{"OBJECTID":179,"Asset_ID":"SS179","Name":"بيع و تركيب و اصلاح زينة و اكسسوارات المركبات","District_ID":"Auqad al Shamaliyya","Gov_ID":"2","Wlyt_ID":"Salalah","Road_ID":"105802","Latitude":17.009656410000002,"Longitude":54.020233060000002,"GlobalID":"{471CE3F6-A1F4-4904-9D95-2E3EB15871C4}"}},{"type":"Feature","id":180,"geometry":{"type":"Point","coordinates":[182751.74710000027,1882920.2864999995]},"properties":{"OBJECTID":180,"Asset_ID":"SS180","Name":"بيع الاطارات و لوازمها","District_ID":"Auqad al Shamaliyya","Gov_ID":"2","Wlyt_ID":"Salalah","Road_ID":"105777","Latitude":17.00859505,"Longitude":54.020539820000003,"GlobalID":"{95CF8175-DC9E-4B39-AA31-D4FD774CC6BE}"}}]
}