{
  "type" : "FeatureCollection",
  "crs" : {
    "type" : "name",
    "properties" : {
      "name" : "EPSG:32640"
    }
  },
  "features" : [{"type":"Feature","id":28,"geometry":{"type":"Point","coordinates":[204066.95529999956,1894384.5102999993]},"properties":{"OBJECTID":28,"Asset_ID":"SM28","Name":"نيو مارت\r\n","District_ID":null,"Gov_ID":"Dhofar Governorate","Wlyt_ID":"Salalah","Road_ID":"101947","Latitude":17.114934720000001,"Longitude":54.219012210000002,"GlobalID":"{BCB09D20-DEDC-47C1-99A3-D4AAE78C5A1D}"}},{"type":"Feature","id":29,"geometry":{"type":"Point","coordinates":[202170.47840000037,1893252.2979000006]},"properties":{"OBJECTID":29,"Asset_ID":"SM29","Name":"الزاهيه مارت\r\n","District_ID":null,"Gov_ID":"Dhofar Governorate","Wlyt_ID":"Salalah","Road_ID":"101812","Latitude":17.104466859999999,"Longitude":54.201358669999998,"GlobalID":"{26E9A133-017F-4666-8190-3DD59D4C4B7F}"}},{"type":"Feature","id":30,"geometry":{"type":"Point","coordinates":[201149.19710000046,1893326.6602999996]},"properties":{"OBJECTID":30,"Asset_ID":"SM30","Name":"Al Reef Commercial Market","District_ID":null,"Gov_ID":"Dhofar Governorate","Wlyt_ID":"Salalah","Road_ID":"101984","Latitude":17.105005439999999,"Longitude":54.191760209999998,"GlobalID":"{38D8D86B-4E42-45DF-981E-ED281907D6F4}"}},{"type":"Feature","id":31,"geometry":{"type":"Point","coordinates":[198152.18149999995,1895779.3472000007]},"properties":{"OBJECTID":31,"Asset_ID":"SM31","Name":"Wadi alnoor supermarket","District_ID":null,"Gov_ID":"Dhofar Governorate","Wlyt_ID":"Salalah","Road_ID":"102051","Latitude":17.126756709999999,"Longitude":54.163287070000003,"GlobalID":"{D81D96E0-885F-42A5-ACD4-2D2852CDDB1A}"}},{"type":"Feature","id":32,"geometry":{"type":"Point","coordinates":[196800.86400000006,1892739.5366999991]},"properties":{"OBJECTID":32,"Asset_ID":"SM32","Name":"968 MART","District_ID":null,"Gov_ID":"Dhofar Governorate","Wlyt_ID":"Salalah","Road_ID":"101857","Latitude":17.099134240000001,"Longitude":54.151017000000003,"GlobalID":"{09464EA1-E5DB-4577-B86D-BE3FA78659DD}"}},{"type":"Feature","id":33,"geometry":{"type":"Point","coordinates":[196320.90139999986,1892678.1098999996]},"properties":{"OBJECTID":33,"Asset_ID":"SM33","Name":"New Mart","District_ID":null,"Gov_ID":"Dhofar Governorate","Wlyt_ID":"Salalah","Road_ID":"102167","Latitude":17.09851621,"Longitude":54.146519589999997,"GlobalID":"{6A83ABA6-25BE-4002-B13E-0C88DF531AA8}"}},{"type":"Feature","id":34,"geometry":{"type":"Point","coordinates":[195862.07409999985,1892417.3466999996]},"properties":{"OBJECTID":34,"Asset_ID":"SM34","Name":"Masum commercial Market","District_ID":null,"Gov_ID":"Dhofar Governorate","Wlyt_ID":"Salalah","Road_ID":"102168","Latitude":17.09610125,"Longitude":54.142248109999997,"GlobalID":"{8B9A89D1-6F83-4099-A7D1-FF0BEF573971}"}},{"type":"Feature","id":35,"geometry":{"type":"Point","coordinates":[196453.93369999994,1892952.3036000002]},"properties":{"OBJECTID":35,"Asset_ID":"SM35","Name":"سوق تجاري","District_ID":null,"Gov_ID":"Dhofar Governorate","Wlyt_ID":"Salalah","Road_ID":"102167","Latitude":17.10100928,"Longitude":54.147730780000003,"GlobalID":"{7BABE983-A4D5-4580-A291-1F202E88E990}"}},{"type":"Feature","id":36,"geometry":{"type":"Point","coordinates":[195969.58849999961,1892624.4586999994]},"properties":{"OBJECTID":36,"Asset_ID":"SM36","Name":"JAFOR SUPER MARKET","District_ID":null,"Gov_ID":"Dhofar Governorate","Wlyt_ID":"Salalah","Road_ID":"102220","Latitude":17.09798533,"Longitude":54.143228909999998,"GlobalID":"{D2F41869-BDF7-4DBF-BC76-FAA0AD69454F}"}},{"type":"Feature","id":37,"geometry":{"type":"Point","coordinates":[193712.47410000023,1892172.4527000003]},"properties":{"OBJECTID":37,"Asset_ID":"SM37","Name":"سوق تجاري","District_ID":null,"Gov_ID":"Dhofar Governorate","Wlyt_ID":"Salalah","Road_ID":"102172","Latitude":17.093604540000001,"Longitude":54.122102419999997,"GlobalID":"{06095FE9-5F3C-4B58-85BD-97A66BFA7C48}"}},{"type":"Feature","id":38,"geometry":{"type":"Point","coordinates":[193443.44049999956,1892391.8641999997]},"properties":{"OBJECTID":38,"Asset_ID":"SM38","Name":"سوق تجاري","District_ID":null,"Gov_ID":"Dhofar Governorate","Wlyt_ID":"Salalah","Road_ID":"102172","Latitude":17.095549479999999,"Longitude":54.11954643,"GlobalID":"{CDADB62E-8BAF-4B2A-AF95-70589FDBD1B5}"}},{"type":"Feature","id":39,"geometry":{"type":"Point","coordinates":[191030.72699999996,1892154.7456999999]},"properties":{"OBJECTID":39,"Asset_ID":"SM39","Name":"سوق تجاري","District_ID":null,"Gov_ID":"Dhofar Governorate","Wlyt_ID":"Salalah","Road_ID":"102196","Latitude":17.093085380000002,"Longitude":54.096930479999997,"GlobalID":"{AD537545-A66F-4912-9977-D7B6D5C16C9A}"}},{"type":"Feature","id":40,"geometry":{"type":"Point","coordinates":[190312.47950000037,1891780.1415999997]},"properties":{"OBJECTID":40,"Asset_ID":"SM40","Name":"سوق انوار الريف تجاري","District_ID":null,"Gov_ID":"Dhofar Governorate","Wlyt_ID":"Salalah","Road_ID":"102263","Latitude":17.08960678,"Longitude":54.090240690000002,"GlobalID":"{CAAA65DF-628B-405B-A33A-8E39A1BDD40C}"}},{"type":"Feature","id":41,"geometry":{"type":"Point","coordinates":[188394.13109999988,1890974.1542000007]},"properties":{"OBJECTID":41,"Asset_ID":"SM41","Name":"NawahiDhofar wholesale & commercial market","District_ID":null,"Gov_ID":"Dhofar Governorate","Wlyt_ID":"Salalah","Road_ID":"102206","Latitude":17.082071160000002,"Longitude":54.072347049999998,"GlobalID":"{D7A906AE-005F-45CF-8DA6-AEE3DAD1949E}"}},{"type":"Feature","id":42,"geometry":{"type":"Point","coordinates":[188087.41270000022,1891013.2793000005]},"properties":{"OBJECTID":42,"Asset_ID":"SM42","Name":"Ittin Market","District_ID":null,"Gov_ID":"Dhofar Governorate","Wlyt_ID":"Salalah","Road_ID":"102278","Latitude":17.082382750000001,"Longitude":54.069462540000004,"GlobalID":"{5AC3CC9C-A9F1-498B-BA8A-C7B81DE8A439}"}},{"type":"Feature","id":43,"geometry":{"type":"Point","coordinates":[188308.2731999997,1891813.0638999995]},"properties":{"OBJECTID":43,"Asset_ID":"SM43","Name":"سوق تجاري","District_ID":null,"Gov_ID":"Dhofar Governorate","Wlyt_ID":"Salalah","Road_ID":"102316","Latitude":17.089632859999998,"Longitude":54.071422800000001,"GlobalID":"{01350E52-B61B-4D9B-908C-4ADA91007804}"}},{"type":"Feature","id":44,"geometry":{"type":"Point","coordinates":[187002.24490000028,1890189.6115000006]},"properties":{"OBJECTID":44,"Asset_ID":"SM44","Name":"سوق تجاري","District_ID":null,"Gov_ID":"Dhofar Governorate","Wlyt_ID":"Salalah","Road_ID":"104611","Latitude":17.074799509999998,"Longitude":54.059393370000002,"GlobalID":"{77842A12-3B52-4ABC-AC4A-40C2F6AD8C73}"}},{"type":"Feature","id":45,"geometry":{"type":"Point","coordinates":[185909.18790000025,1889223.0251000002]},"properties":{"OBJECTID":45,"Asset_ID":"SM45","Name":"سوق الميادين التجاري\r\n","District_ID":null,"Gov_ID":"Dhofar Governorate","Wlyt_ID":"Salalah","Road_ID":"104615","Latitude":17.065924620000001,"Longitude":54.04927129,"GlobalID":"{781FD6C9-791A-4FC3-AD08-5D707F380713}"}},{"type":"Feature","id":46,"geometry":{"type":"Point","coordinates":[186886.15199999977,1887379.0467000008]},"properties":{"OBJECTID":46,"Asset_ID":"SM46","Name":"سوق تجاري","District_ID":null,"Gov_ID":"Dhofar Governorate","Wlyt_ID":"Salalah","Road_ID":"104623","Latitude":17.049411280000001,"Longitude":54.058701419999998,"GlobalID":"{AC63E6E8-7B50-4423-925A-AAF77418004D}"}},{"type":"Feature","id":47,"geometry":{"type":"Point","coordinates":[186826.68900000025,1887350.0607999992]},"properties":{"OBJECTID":47,"Asset_ID":"SM47","Name":"سوق تجاري","District_ID":null,"Gov_ID":"Dhofar Governorate","Wlyt_ID":"Salalah","Road_ID":"104616","Latitude":17.049141519999999,"Longitude":54.058147470000002,"GlobalID":"{B3788EA7-1ED4-4EBB-B022-579B6D9ED0A7}"}},{"type":"Feature","id":48,"geometry":{"type":"Point","coordinates":[183908.34310000017,1885817.4374000002]},"properties":{"OBJECTID":48,"Asset_ID":"SM48","Name":"رسيم مارت","District_ID":"Auqad al Shamaliyya Extension","Gov_ID":"Dhofar Governorate","Wlyt_ID":"Salalah","Road_ID":"104737","Latitude":17.034907260000001,"Longitude":54.030978730000001,"GlobalID":"{5F331E65-DD60-488C-B4C1-C3B33547500C}"}},{"type":"Feature","id":49,"geometry":{"type":"Point","coordinates":[184188.84210000001,1886952.1278000008]},"properties":{"OBJECTID":49,"Asset_ID":"SM49","Name":"شركة دار الدبلة للتجارة سوق تجاري\r\n","District_ID":"Auqad al Shamaliyya Extension","Gov_ID":"Dhofar Governorate","Wlyt_ID":"Salalah","Road_ID":"104779","Latitude":17.045188939999999,"Longitude":54.033449169999997,"GlobalID":"{98DAFD8D-3D54-4F28-BD1C-2375C03C10B9}"}},{"type":"Feature","id":50,"geometry":{"type":"Point","coordinates":[183009.72169999965,1887331.5971000008]},"properties":{"OBJECTID":50,"Asset_ID":"SM50","Name":"Super market","District_ID":null,"Gov_ID":"Dhofar Governorate","Wlyt_ID":"Salalah","Road_ID":"105071","Latitude":17.0484525,"Longitude":54.022329740000004,"GlobalID":"{E39FC9FE-38FC-41EF-9F18-23050174D0F8}"}},{"type":"Feature","id":51,"geometry":{"type":"Point","coordinates":[183062.67509999964,1886679.2906999998]},"properties":{"OBJECTID":51,"Asset_ID":"SM51","Name":"زد مارت","District_ID":null,"Gov_ID":"Dhofar Governorate","Wlyt_ID":"Salalah","Road_ID":"104611","Latitude":17.04257127,"Longitude":54.022919999999999,"GlobalID":"{E902A232-4C18-411E-9ACC-168CE1E38866}"}},{"type":"Feature","id":52,"geometry":{"type":"Point","coordinates":[182536.16330000013,1885631.5866]},"properties":{"OBJECTID":52,"Asset_ID":"SM52","Name":"سوق تجاري","District_ID":"Auqad al Shamaliyya Extension","Gov_ID":"Dhofar Governorate","Wlyt_ID":"Salalah","Road_ID":"104816","Latitude":17.033040920000001,"Longitude":54.018129260000002,"GlobalID":"{02835CB8-313B-4FC9-BB51-571FE948BAB0}"}},{"type":"Feature","id":53,"geometry":{"type":"Point","coordinates":[182974.54030000046,1886330.0761999991]},"properties":{"OBJECTID":53,"Asset_ID":"SM53","Name":"Makka Super Market","District_ID":"Auqad al Shamaliyya Extension","Gov_ID":"Dhofar Governorate","Wlyt_ID":"Salalah","Road_ID":"104841","Latitude":17.039406700000001,"Longitude":54.022142889999998,"GlobalID":"{FB99E453-4095-459B-A9DC-50FAA9B3CAF0}"}},{"type":"Feature","id":54,"geometry":{"type":"Point","coordinates":[188378.73440000042,1883234.6450999994]},"properties":{"OBJECTID":54,"Asset_ID":"SM54","Name":"اسواق هدايا صلالة","District_ID":"Salalah al Jadida","Gov_ID":"2","Wlyt_ID":"Salalah","Road_ID":"100583","Latitude":17.01219953,"Longitude":54.073291359999999,"GlobalID":"{B2425B29-CDAE-4275-A4F1-2DB3028E38A8}"}},{"type":"Feature","id":55,"geometry":{"type":"Point","coordinates":[188336.28199999966,1883171.9991999995]},"properties":{"OBJECTID":55,"Asset_ID":"SM55","Name":"مركز باضاوي للتسوق","District_ID":"al Wadi","Gov_ID":"2","Wlyt_ID":"Salalah","Road_ID":"100583","Latitude":17.011665730000001,"Longitude":54.072874659999997,"GlobalID":"{357B26D9-8E69-4E44-B22A-C1B160251C82}"}},{"type":"Feature","id":56,"geometry":{"type":"Point","coordinates":[188578.71160000004,1883226.4882999994]},"properties":{"OBJECTID":56,"Asset_ID":"SM56","Name":" الاستقرار هايبرماركت","District_ID":"Salalah al Jadida","Gov_ID":"2","Wlyt_ID":"Salalah","Road_ID":"104306","Latitude":17.012152889999999,"Longitude":54.07516888,"GlobalID":"{3E5534D7-B9A7-42D5-A321-64777EB5270D}"}},{"type":"Feature","id":57,"geometry":{"type":"Point","coordinates":[188894.48220000044,1883887.0125999991]},"properties":{"OBJECTID":57,"Asset_ID":"SM57","Name":"سوق تجاري","District_ID":"Salalah al Jadida","Gov_ID":"2","Wlyt_ID":"Salalah","Road_ID":"104288","Latitude":17.018158499999998,"Longitude":54.078039179999998,"GlobalID":"{8F2DE790-9095-4938-87C5-A5B8FED33F20}"}},{"type":"Feature","id":58,"geometry":{"type":"Point","coordinates":[189601.25779999979,1884164.1357000005]},"properties":{"OBJECTID":58,"Asset_ID":"SM58","Name":"Real Mart","District_ID":"Salalah al Jadida","Gov_ID":"2","Wlyt_ID":"Salalah","Road_ID":"104252","Latitude":17.020755520000002,"Longitude":54.084632329999998,"GlobalID":"{CF0274D3-4141-471A-9257-9DED9DDE6E5D}"}},{"type":"Feature","id":59,"geometry":{"type":"Point","coordinates":[197114.71449999977,1885980.5529999994]},"properties":{"OBJECTID":59,"Asset_ID":"SM59","Name":" محلات الصفاء ستي","District_ID":"al Sada al Janubiyya","Gov_ID":"2","Wlyt_ID":"Salalah","Road_ID":"100196","Latitude":17.038153690000001,"Longitude":54.15488903,"GlobalID":"{1E7330A4-8EDB-4F92-B531-69ABA0EC7157}"}},{"type":"Feature","id":60,"geometry":{"type":"Point","coordinates":[197909.07519999985,1884018.5679000001]},"properties":{"OBJECTID":60,"Asset_ID":"SM60","Name":"سوق شاطئ الدهاريز التجاري","District_ID":"Dahariz al Shamaliyya","Gov_ID":"2","Wlyt_ID":"Salalah","Road_ID":"100002","Latitude":17.020544439999998,"Longitude":54.162611349999999,"GlobalID":"{70DD0CFE-F1F2-41B5-A85E-0C2B58A6FFFC}"}},{"type":"Feature","id":61,"geometry":{"type":"Point","coordinates":[198317.47829999961,1884224.5043000001]},"properties":{"OBJECTID":61,"Asset_ID":"SM61","Name":" سوق الفلوجة التجاري","District_ID":"Dahariz al Shamaliyya","Gov_ID":"2","Wlyt_ID":"Salalah","Road_ID":"100065","Latitude":17.02245718,"Longitude":54.166415860000001,"GlobalID":"{758DCA8F-212C-419F-85D9-03686C9FE32F}"}},{"type":"Feature","id":62,"geometry":{"type":"Point","coordinates":[183903.40909999982,1881721.7511999998]},"properties":{"OBJECTID":62,"Asset_ID":"SM62","Name":"Nesto Hypermarket","District_ID":"Auqad al Shamaliyya","Gov_ID":"2","Wlyt_ID":"Salalah","Road_ID":"105565","Latitude":16.997933450000001,"Longitude":54.031515679999998,"GlobalID":"{69CD27A5-063C-4798-9CE5-3D3C1651B1E8}"}},{"type":"Feature","id":63,"geometry":{"type":"Point","coordinates":[185226.75109999999,1882852.7334000003]},"properties":{"OBJECTID":63,"Asset_ID":"SM63","Name":"مكانك للتسوق","District_ID":"Mustashfa al Sultan Qboos","Gov_ID":"2","Wlyt_ID":"Salalah","Road_ID":"105482","Latitude":17.00832406,"Longitude":54.043770979999998,"GlobalID":"{8CCD7045-15E1-471D-80BB-B3B183E046EB}"}},{"type":"Feature","id":64,"geometry":{"type":"Point","coordinates":[185906.92810000014,1882177.9770999998]},"properties":{"OBJECTID":64,"Asset_ID":"SM64","Name":"سوق تجاري\n","District_ID":"Auqad al Janubiyya","Gov_ID":"2","Wlyt_ID":"Salalah","Road_ID":"105422","Latitude":17.00232535,"Longitude":54.050248179999997,"GlobalID":"{9BCD68AF-C302-493B-80EA-AF477F601255}"}},{"type":"Feature","id":65,"geometry":{"type":"Point","coordinates":[184647.35580000002,1882329.7313999999]},"properties":{"OBJECTID":65,"Asset_ID":"SM65","Name":"ASSWAQ BIN KHAWAR TRADING ","District_ID":"Auqad al Shamaliyya","Gov_ID":"2","Wlyt_ID":"Salalah","Road_ID":"105550","Latitude":17.00352363,"Longitude":54.038409049999999,"GlobalID":"{B885EBF3-1B08-46EB-979E-24CF56259056}"}},{"type":"Feature","id":66,"geometry":{"type":"Point","coordinates":[184576.76329999976,1882278.9597999994]},"properties":{"OBJECTID":66,"Asset_ID":"SM66","Name":"Naif Commercial Centre L.L.C","District_ID":"Auqad al Shamaliyya","Gov_ID":"2","Wlyt_ID":"Salalah","Road_ID":"105564","Latitude":17.00305565,"Longitude":54.037753950000003,"GlobalID":"{A4B277E2-7899-4448-8428-5BF275FAD75D}"}},{"type":"Feature","id":67,"geometry":{"type":"Point","coordinates":[197551.55159999989,1884218.2263999991]},"properties":{"OBJECTID":67,"Asset_ID":"SM67","Name":"صفا مارت","District_ID":"Dahariz al Shamaliyya","Gov_ID":"2","Wlyt_ID":"Salalah","Road_ID":"100010","Latitude":17.022300179999998,"Longitude":54.159229089999997,"GlobalID":"{2BFF9490-A132-48EF-B2CB-6B671F94B928}"}},{"type":"Feature","id":68,"geometry":{"type":"Point","coordinates":[188338.59090000018,1882779.3241000008]},"properties":{"OBJECTID":68,"Asset_ID":"SM68","Name":"سوق التجاري","District_ID":"Salalah al Gharbiyya","Gov_ID":"2","Wlyt_ID":"Salalah","Road_ID":"103824","Latitude":17.00808361,"Longitude":54.072978599999999,"GlobalID":"{B6ACCE01-8A3D-4896-AD76-2E2E834EAC7D}"}},{"type":"Feature","id":69,"geometry":{"type":"Point","coordinates":[188386.88480000012,1882785.2715000007]},"properties":{"OBJECTID":69,"Asset_ID":"SM69","Name":"اسواق بن خوار للتجارة","District_ID":"Salalah al Gharbiyya","Gov_ID":"2","Wlyt_ID":"Salalah","Road_ID":"103824","Latitude":17.008143830000002,"Longitude":54.073430889999997,"GlobalID":"{8481F1C7-67CD-48A6-9B83-0E31F6DD2F5C}"}},{"type":"Feature","id":70,"geometry":{"type":"Point","coordinates":[189724.55480000004,1882811.8137999997]},"properties":{"OBJECTID":70,"Asset_ID":"SM70","Name":"F Mart Shopping Center","District_ID":"Salalah al Gharbiyya","Gov_ID":"2","Wlyt_ID":"Salalah","Road_ID":"103741","Latitude":17.008563639999998,"Longitude":54.085978300000001,"GlobalID":"{9505B086-7E75-40C7-AB10-B0395FA97E27}"}},{"type":"Feature","id":71,"geometry":{"type":"Point","coordinates":[184482.56599999964,1885711.4290999994]},"properties":{"OBJECTID":71,"Asset_ID":"SM71","Name":"سوق صروح ظفار","District_ID":"New Industrial Area","Gov_ID":"2","Wlyt_ID":"Salalah","Road_ID":"105278","Latitude":17.03404798,"Longitude":54.036366510000001,"GlobalID":"{0E55F556-0096-4B2F-A16B-04308669D766}"}},{"type":"Feature","id":72,"geometry":{"type":"Point","coordinates":[184567.07469999976,1885726.7583000008]},"properties":{"OBJECTID":72,"Asset_ID":"SM72","Name":"سوق تجاري","District_ID":"New Industrial Area","Gov_ID":"2","Wlyt_ID":"Salalah","Road_ID":"105278","Latitude":17.034178919999999,"Longitude":54.037173019999997,"GlobalID":"{962D9C85-E49C-4243-AD26-909B6B2DBA90}"}},{"type":"Feature","id":73,"geometry":{"type":"Point","coordinates":[187083.60500000045,1886823.9542999994]},"properties":{"OBJECTID":73,"Asset_ID":"SM73","Name":"M Mart ","District_ID":"New Industrial Area","Gov_ID":"2","Wlyt_ID":"Salalah","Road_ID":"105331","Latitude":17.044426999999999,"Longitude":54.060632869999999,"GlobalID":"{9D6FA6BA-5D5C-4F62-82C3-52D6223C19B7}"}},{"type":"Feature","id":74,"geometry":{"type":"Point","coordinates":[183836.3805999998,1885099.2324999999]},"properties":{"OBJECTID":74,"Asset_ID":"SM74","Name":"M Mart ","District_ID":"Auqad al Shamaliyya","Gov_ID":"2","Wlyt_ID":"Salalah","Road_ID":"105644","Latitude":17.028413919999998,"Longitude":54.030405860000002,"GlobalID":"{F06B278F-DCA1-4E9A-ADC2-81B683B75C86}"}},{"type":"Feature","id":75,"geometry":{"type":"Point","coordinates":[192949.41729999986,1884533.4935999997]},"properties":{"OBJECTID":75,"Asset_ID":"SM75","Name":"Quickline shopping corner\n","District_ID":"al Huseela","Gov_ID":"2","Wlyt_ID":"Salalah","Road_ID":"103813","Latitude":17.02453826,"Longitude":54.115999090000003,"GlobalID":"{47DBD87A-BED4-4536-9EF8-E16721F48BF9}"}},{"type":"Feature","id":76,"geometry":{"type":"Point","coordinates":[193481.87150000036,1884162.8870999999]},"properties":{"OBJECTID":76,"Asset_ID":"SM76","Name":"سوق باب السلام للتسوق\n","District_ID":"al Huseela","Gov_ID":"2","Wlyt_ID":"Salalah","Road_ID":"103824","Latitude":17.021263709999999,"Longitude":54.12103673,"GlobalID":"{11533A79-D8A7-4B02-8069-D078C2F5A001}"}},{"type":"Feature","id":77,"geometry":{"type":"Point","coordinates":[193924.25329999998,1883838.4930000007]},"properties":{"OBJECTID":77,"Asset_ID":"SM77","Name":"Teejan Mart\n","District_ID":"al Huseela","Gov_ID":"2","Wlyt_ID":"Salalah","Road_ID":"103824","Latitude":17.018402739999999,"Longitude":54.125237740000003,"GlobalID":"{137F3C0E-ED61-4226-A554-C5F5ED1E597A}"}},{"type":"Feature","id":78,"geometry":{"type":"Point","coordinates":[197333.95739999972,1891044.7118999995]},"properties":{"OBJECTID":78,"Asset_ID":"SM78","Name":"البهجة الدائمة هايبرماركيت","District_ID":"al Sada al Shamaliyya","Gov_ID":"2","Wlyt_ID":"Salalah","Road_ID":"100003","Latitude":17.08390326,"Longitude":54.15625395,"GlobalID":"{2ABE40C9-8BC7-4F1D-B32E-4CB73852BA3B}"}},{"type":"Feature","id":79,"geometry":{"type":"Point","coordinates":[197677.24890000001,1890342.3458999991]},"properties":{"OBJECTID":79,"Asset_ID":"SM79","Name":"اسواق الرصيد التجارية\n","District_ID":"al Sada al Shamaliyya","Gov_ID":"2","Wlyt_ID":"Salalah","Road_ID":"102471","Latitude":17.07760729,"Longitude":54.159572599999997,"GlobalID":"{EFCE5AD2-EE92-4839-8B34-6A0DF7151748}"}},{"type":"Feature","id":80,"geometry":{"type":"Point","coordinates":[196683.96669999976,1892381.6300000008]},"properties":{"OBJECTID":80,"Asset_ID":"SM80","Name":"كارفور","District_ID":"al Sada al Shamaliyya","Gov_ID":"2","Wlyt_ID":"Salalah","Road_ID":"102596","Latitude":17.095887529999999,"Longitude":54.149968749999999,"GlobalID":"{C72F9B7A-4839-409C-9DB8-3F40A74EE9AC}"}},{"type":"Feature","id":81,"geometry":{"type":"Point","coordinates":[197589.64859999996,1890876.9837999996]},"properties":{"OBJECTID":81,"Asset_ID":"SM81","Name":"سوق تجاري","District_ID":"al Sada al Shamaliyya","Gov_ID":"2","Wlyt_ID":"Salalah","Road_ID":"102597","Latitude":17.082422640000001,"Longitude":54.158677150000003,"GlobalID":"{5F425167-7D57-4013-B606-B0A8D5CEBA24}"}},{"type":"Feature","id":82,"geometry":{"type":"Point","coordinates":[197730.51090000011,1891179.0778999999]},"properties":{"OBJECTID":82,"Asset_ID":"SM82","Name":"سوق شروق الشمس التجاري","District_ID":"al Sada al Shamaliyya","Gov_ID":"2","Wlyt_ID":"Salalah","Road_ID":"102558","Latitude":17.08516857,"Longitude":54.159958119999999,"GlobalID":"{D524D91D-1BBF-41BA-8299-FD2353FC5DD9}"}},{"type":"Feature","id":83,"geometry":{"type":"Point","coordinates":[198765.57419999968,1893006.5300999992]},"properties":{"OBJECTID":83,"Asset_ID":"SM83","Name":"Hala Sahlnoot Shopping Center\n","District_ID":"Sahalnout al Shamaliyya","Gov_ID":"2","Wlyt_ID":"Salalah","Road_ID":"102656","Latitude":17.10180347,"Longitude":54.169425320000002,"GlobalID":"{7355BF97-5B41-45E8-B497-458324EEE24D}"}},{"type":"Feature","id":84,"geometry":{"type":"Point","coordinates":[200547.75800000038,1891789.8272999991]},"properties":{"OBJECTID":84,"Asset_ID":"SM84","Name":"ون مارت\n","District_ID":"Sahalnout al Shamaliyya","Gov_ID":"2","Wlyt_ID":"Salalah","Road_ID":"102656","Latitude":17.091051719999999,"Longitude":54.186322060000002,"GlobalID":"{AF5A49D8-C32B-441B-86BE-7C8696F5829E}"}},{"type":"Feature","id":85,"geometry":{"type":"Point","coordinates":[181477.3032999998,1881876.7508000005]},"properties":{"OBJECTID":85,"Asset_ID":"SM85","Name":"Al Raseed Commercial market","District_ID":"Auqad al Shamaliyya","Gov_ID":"2","Wlyt_ID":"Salalah","Road_ID":"105856","Latitude":16.99899937,"Longitude":54.008732240000001,"GlobalID":"{F23FE601-8F4F-4B4D-8B31-24CFFED1416C}"}},{"type":"Feature","id":86,"geometry":{"type":"Point","coordinates":[181482.17499999981,1881856.2899999991]},"properties":{"OBJECTID":86,"Asset_ID":"SM86","Name":"سوق السلامة\n","District_ID":"Auqad al Shamaliyya","Gov_ID":"2","Wlyt_ID":"Salalah","Road_ID":"105725","Latitude":16.99881534,"Longitude":54.008780880000003,"GlobalID":"{0AAE7108-09D5-4687-95F8-CA94D8FB4811}"}},{"type":"Feature","id":87,"geometry":{"type":"Point","coordinates":[183009.91669999994,1883000.1476000007]},"properties":{"OBJECTID":87,"Asset_ID":"SM87","Name":"AL YAMANI COMMERCIAL CENTER\n","District_ID":"Auqad al Shamaliyya","Gov_ID":"2","Wlyt_ID":"Salalah","Road_ID":"105899","Latitude":17.00935144,"Longitude":54.022950659999999,"GlobalID":"{1F2C8FF9-C49D-4A31-8D57-E0DCDDFAB567}"}},{"type":"Feature","id":88,"geometry":{"type":"Point","coordinates":[182951.21360000037,1883856.3357999995]},"properties":{"OBJECTID":88,"Asset_ID":"SM88","Name":"Zain Mart\n","District_ID":"Auqad al Shamaliyya","Gov_ID":"2","Wlyt_ID":"Salalah","Road_ID":"105629","Latitude":17.017072420000002,"Longitude":54.022277610000003,"GlobalID":"{B1C12143-58CF-4DF8-82EA-4C8650601477}"}},{"type":"Feature","id":89,"geometry":{"type":"Point","coordinates":[182023.88019999955,1884110.5664000008]},"properties":{"OBJECTID":89,"Asset_ID":"SM89","Name":"الاستقرار هايبر ماركيت","District_ID":"Auqad al Shamaliyya","Gov_ID":"2","Wlyt_ID":"Salalah","Road_ID":"105881","Latitude":17.019239779999999,"Longitude":54.01354027,"GlobalID":"{C79194E3-5B66-4A49-9CE9-1A5DECB81897}"}},{"type":"Feature","id":90,"geometry":{"type":"Point","coordinates":[182521.77979999967,1883351.8790000007]},"properties":{"OBJECTID":90,"Asset_ID":"SM90","Name":"Teejan Mart\n","District_ID":"Auqad al Shamaliyya","Gov_ID":"2","Wlyt_ID":"Salalah","Road_ID":"105786","Latitude":17.012459509999999,"Longitude":54.018320490000001,"GlobalID":"{8A9DC603-191F-47BC-A702-CA9CCD65C1C5}"}}]
}