{
  "type" : "FeatureCollection",
  "crs" : {
    "type" : "name",
    "properties" : {
      "name" : "EPSG:32640"
    }
  },
  "features" : [{"type":"Feature","id":1,"geometry":{"type":"Point","coordinates":[190503.12150000036,1891923.6001999993]},"properties":{"OBJECTID":1,"Asset_ID":"TIL6","Name":"خياطة الملابس النسائية","District_ID":null,"Gov_ID":"Dohfar Governorate","Wlyt_ID":"Salalah","Road_ID":"102196","Latitude":17.09092759,"Longitude":54.092010139999999,"GlobalID":"{6B582911-E83E-4B61-8354-FD30C2242964}"}},{"type":"Feature","id":2,"geometry":{"type":"Point","coordinates":[185931.28519999981,1889307.6866999995]},"properties":{"OBJECTID":2,"Asset_ID":"TIL7","Name":"تفصيل و خياطة الملابس النسائية","District_ID":null,"Gov_ID":"Dohfar Governorate","Wlyt_ID":"Salalah","Road_ID":"104611","Latitude":17.06669192,"Longitude":54.049466670000001,"GlobalID":"{BAAD05EC-2C1E-48DC-84A6-5BB0C91B04C1}"}},{"type":"Feature","id":3,"geometry":{"type":"Point","coordinates":[184217.08700000029,1886400.1064999998]},"properties":{"OBJECTID":3,"Asset_ID":"TIL8","Name":"خياطة ملابس رجالية","District_ID":"Auqad al Shamaliyya Extension","Gov_ID":"Dohfar Governorate","Wlyt_ID":"Salalah","Road_ID":"104752","Latitude":17.040209529999998,"Longitude":54.033792900000002,"GlobalID":"{4AD5A360-C965-4AED-96B4-8466864B7F64}"}},{"type":"Feature","id":4,"geometry":{"type":"Point","coordinates":[190988.95490000024,1882866.0481000002]},"properties":{"OBJECTID":4,"Asset_ID":"TIL10","Name":"خياط الاداء","District_ID":"Salalah al Wousta","Gov_ID":"Dohfar Governorate","Wlyt_ID":"Salalah","Road_ID":"103741","Latitude":17.00922289,"Longitude":54.097834550000002,"GlobalID":"{2B585EFE-6E1F-4764-807B-1288911A0B78}"}},{"type":"Feature","id":5,"geometry":{"type":"Point","coordinates":[190977.42889999971,1882864.5811000001]},"properties":{"OBJECTID":5,"Asset_ID":"TIL11","Name":"خياط","District_ID":"Salalah al Wousta","Gov_ID":"Dohfar Governorate","Wlyt_ID":"Salalah","Road_ID":"103741","Latitude":17.009208099999999,"Longitude":54.097726600000001,"GlobalID":"{DE6D021E-8F6F-40B9-A1EC-F3198A94863A}"}},{"type":"Feature","id":6,"geometry":{"type":"Point","coordinates":[190994.82259999961,1882885.1182000004]},"properties":{"OBJECTID":6,"Asset_ID":"TIL12","Name":"قرضوب لخياطة الملابس الرجالية","District_ID":"Salalah al Sharqiyya","Gov_ID":"Dohfar Governorate","Wlyt_ID":"Salalah","Road_ID":"103741","Latitude":17.009395829999999,"Longitude":54.097886950000003,"GlobalID":"{F69E7894-4BD5-4E7D-8CC3-CE64ADDD8953}"}},{"type":"Feature","id":7,"geometry":{"type":"Point","coordinates":[190670.74729999993,1883006.2846000008]},"properties":{"OBJECTID":7,"Asset_ID":"TIL13","Name":"مؤسسة مسلم غواص لخياطة الملابس","District_ID":"Salalah al Wousta","Gov_ID":"Dohfar Governorate","Wlyt_ID":"Salalah","Road_ID":"104387","Latitude":17.010446300000002,"Longitude":54.094829269999998,"GlobalID":"{2E07E4BA-FBA3-4C1B-8A01-AEA90643238E}"}},{"type":"Feature","id":8,"geometry":{"type":"Point","coordinates":[190618.02929999959,1883136.2788999993]},"properties":{"OBJECTID":8,"Asset_ID":"TIL14","Name":"مؤسسة الخالد المتحدة للتجارة خياط رجالي","District_ID":"Salalah al Wousta","Gov_ID":"Dohfar Governorate","Wlyt_ID":"Salalah","Road_ID":"104387","Latitude":17.011612800000002,"Longitude":54.094316499999998,"GlobalID":"{7F20DA62-D9D4-4990-9C0C-207150D4555C}"}},{"type":"Feature","id":9,"geometry":{"type":"Point","coordinates":[190321.71530000027,1883333.7873999998]},"properties":{"OBJECTID":9,"Asset_ID":"TIL15","Name":"Mohamed Khalid Salim Bait Katheer & Partner Trad.Co (Gents Tailoring)\r\n","District_ID":"Salalah al Wousta","Gov_ID":"Dohfar Governorate","Wlyt_ID":"Salalah","Road_ID":"104523","Latitude":17.013356129999998,"Longitude":54.091508609999998,"GlobalID":"{81331795-7A26-4064-836D-036E3642F55C}"}},{"type":"Feature","id":10,"geometry":{"type":"Point","coordinates":[190563.71490000002,1883427.4152000006]},"properties":{"OBJECTID":10,"Asset_ID":"TIL16","Name":"خياط","District_ID":"Salalah al Wousta","Gov_ID":"Dohfar Governorate","Wlyt_ID":"Salalah","Road_ID":"104035","Latitude":17.01423385,"Longitude":54.093766279999997,"GlobalID":"{9083C051-DD58-4E18-B047-2EC4977571F1}"}},{"type":"Feature","id":11,"geometry":{"type":"Point","coordinates":[190143.23929999955,1883095.3487]},"properties":{"OBJECTID":11,"Asset_ID":"TIL17","Name":"خياطة ثياب مدارس للبنات في صلالة","District_ID":"Salalah al Gharbiyya","Gov_ID":"Dohfar Governorate","Wlyt_ID":"Salalah","Road_ID":"104575","Latitude":17.011179590000001,"Longitude":54.089867210000001,"GlobalID":"{5D47BBF5-83F4-49BE-BBE6-03F75AB5BC62}"}},{"type":"Feature","id":12,"geometry":{"type":"Point","coordinates":[190099.03469999973,1883088.4724000003]},"properties":{"OBJECTID":12,"Asset_ID":"TIL18","Name":"خياطة ملابس مدرسة بنات","District_ID":"Salalah al Gharbiyya","Gov_ID":"Dohfar Governorate","Wlyt_ID":"Salalah","Road_ID":"104537","Latitude":17.011111570000001,"Longitude":54.089453399999996,"GlobalID":"{E094E581-F29D-41F8-AD22-08CDD26E6BD8}"}},{"type":"Feature","id":13,"geometry":{"type":"Point","coordinates":[189962.45079999976,1883063.1038000006]},"properties":{"OBJECTID":13,"Asset_ID":"TIL19","Name":"خياط بنت البلد","District_ID":"Salalah al Gharbiyya","Gov_ID":"Dohfar Governorate","Wlyt_ID":"Salalah","Road_ID":"103824","Latitude":17.010864210000001,"Longitude":54.088175370000002,"GlobalID":"{D197DAB0-8558-4057-A1C9-7F53C2AAA22E}"}},{"type":"Feature","id":14,"geometry":{"type":"Point","coordinates":[189758.39570000023,1883058.1030000001]},"properties":{"OBJECTID":14,"Asset_ID":"TIL14","Name":"مؤسسة لخياطة العباءات خياط شريفة","District_ID":"Salalah al Gharbiyya","Gov_ID":"Dohfar Governorate","Wlyt_ID":"Salalah","Road_ID":"103824","Latitude":17.01084372,"Longitude":54.086258719999996,"GlobalID":"{3A4F3ECE-999B-4F5B-BE97-E63DDA7E1280}"}},{"type":"Feature","id":15,"geometry":{"type":"Point","coordinates":[189612.06969999988,1883046.4768000003]},"properties":{"OBJECTID":15,"Asset_ID":"TIL21","Name":"خياط","District_ID":"Salalah al Gharbiyya","Gov_ID":"Dohfar Governorate","Wlyt_ID":"Salalah","Road_ID":"103824","Latitude":17.010667000000002,"Longitude":54.08489007,"GlobalID":"{FF69B210-45D9-425A-966F-C55E9B968090}"}},{"type":"Feature","id":16,"geometry":{"type":"Point","coordinates":[191934.71030000038,1883176.6195999999]},"properties":{"OBJECTID":16,"Asset_ID":"TIL22","Name":"خياط","District_ID":"al Qoaf","Gov_ID":"Dohfar Governorate","Wlyt_ID":"Salalah","Road_ID":"104168","Latitude":17.012153139999999,"Longitude":54.106665540000002,"GlobalID":"{0C3C0F98-7E98-4903-A75F-31C9928D58FA}"}},{"type":"Feature","id":17,"geometry":{"type":"Point","coordinates":[191959.85780000035,1883176.2005000003]},"properties":{"OBJECTID":17,"Asset_ID":"TIL23","Name":"خياط عز الجنوب السيم","District_ID":"al Qoaf","Gov_ID":"Dohfar Governorate","Wlyt_ID":"Salalah","Road_ID":"104168","Latitude":17.012152709999999,"Longitude":54.106901559999997,"GlobalID":"{B7A883A4-6E9E-41EA-8661-5B176C482097}"}},{"type":"Feature","id":18,"geometry":{"type":"Point","coordinates":[191956.71439999994,1883208.8923000004]},"properties":{"OBJECTID":18,"Asset_ID":"TIL24","Name":"قرضوب","District_ID":"al Qoaf","Gov_ID":"Dohfar Governorate","Wlyt_ID":"Salalah","Road_ID":"104168","Latitude":17.012447430000002,"Longitude":54.106867530000002,"GlobalID":"{CF652DF4-7217-4933-B970-F846603E1DF7}"}},{"type":"Feature","id":19,"geometry":{"type":"Point","coordinates":[191941.20679999981,1883209.5209999997]},"properties":{"OBJECTID":19,"Asset_ID":"TIL25","Name":"سوق خياطة الدشاشه الرجالية","District_ID":"al Qoaf","Gov_ID":"Dohfar Governorate","Wlyt_ID":"Salalah","Road_ID":"104168","Latitude":17.012451039999998,"Longitude":54.106721929999999,"GlobalID":"{7C353E62-05E0-4A95-AFF2-F1AD5A4F16B4}"}},{"type":"Feature","id":20,"geometry":{"type":"Point","coordinates":[191976.20370000042,1883207.2158000004]},"properties":{"OBJECTID":20,"Asset_ID":"TIL26","Name":"خياطة الملابس الرجالية","District_ID":"al Qoaf","Gov_ID":"Dohfar Governorate","Wlyt_ID":"Salalah","Road_ID":"104168","Latitude":17.012434899999999,"Longitude":54.107050639999997,"GlobalID":"{A55F6C84-418C-4679-97CD-E7CF67A23970}"}},{"type":"Feature","id":21,"geometry":{"type":"Point","coordinates":[191980.39489999972,1883207.4253000002]},"properties":{"OBJECTID":21,"Asset_ID":"TIL27","Name":"خياط دشاديش صلالة السيولة","District_ID":"al Qoaf","Gov_ID":"Dohfar Governorate","Wlyt_ID":"Salalah","Road_ID":"104168","Latitude":17.012437349999999,"Longitude":54.107089930000001,"GlobalID":"{596654E0-A8AB-45E2-8D05-73FC430773E0}"}},{"type":"Feature","id":22,"geometry":{"type":"Point","coordinates":[192229.06130000018,1883400.2989000008]},"properties":{"OBJECTID":22,"Asset_ID":"TIL28","Name":"الشرق لخياطة الملابس الرجالية","District_ID":"al Qoaf","Gov_ID":"Dohfar Governorate","Wlyt_ID":"Salalah","Road_ID":"104083","Latitude":17.014211790000001,"Longitude":54.109396500000003,"GlobalID":"{68413720-05AB-4AD9-9FB5-14BD262E5300}"}},{"type":"Feature","id":23,"geometry":{"type":"Point","coordinates":[192236.48029999994,1883437.7345000003]},"properties":{"OBJECTID":23,"Asset_ID":"TIL29","Name":"رزق الله فتح بوشحام للتجارة خياطة ملابس رجالية","District_ID":"al Qoaf","Gov_ID":"Dohfar Governorate","Wlyt_ID":"Salalah","Road_ID":"104082","Latitude":17.014550740000001,"Longitude":54.109460919999997,"GlobalID":"{81E377B3-4762-451B-9B66-D5206277D70B}"}},{"type":"Feature","id":24,"geometry":{"type":"Point","coordinates":[191614.13839999959,1882114.6073000003]},"properties":{"OBJECTID":24,"Asset_ID":"TIL30","Name":"Salem Al Baluchi and Sons Trad and Cont.Co","District_ID":"al Husn","Gov_ID":"Dohfar Governorate","Wlyt_ID":"Salalah","Road_ID":"100002","Latitude":17.002522549999998,"Longitude":54.103805000000001,"GlobalID":"{60AC5055-435D-4195-BF1B-C13996835453}"}},{"type":"Feature","id":25,"geometry":{"type":"Point","coordinates":[191708.91830000002,1882150.0900999997]},"properties":{"OBJECTID":25,"Asset_ID":"TIL31","Name":"SALES READYMADE GARMENTS","District_ID":"al Husn","Gov_ID":"Dohfar Governorate","Wlyt_ID":"Salalah","Road_ID":"103748","Latitude":17.002855539999999,"Longitude":54.104689370000003,"GlobalID":"{92DC3925-3FCC-4607-A3BA-247349DDFA75}"}},{"type":"Feature","id":26,"geometry":{"type":"Point","coordinates":[191506.15510000009,1882116.2335000001]},"properties":{"OBJECTID":26,"Asset_ID":"TIL32","Name":"Ahmed mohd saeed al mashaikhi.","District_ID":"al Husn","Gov_ID":"Dohfar Governorate","Wlyt_ID":"Salalah","Road_ID":"100002","Latitude":17.002522800000001,"Longitude":54.102791600000003,"GlobalID":"{EB1C1F0A-A3F1-404E-AE5A-2F57C6D235AF}"}},{"type":"Feature","id":27,"geometry":{"type":"Point","coordinates":[198101.04690000042,1889754.1963999998]},"properties":{"OBJECTID":27,"Asset_ID":"TIL33","Name":"خياط ملابس رجالية ونسائية","District_ID":"al Sada al Shamaliyya","Gov_ID":"Dohfar Governorate","Wlyt_ID":"Salalah","Road_ID":"102477","Latitude":17.072352980000002,"Longitude":54.163631090000003,"GlobalID":"{F8CF99A8-A45C-4745-B9D7-A1DDA847F40D}"}},{"type":"Feature","id":28,"geometry":{"type":"Point","coordinates":[190050.10690000001,1883835.1596000008]},"properties":{"OBJECTID":28,"Asset_ID":"TIL34","Name":"خياطة ملابس رجالية","District_ID":"Salalah al Jadida","Gov_ID":"Dohfar Governorate","Wlyt_ID":"Salalah","Road_ID":"104199","Latitude":17.017845950000002,"Longitude":54.088890050000003,"GlobalID":"{932627EF-B4D3-4917-A8B6-911F99B8B23A}"}},{"type":"Feature","id":29,"geometry":{"type":"Point","coordinates":[188081.62330000009,1882734.4679000005]},"properties":{"OBJECTID":29,"Asset_ID":"TIL29","Name":"خياطة الملابس الرجالية","District_ID":"Salalah al Gharbiyya","Gov_ID":"Dohfar Governorate","Wlyt_ID":"Salalah","Road_ID":"103824","Latitude":17.007692599999999,"Longitude":54.070560780000001,"GlobalID":"{9801D6AA-EC1A-4573-A3CB-587A39CA2218}"}},{"type":"Feature","id":30,"geometry":{"type":"Point","coordinates":[188472.86120000016,1882792.9272000007]},"properties":{"OBJECTID":30,"Asset_ID":"TIL30","Name":" خياطة الملابس النسائية","District_ID":"Salalah al Gharbiyya","Gov_ID":"Dohfar Governorate","Wlyt_ID":"Salalah","Road_ID":"104568","Latitude":17.008227059999999,"Longitude":54.074249379999998,"GlobalID":"{E2BE59C8-D3AB-4641-8659-C88BA652AAC4}"}},{"type":"Feature","id":31,"geometry":{"type":"Point","coordinates":[189003.59130000044,1882914.4155999999]},"properties":{"OBJECTID":31,"Asset_ID":"TIL31","Name":"خياطة ملابس نسائية","District_ID":"Salalah al Gharbiyya","Gov_ID":"Dohfar Governorate","Wlyt_ID":"Salalah","Road_ID":"103824","Latitude":17.009460659999998,"Longitude":54.079171610000003,"GlobalID":"{8A49078F-3E54-4F18-828C-C9F1D6741CBE}"}},{"type":"Feature","id":32,"geometry":{"type":"Point","coordinates":[189010.04959999956,1882915.9393000007]},"properties":{"OBJECTID":32,"Asset_ID":"TIL32","Name":"خياطة ملابس نسائية","District_ID":"Salalah al Gharbiyya","Gov_ID":"Dohfar Governorate","Wlyt_ID":"Salalah","Road_ID":"103824","Latitude":17.009464999999999,"Longitude":54.079241009999997,"GlobalID":"{51ED0BA5-CAA1-4EA7-A9B2-37412326B3F4}"}},{"type":"Feature","id":33,"geometry":{"type":"Point","coordinates":[189020.58499999996,1882918.3574000001]},"properties":{"OBJECTID":33,"Asset_ID":"TIL33","Name":"خياطة ملابس نسائية","District_ID":"Salalah al Gharbiyya","Gov_ID":"Dohfar Governorate","Wlyt_ID":"Salalah","Road_ID":"103824","Latitude":17.009473329999999,"Longitude":54.079355499999998,"GlobalID":"{11B074B8-FC37-4A19-805E-70A382DA7320}"}},{"type":"Feature","id":34,"geometry":{"type":"Point","coordinates":[189028.61629999988,1882920.1645999998]},"properties":{"OBJECTID":34,"Asset_ID":"TIL34","Name":"خياطة ملابس نسائية","District_ID":"Salalah al Gharbiyya","Gov_ID":"Dohfar Governorate","Wlyt_ID":"Salalah","Road_ID":"103824","Latitude":17.009501050000001,"Longitude":54.079424539999998,"GlobalID":"{628B030D-3D09-4116-8CB5-FBD954B72BAB}"}},{"type":"Feature","id":35,"geometry":{"type":"Point","coordinates":[188997.05879999977,1882890.1372999996]},"properties":{"OBJECTID":35,"Asset_ID":"TIL41","Name":"خياطة ملابس نسائية","District_ID":"Salalah al Gharbiyya","Gov_ID":"Dohfar Governorate","Wlyt_ID":"Salalah","Road_ID":"103824","Latitude":17.00917282,"Longitude":54.07914134,"GlobalID":"{B599E584-6F2C-4D11-9F7C-74C3369920E7}"}},{"type":"Feature","id":36,"geometry":{"type":"Point","coordinates":[189003.13460000046,1882890.1618000008]},"properties":{"OBJECTID":36,"Asset_ID":"TIL36","Name":"خياطة ملابس نسائية","District_ID":"Salalah al Gharbiyya","Gov_ID":"Dohfar Governorate","Wlyt_ID":"Salalah","Road_ID":"103824","Latitude":17.0092003,"Longitude":54.079193009999997,"GlobalID":"{BDA7CEAF-5318-44F1-B47A-5621A3860050}"}},{"type":"Feature","id":37,"geometry":{"type":"Point","coordinates":[189021.69529999979,1882894.5658]},"properties":{"OBJECTID":37,"Asset_ID":"TIL37","Name":"خياطة ملابس نسائية","District_ID":"Salalah al Gharbiyya","Gov_ID":"Dohfar Governorate","Wlyt_ID":"Salalah","Road_ID":"103824","Latitude":17.00925964,"Longitude":54.079369239999998,"GlobalID":"{DA3916AE-0A2A-43B1-B795-01B879493105}"}},{"type":"Feature","id":38,"geometry":{"type":"Point","coordinates":[189029.09740000032,1882895.3059999999]},"properties":{"OBJECTID":38,"Asset_ID":"TIL38","Name":"خياطة ملابس نسائية","District_ID":"Salalah al Gharbiyya","Gov_ID":"Dohfar Governorate","Wlyt_ID":"Salalah","Road_ID":"103824","Latitude":17.009267319999999,"Longitude":54.079438590000002,"GlobalID":"{CD5704FD-C260-4647-A583-DBFF5664DF2C}"}},{"type":"Feature","id":39,"geometry":{"type":"Point","coordinates":[189384.12409999967,1884074.9083999991]},"properties":{"OBJECTID":39,"Asset_ID":"TIL39","Name":"خياطة ملابس نسائية","District_ID":"Salalah al Jadida","Gov_ID":"Dohfar Governorate","Wlyt_ID":"Salalah","Road_ID":"104267","Latitude":17.019966719999999,"Longitude":54.082593330000002,"GlobalID":"{9F29C102-F4DE-4248-9EBD-1A72A395F1B0}"}},{"type":"Feature","id":40,"geometry":{"type":"Point","coordinates":[190029.18680000026,1883866.4638]},"properties":{"OBJECTID":40,"Asset_ID":"TIL46","Name":"خياط ملابس","District_ID":"Salalah al Jadida","Gov_ID":"Dohfar Governorate","Wlyt_ID":"Salalah","Road_ID":"104199","Latitude":17.018125749999999,"Longitude":54.088689379999998,"GlobalID":"{8BE017F5-EB73-46B7-9436-2C16B1E94EB3}"}},{"type":"Feature","id":41,"geometry":{"type":"Point","coordinates":[189012.97319999989,1884194.3819999993]},"properties":{"OBJECTID":41,"Asset_ID":"TIL47","Name":"محلات العبيداني لخياطة الملابس الرجالية","District_ID":"Salalah al Jadida","Gov_ID":"Dohfar Governorate","Wlyt_ID":"Salalah","Road_ID":"104280","Latitude":17.020949330000001,"Longitude":54.079107950000001,"GlobalID":"{A7D70DAA-690C-45AF-AF8C-367410355A5B}"}},{"type":"Feature","id":42,"geometry":{"type":"Point","coordinates":[189132.80920000002,1883792.3341000006]},"properties":{"OBJECTID":42,"Asset_ID":"TIL48","Name":"الخط الدولي للخياطة","District_ID":"Salalah al Jadida","Gov_ID":"Dohfar Governorate","Wlyt_ID":"Salalah","Road_ID":"104210","Latitude":17.017335899999999,"Longitude":54.08028874,"GlobalID":"{D90F87AF-7C1E-4C09-B5FA-11D8E9A562EE}"}},{"type":"Feature","id":43,"geometry":{"type":"Point","coordinates":[189023.75629999954,1883750.8432999998]},"properties":{"OBJECTID":43,"Asset_ID":"TIL43","Name":"غيوم الجنوب للخياطة","District_ID":"Salalah al Jadida","Gov_ID":"Dohfar Governorate","Wlyt_ID":"Salalah","Road_ID":"104187","Latitude":17.01701168,"Longitude":54.079267190000003,"GlobalID":"{15AEB7E7-87EF-428F-B421-7B0235CCAF33}"}},{"type":"Feature","id":44,"geometry":{"type":"Point","coordinates":[188953.25059999991,1883694.0099999998]},"properties":{"OBJECTID":44,"Asset_ID":"TIL44","Name":"خياط ملابس نسائية","District_ID":"Salalah al Jadida","Gov_ID":"Dohfar Governorate","Wlyt_ID":"Salalah","Road_ID":"104246","Latitude":17.016477040000002,"Longitude":54.078598390000003,"GlobalID":"{4F84DAE6-ED0B-4CC2-A8F5-3FFE700B8CDB}"}},{"type":"Feature","id":45,"geometry":{"type":"Point","coordinates":[187401.04160000011,1882555.4793999996]},"properties":{"OBJECTID":45,"Asset_ID":"TIL51","Name":"قص وتفصيل الستائر","District_ID":"al Wadi","Gov_ID":"Dohfar Governorate","Wlyt_ID":"Salalah","Road_ID":"103812","Latitude":17.005936049999999,"Longitude":54.064213340000002,"GlobalID":"{320C1223-24A4-4461-8790-141F2502144C}"}},{"type":"Feature","id":46,"geometry":{"type":"Point","coordinates":[187298.19149999972,1882558.7810999993]},"properties":{"OBJECTID":46,"Asset_ID":"TIL52","Name":"خياطة","District_ID":"al Wadi","Gov_ID":"Dohfar Governorate","Wlyt_ID":"Salalah","Road_ID":"103812","Latitude":17.005951929999998,"Longitude":54.063247879999999,"GlobalID":"{AF23FE5D-66E8-449C-89CA-7B467AA101EF}"}},{"type":"Feature","id":47,"geometry":{"type":"Point","coordinates":[187301.08499999996,1882526.3434999995]},"properties":{"OBJECTID":47,"Asset_ID":"TIL53","Name":"خياطة","District_ID":"al Wadi","Gov_ID":"Dohfar Governorate","Wlyt_ID":"Salalah","Road_ID":"103812","Latitude":17.005659489999999,"Longitude":54.06327959,"GlobalID":"{B6097D8C-B40A-4C5F-99A8-545C74E9C0DA}"}},{"type":"Feature","id":48,"geometry":{"type":"Point","coordinates":[187255.5504999999,1882545.6842]},"properties":{"OBJECTID":48,"Asset_ID":"TIL54","Name":"خياطة الشباب","District_ID":"al Wadi","Gov_ID":"Dohfar Governorate","Wlyt_ID":"Salalah","Road_ID":"103812","Latitude":17.005827920000002,"Longitude":54.062849640000003,"GlobalID":"{8005B785-A722-4763-9EF6-FCF1C63BBD48}"}},{"type":"Feature","id":49,"geometry":{"type":"Point","coordinates":[187037.9291000003,1882445.6016000006]},"properties":{"OBJECTID":49,"Asset_ID":"TIL55","Name":"خياطة ملابس نسائية","District_ID":"al Wadi","Gov_ID":"Dohfar Governorate","Wlyt_ID":"Salalah","Road_ID":"105377","Latitude":17.004894920000002,"Longitude":54.060821900000001,"GlobalID":"{67B3E739-0619-49AB-AA4A-DC3FBB056C1D}"}},{"type":"Feature","id":50,"geometry":{"type":"Point","coordinates":[187079.04719999991,1882421.2638000008]},"properties":{"OBJECTID":50,"Asset_ID":"TIL56","Name":"خياطة ملابس رجالية","District_ID":"al Wadi","Gov_ID":"Dohfar Governorate","Wlyt_ID":"Salalah","Road_ID":"105378","Latitude":17.004680789999998,"Longitude":54.061211120000003,"GlobalID":"{11AFC8F5-8C3C-4AEA-AF63-1C29FB6743F0}"}},{"type":"Feature","id":51,"geometry":{"type":"Point","coordinates":[185959.87299999967,1882255.4208000004]},"properties":{"OBJECTID":51,"Asset_ID":"TIL57","Name":"تفصيل وخياطة ملابس نسائية","District_ID":"Auqad al Janubiyya","Gov_ID":"Dohfar Governorate","Wlyt_ID":"Salalah","Road_ID":"105345","Latitude":17.003031679999999,"Longitude":54.050733979999997,"GlobalID":"{E21A432F-5802-47A4-84D4-E0AD8232C844}"}},{"type":"Feature","id":52,"geometry":{"type":"Point","coordinates":[185072.9888000004,1882348.3660000004]},"properties":{"OBJECTID":52,"Asset_ID":"TIL58","Name":"خياط ملابس رجالية","District_ID":"Auqad al Janubiyya","Gov_ID":"Dohfar Governorate","Wlyt_ID":"Salalah","Road_ID":"105409","Latitude":17.003749939999999,"Longitude":54.042399809999999,"GlobalID":"{BB29ACAC-210F-4BED-BBA9-0D5CAEB74D5F}"}},{"type":"Feature","id":53,"geometry":{"type":"Point","coordinates":[185108.42349999957,1882166.3314999994]},"properties":{"OBJECTID":53,"Asset_ID":"TIL59","Name":"تفصيل وخياطة ملابس نسائية عربية وغير عربية","District_ID":"Auqad al Janubiyya","Gov_ID":"Dohfar Governorate","Wlyt_ID":"Salalah","Road_ID":"105411","Latitude":17.002111469999999,"Longitude":54.042758069999998,"GlobalID":"{405725F2-3D50-439F-872F-82443FDF4E42}"}},{"type":"Feature","id":54,"geometry":{"type":"Point","coordinates":[185122.98840000015,1882109.1864999998]},"properties":{"OBJECTID":54,"Asset_ID":"TIL60","Name":"تفصيل وخياطة ملابس رجالية","District_ID":"Auqad al Janubiyya","Gov_ID":"Dohfar Governorate","Wlyt_ID":"Salalah","Road_ID":"105411","Latitude":17.001597579999999,"Longitude":54.042902820000002,"GlobalID":"{7873BCC0-B779-418A-8334-92AEB831C705}"}},{"type":"Feature","id":55,"geometry":{"type":"Point","coordinates":[184723.74069999997,1882114.4009000007]},"properties":{"OBJECTID":55,"Asset_ID":"TIL61","Name":"خياطة ملابس رجالية","District_ID":"Auqad al Janubiyya","Gov_ID":"Dohfar Governorate","Wlyt_ID":"Salalah","Road_ID":"105404","Latitude":17.001590180000001,"Longitude":54.039156269999999,"GlobalID":"{CBEAEE8F-C2A3-4314-BB71-A5C498B4C020}"}},{"type":"Feature","id":56,"geometry":{"type":"Point","coordinates":[189585.50459999964,1882797.4166999999]},"properties":{"OBJECTID":56,"Asset_ID":"TIL62","Name":"خياطة ملابس رجالية","District_ID":"Salalah al Gharbiyya","Gov_ID":"Dohfar Governorate","Wlyt_ID":"Salalah","Road_ID":"103741","Latitude":17.00841497,"Longitude":54.084675619999999,"GlobalID":"{8A6CCE63-57D4-4194-8E76-85E75DF35C06}"}},{"type":"Feature","id":57,"geometry":{"type":"Point","coordinates":[190586.60680000018,1883140.5835999995]},"properties":{"OBJECTID":57,"Asset_ID":"TIL66","Name":"خياطة ملابس رجالية","District_ID":"Salalah al Wousta","Gov_ID":"Dohfar Governorate","Wlyt_ID":"Salalah","Road_ID":"104387","Latitude":17.011647450000002,"Longitude":54.094021060000003,"GlobalID":"{F7AB069C-B3D4-4B4C-B411-3F8DAF3FAED0}"}},{"type":"Feature","id":58,"geometry":{"type":"Point","coordinates":[190586.40660000034,1883136.5793999992]},"properties":{"OBJECTID":58,"Asset_ID":"TIL67","Name":"خياطة ملابس رجالية","District_ID":"Salalah al Wousta","Gov_ID":"Dohfar Governorate","Wlyt_ID":"Salalah","Road_ID":"104387","Latitude":17.01161127,"Longitude":54.09401974,"GlobalID":"{35F1B15F-32F8-41E3-8D75-9258E0FCCEA8}"}},{"type":"Feature","id":59,"geometry":{"type":"Point","coordinates":[190586.70689999964,1883128.8713000007]},"properties":{"OBJECTID":59,"Asset_ID":"TIL68","Name":"خياطة ملابس رجالية","District_ID":"Salalah al Wousta","Gov_ID":"Dohfar Governorate","Wlyt_ID":"Salalah","Road_ID":"104387","Latitude":17.011541730000001,"Longitude":54.094023630000002,"GlobalID":"{E6F04566-04FE-4EDA-AA5E-22DE29136541}"}},{"type":"Feature","id":60,"geometry":{"type":"Point","coordinates":[190586.80700000003,1883125.4677000009]},"properties":{"OBJECTID":60,"Asset_ID":"TIL69","Name":"خياطة ملابس رجالية","District_ID":"Salalah al Wousta","Gov_ID":"Dohfar Governorate","Wlyt_ID":"Salalah","Road_ID":"104387","Latitude":17.01151101,"Longitude":54.094025039999998,"GlobalID":"{EE22F7A3-52BB-4445-9B17-9EF89A02C129}"}},{"type":"Feature","id":61,"geometry":{"type":"Point","coordinates":[190587.00719999988,1883122.3643999994]},"properties":{"OBJECTID":61,"Asset_ID":"TIL70","Name":"خياطة ملابس رجالية","District_ID":"Salalah al Wousta","Gov_ID":"Dohfar Governorate","Wlyt_ID":"Salalah","Road_ID":"104492","Latitude":17.01148302,"Longitude":54.094027349999998,"GlobalID":"{F12F31DE-9243-443B-AA9F-891F18B71921}"}},{"type":"Feature","id":62,"geometry":{"type":"Point","coordinates":[190611.73319999967,1883139.5824999996]},"properties":{"OBJECTID":62,"Asset_ID":"TIL71","Name":"خياطة ملابس رجالية","District_ID":"Salalah al Wousta","Gov_ID":"Dohfar Governorate","Wlyt_ID":"Salalah","Road_ID":"104387","Latitude":17.011641780000001,"Longitude":54.094256960000003,"GlobalID":"{CCC36F53-FFCD-4FC3-81FC-D3D70016F2F9}"}},{"type":"Feature","id":63,"geometry":{"type":"Point","coordinates":[190611.73319999967,1883142.0852000006]},"properties":{"OBJECTID":63,"Asset_ID":"TIL72","Name":"خياطة ملابس رجالية","District_ID":"Salalah al Wousta","Gov_ID":"Dohfar Governorate","Wlyt_ID":"Salalah","Road_ID":"104387","Latitude":17.011664369999998,"Longitude":54.094256610000002,"GlobalID":"{F959EFBE-59C9-4C06-B11F-1D90D1647523}"}},{"type":"Feature","id":64,"geometry":{"type":"Point","coordinates":[190610.03139999975,1883147.3906999994]},"properties":{"OBJECTID":64,"Asset_ID":"TIL73","Name":"خياطة ملابس رجالية","District_ID":"Salalah al Wousta","Gov_ID":"Dohfar Governorate","Wlyt_ID":"Salalah","Road_ID":"104387","Latitude":17.011712039999999,"Longitude":54.094239909999999,"GlobalID":"{FEF80B5E-87C1-418E-98C3-B6C06D174762}"}},{"type":"Feature","id":65,"geometry":{"type":"Point","coordinates":[190608.32959999982,1883152.3959999997]},"properties":{"OBJECTID":65,"Asset_ID":"TIL74","Name":"خياطة ملابس رجالية","District_ID":"Salalah al Wousta","Gov_ID":"Dohfar Governorate","Wlyt_ID":"Salalah","Road_ID":"104387","Latitude":17.011756999999999,"Longitude":54.094223239999998,"GlobalID":"{ED88FBA0-3ADB-44F2-850B-E32E95D2CFB3}"}},{"type":"Feature","id":66,"geometry":{"type":"Point","coordinates":[189210.7648,1882945.6347000003]},"properties":{"OBJECTID":66,"Asset_ID":"TIL75","Name":"خياطة ملابس رجالية","District_ID":"Salalah al Gharbiyya","Gov_ID":"Dohfar Governorate","Wlyt_ID":"Salalah","Road_ID":"103824","Latitude":17.009702619999999,"Longitude":54.081138750000001,"GlobalID":"{9687F873-8850-4F78-B570-92E9B3E72223}"}},{"type":"Feature","id":67,"geometry":{"type":"Point","coordinates":[189215.24949999992,1882946.7879000008]},"properties":{"OBJECTID":67,"Asset_ID":"TIL76","Name":"خياطة ملابس رجالية","District_ID":"Salalah al Gharbiyya","Gov_ID":"Dohfar Governorate","Wlyt_ID":"Salalah","Road_ID":"103824","Latitude":17.009713640000001,"Longitude":54.081180670000002,"GlobalID":"{655B22C3-B627-4275-A425-BE315EBCF361}"}},{"type":"Feature","id":68,"geometry":{"type":"Point","coordinates":[189221.59219999984,1882948.1333000008]},"properties":{"OBJECTID":68,"Asset_ID":"TIL77","Name":"خياطة ملابس رجالية","District_ID":"Salalah al Gharbiyya","Gov_ID":"Dohfar Governorate","Wlyt_ID":"Salalah","Road_ID":"103824","Latitude":17.00972664,"Longitude":54.08123999,"GlobalID":"{DCFE021D-42C7-433C-AA6C-9BA01FA1F179}"}},{"type":"Feature","id":69,"geometry":{"type":"Point","coordinates":[189292.29789999966,1883062.9481000006]},"properties":{"OBJECTID":69,"Asset_ID":"TIL78","Name":"خياطة ملابس رجالية","District_ID":"Salalah al Gharbiyya","Gov_ID":"Dohfar Governorate","Wlyt_ID":"Salalah","Road_ID":"104465","Latitude":17.010772679999999,"Longitude":54.081887350000002,"GlobalID":"{C627004A-9EB4-44EA-ADB1-198563BDE37B}"}},{"type":"Feature","id":70,"geometry":{"type":"Point","coordinates":[197365.39030000009,1883863.9770999998]},"properties":{"OBJECTID":70,"Asset_ID":"TIL80","Name":"خياطة الملابس الرجالية","District_ID":"Dahariz al Shamaliyya","Gov_ID":"Dohfar Governorate","Wlyt_ID":"Salalah","Road_ID":"100007","Latitude":17.019077469999999,"Longitude":54.157530440000002,"GlobalID":"{96E2E5F2-43F9-4F8A-98B2-EFEDE243FE56}"}},{"type":"Feature","id":71,"geometry":{"type":"Point","coordinates":[197320.19629999995,1884034.1852000002]},"properties":{"OBJECTID":71,"Asset_ID":"TIL81","Name":"خياطة الملابس الرجالية","District_ID":"Dahariz al Shamaliyya","Gov_ID":"Dohfar Governorate","Wlyt_ID":"Salalah","Road_ID":"100067","Latitude":17.020608240000001,"Longitude":54.157083120000003,"GlobalID":"{1E6E8E6F-78DA-45D5-8679-4149DF7C5C3D}"}},{"type":"Feature","id":72,"geometry":{"type":"Point","coordinates":[197320.19629999995,1884037.4700000007]},"properties":{"OBJECTID":72,"Asset_ID":"TIL82","Name":"خياطة الملابس الرجالية","District_ID":"Dahariz al Shamaliyya","Gov_ID":"Dohfar Governorate","Wlyt_ID":"Salalah","Road_ID":"100007","Latitude":17.02063789,"Longitude":54.157082670000001,"GlobalID":"{89AFBB76-63EC-4F55-A34D-55A2CF69821A}"}},{"type":"Feature","id":73,"geometry":{"type":"Point","coordinates":[197286.07930000033,1884025.7939999998]},"properties":{"OBJECTID":73,"Asset_ID":"TIL73","Name":"خياطة الملابس الرجالية","District_ID":"Dahariz al Shamaliyya","Gov_ID":"Dohfar Governorate","Wlyt_ID":"Salalah","Road_ID":"100007","Latitude":17.020530409999999,"Longitude":54.156770119999997,"GlobalID":"{665B6FCB-ED6A-466D-A7A7-47EDCCCABFCB}"}},{"type":"Feature","id":74,"geometry":{"type":"Point","coordinates":[182991.55360000022,1884404.7426999994]},"properties":{"OBJECTID":74,"Asset_ID":"TIL108","Name":"خياط ملابس نسائية","District_ID":"Auqad al Shamaliyya","Gov_ID":"Dohfar Governorate","Wlyt_ID":"Salalah","Road_ID":"105575","Latitude":17.02202857,"Longitude":54.022577779999999,"GlobalID":"{9875A949-9186-4659-82FE-60A8F912A8B1}"}},{"type":"Feature","id":75,"geometry":{"type":"Point","coordinates":[182986.75030000042,1884403.5004999992]},"properties":{"OBJECTID":75,"Asset_ID":"TIL109","Name":"خياط ملابس نسائية","District_ID":"Auqad al Shamaliyya","Gov_ID":"Dohfar Governorate","Wlyt_ID":"Salalah","Road_ID":"105575","Latitude":17.022016699999998,"Longitude":54.022532890000001,"GlobalID":"{D427DDD0-73F2-4063-85A2-D3A348223412}"}},{"type":"Feature","id":76,"geometry":{"type":"Point","coordinates":[190403.08270000014,1882865.9262000006]},"properties":{"OBJECTID":76,"Asset_ID":"TIL127","Name":"خياطة ملابس رجالية","District_ID":"Salalah al Wousta","Gov_ID":"Dohfar Governorate","Wlyt_ID":"Salalah","Road_ID":"103741","Latitude":17.009143269999999,"Longitude":54.092337329999999,"GlobalID":"{D27C3420-0620-4710-ACC5-71FFA3A9FE07}"}},{"type":"Feature","id":77,"geometry":{"type":"Point","coordinates":[190423.26009999961,1882867.4902999997]},"properties":{"OBJECTID":77,"Asset_ID":"TIL128","Name":"خياطة ملابس رجالية","District_ID":"Salalah al Wousta","Gov_ID":"Dohfar Governorate","Wlyt_ID":"Salalah","Road_ID":"103741","Latitude":17.009160099999999,"Longitude":54.092526429999999,"GlobalID":"{4B46350D-F125-4B8F-BA2D-34A41CAA5D01}"}},{"type":"Feature","id":78,"geometry":{"type":"Point","coordinates":[190425.76279999968,1882867.6467000004]},"properties":{"OBJECTID":78,"Asset_ID":"TIL129","Name":"خياطة ملابس رجالية","District_ID":"Salalah al Wousta","Gov_ID":"Dohfar Governorate","Wlyt_ID":"Salalah","Road_ID":"103741","Latitude":17.009161850000002,"Longitude":54.092549890000001,"GlobalID":"{522AE558-F416-4B8E-AA4F-FE7220BCF59E}"}},{"type":"Feature","id":79,"geometry":{"type":"Point","coordinates":[198119.41959999967,1884189.6155999992]},"properties":{"OBJECTID":79,"Asset_ID":"TIL79","Name":"خياطة ملابس رجالية","District_ID":"Dahariz al Shamaliyya","Gov_ID":"Dohfar Governorate","Wlyt_ID":"Salalah","Road_ID":"100002","Latitude":17.022103120000001,"Longitude":54.164564589999998,"GlobalID":"{008BD4D8-AD4B-4E16-9B88-35B3FE22A86E}"}},{"type":"Feature","id":80,"geometry":{"type":"Point","coordinates":[197351.3526999997,1884592.1746999994]},"properties":{"OBJECTID":80,"Asset_ID":"TIL171","Name":"خياطة الملابس الرجالية","District_ID":"Dahariz al Shamaliyya","Gov_ID":"Dohfar Governorate","Wlyt_ID":"Salalah","Road_ID":"100008","Latitude":17.025650039999999,"Longitude":54.157299369999997,"GlobalID":"{53028E87-27B2-4E5C-995B-0F308EE72911}"}},{"type":"Feature","id":81,"geometry":{"type":"Point","coordinates":[181107.3853000002,1883296.2314999998]},"properties":{"OBJECTID":81,"Asset_ID":"TIL174","Name":"تفصيل وخياطة الملابس النسائية","District_ID":"Auqad al Shamaliyya","Gov_ID":"Dohfar Governorate","Wlyt_ID":"Salalah","Road_ID":"105841","Latitude":17.01176216,"Longitude":54.005057999999998,"GlobalID":"{C4194E13-A918-447E-8F4C-135EE4FE67B3}"}},{"type":"Feature","id":82,"geometry":{"type":"Point","coordinates":[181469.20390000008,1882627.9883999992]},"properties":{"OBJECTID":82,"Asset_ID":"TIL175","Name":"تفصيل وخياطة الملابس","District_ID":"Auqad al Shamaliyya","Gov_ID":"Dohfar Governorate","Wlyt_ID":"Salalah","Road_ID":"105835","Latitude":17.005779799999999,"Longitude":54.008548560000001,"GlobalID":"{6AA6937B-A516-485A-B2CD-BDD62B2B60DB}"}},{"type":"Feature","id":83,"geometry":{"type":"Point","coordinates":[181773.21380000003,1881991.7826000005]},"properties":{"OBJECTID":83,"Asset_ID":"TIL176","Name":"خياط ملابس مسائية","District_ID":"Auqad al Shamaliyya","Gov_ID":"Dohfar Governorate","Wlyt_ID":"Salalah","Road_ID":"105761","Latitude":17.00007858,"Longitude":54.011491939999999,"GlobalID":"{BA63C95F-6C8B-40DD-93D9-3AC334E9DA9F}"}},{"type":"Feature","id":84,"geometry":{"type":"Point","coordinates":[182766.42800000031,1882974.5770999994]},"properties":{"OBJECTID":84,"Asset_ID":"TIL177","Name":"خياط ملابس رجالية","District_ID":"Auqad al Shamaliyya","Gov_ID":"Dohfar Governorate","Wlyt_ID":"Salalah","Road_ID":"105791","Latitude":17.00908716,"Longitude":54.0206698,"GlobalID":"{6A4BCB14-E53E-4057-9757-23422235BE40}"}},{"type":"Feature","id":85,"geometry":{"type":"Point","coordinates":[182765.15130000003,1882976.8888000008]},"properties":{"OBJECTID":85,"Asset_ID":"TIL178","Name":"خياط ملابس رجالية","District_ID":"Auqad al Shamaliyya","Gov_ID":"Dohfar Governorate","Wlyt_ID":"Salalah","Road_ID":"105791","Latitude":17.009107849999999,"Longitude":54.020657499999999,"GlobalID":"{2630E520-2DD4-41D7-A807-78C28B992B6C}"}},{"type":"Feature","id":86,"geometry":{"type":"Point","coordinates":[182764.1026999997,1882980.6173]},"properties":{"OBJECTID":86,"Asset_ID":"TIL179","Name":"خياط ملابس رجالية","District_ID":"Auqad al Shamaliyya","Gov_ID":"Dohfar Governorate","Wlyt_ID":"Salalah","Road_ID":"105791","Latitude":17.009141369999998,"Longitude":54.02064712,"GlobalID":"{898A63B0-02CE-4DDD-90C0-5FA89D1E7CC4}"}},{"type":"Feature","id":87,"geometry":{"type":"Point","coordinates":[182758.97599999979,1882990.5210999995]},"properties":{"OBJECTID":87,"Asset_ID":"TIL180","Name":"خياط ملابس رجالية","District_ID":"Auqad al Shamaliyya","Gov_ID":"Dohfar Governorate","Wlyt_ID":"Salalah","Road_ID":"105791","Latitude":17.009230070000001,"Longitude":54.020597610000003,"GlobalID":"{C11E555C-6C7B-4807-8022-505FECAA4191}"}},{"type":"Feature","id":88,"geometry":{"type":"Point","coordinates":[182765.84570000041,1883017.8276000004]},"properties":{"OBJECTID":88,"Asset_ID":"TIL181","Name":"خياط ملابس رجالية","District_ID":"Auqad al Shamaliyya","Gov_ID":"Dohfar Governorate","Wlyt_ID":"Salalah","Road_ID":"105791","Latitude":17.00947751,"Longitude":54.020658160000004,"GlobalID":"{98802823-D7C5-4A81-9C45-27A851A1C705}"}},{"type":"Feature","id":89,"geometry":{"type":"Point","coordinates":[182764.1305999998,1883021.0340999998]},"properties":{"OBJECTID":89,"Asset_ID":"TIL182","Name":"خياط ملابس رجالية","District_ID":"Auqad al Shamaliyya","Gov_ID":"Dohfar Governorate","Wlyt_ID":"Salalah","Road_ID":"105791","Latitude":17.009506219999999,"Longitude":54.020641609999998,"GlobalID":"{83C1166A-E72E-48FC-B10C-FAD7DDB26784}"}},{"type":"Feature","id":90,"geometry":{"type":"Point","coordinates":[182743.47950000037,1883029.7866999991]},"properties":{"OBJECTID":90,"Asset_ID":"TIL183","Name":"خياط ملابس رجالية","District_ID":"Auqad al Shamaliyya","Gov_ID":"Dohfar Governorate","Wlyt_ID":"Salalah","Road_ID":"105791","Latitude":17.009582399999999,"Longitude":54.02044661,"GlobalID":"{66199E40-C291-4382-859D-EF4E6C7B3E98}"}},{"type":"Feature","id":91,"geometry":{"type":"Point","coordinates":[182741.96480000019,1883032.9326000009]},"properties":{"OBJECTID":91,"Asset_ID":"TIL184","Name":"خياط ملابس رجالية","District_ID":"Auqad al Shamaliyya","Gov_ID":"Dohfar Governorate","Wlyt_ID":"Salalah","Road_ID":"105791","Latitude":17.009610590000001,"Longitude":54.020431940000002,"GlobalID":"{FBE9598F-EDDB-4F3B-9A66-12A1A6AF1AA6}"}},{"type":"Feature","id":92,"geometry":{"type":"Point","coordinates":[182740.91610000003,1883035.6124000009]},"properties":{"OBJECTID":92,"Asset_ID":"TIL185","Name":"خياط ملابس رجالية","District_ID":"Auqad al Shamaliyya","Gov_ID":"Dohfar Governorate","Wlyt_ID":"Salalah","Road_ID":"105791","Latitude":17.009634630000001,"Longitude":54.020421720000002,"GlobalID":"{D8F81D6D-66E3-4257-893F-5EA38C777A42}"}},{"type":"Feature","id":93,"geometry":{"type":"Point","coordinates":[182816.18499999959,1882997.2788999993]},"properties":{"OBJECTID":93,"Asset_ID":"TIL186","Name":"خياط ملابس رجالية","District_ID":"Auqad al Shamaliyya","Gov_ID":"Dohfar Governorate","Wlyt_ID":"Salalah","Road_ID":"105926","Latitude":17.00929893,"Longitude":54.021133399999997,"GlobalID":"{B5F6BEED-85EB-43D5-B03B-C8A900F94913}"}},{"type":"Feature","id":94,"geometry":{"type":"Point","coordinates":[183697.18859999999,1882239.7366000004]},"properties":{"OBJECTID":94,"Asset_ID":"TIL94","Name":"تفصيل وخياطة الملابس النسائية","District_ID":"Auqad al Shamaliyya","Gov_ID":"Dohfar Governorate","Wlyt_ID":"Salalah","Road_ID":"105578","Latitude":17.002586820000001,"Longitude":54.029516800000003,"GlobalID":"{D482246F-86DB-4C51-BFE7-A178593C547D}"}},{"type":"Feature","id":95,"geometry":{"type":"Point","coordinates":[183774.60819999967,1883001.8176000006]},"properties":{"OBJECTID":95,"Asset_ID":"TIL188","Name":"تفصيل وخياطة الملابس","District_ID":"Auqad al Shamaliyya","Gov_ID":"Dohfar Governorate","Wlyt_ID":"Salalah","Road_ID":"105596","Latitude":17.00947141,"Longitude":54.030125079999998,"GlobalID":"{EF574896-2601-468E-B7CD-5CE3A7C653AC}"}},{"type":"Feature","id":96,"geometry":{"type":"Point","coordinates":[183053.57330000028,1884234.1568]},"properties":{"OBJECTID":96,"Asset_ID":"TIL189","Name":"خياط ملابس","District_ID":"Auqad al Shamaliyya","Gov_ID":"Dohfar Governorate","Wlyt_ID":"Salalah","Road_ID":"105717","Latitude":17.020497169999999,"Longitude":54.02318408,"GlobalID":"{B337576F-862B-4075-968E-C169EB76D13B}"}},{"type":"Feature","id":97,"geometry":{"type":"Point","coordinates":[193604.18670000043,1883918.3949999996]},"properties":{"OBJECTID":97,"Asset_ID":"TIL190","Name":"خياطة العبايات النسائية","District_ID":"al Huseela","Gov_ID":"Dohfar Governorate","Wlyt_ID":"Salalah","Road_ID":"103872","Latitude":17.019072210000001,"Longitude":54.122228360000001,"GlobalID":"{7733541F-3CBC-46E4-BF17-C278E39F5085}"}},{"type":"Feature","id":98,"geometry":{"type":"Point","coordinates":[197642.70660000015,1890311.8121000007]},"properties":{"OBJECTID":98,"Asset_ID":"TIL191","Name":"خياط ملابس رجالية","District_ID":"al Sada al Shamaliyya","Gov_ID":"Dohfar Governorate","Wlyt_ID":"Salalah","Road_ID":"102603","Latitude":17.07732708,"Longitude":54.159252530000003,"GlobalID":"{9E538BDC-605E-49DB-A263-9C637EED4489}"}},{"type":"Feature","id":99,"geometry":{"type":"Point","coordinates":[197643.96899999958,1890308.8424999993]},"properties":{"OBJECTID":99,"Asset_ID":"TIL192","Name":"خياط ملابس رجالية","District_ID":"al Sada al Shamaliyya","Gov_ID":"Dohfar Governorate","Wlyt_ID":"Salalah","Road_ID":"102603","Latitude":17.077300430000001,"Longitude":54.159264790000002,"GlobalID":"{CE7FA691-EFF9-4E6E-B5B6-49E116245B59}"}},{"type":"Feature","id":100,"geometry":{"type":"Point","coordinates":[197644.66139999963,1890305.0344999991]},"properties":{"OBJECTID":100,"Asset_ID":"TIL193","Name":"تفصيل الملابس النسائية","District_ID":"al Sada al Shamaliyya","Gov_ID":"Dohfar Governorate","Wlyt_ID":"Salalah","Road_ID":"102603","Latitude":17.077266139999999,"Longitude":54.15927181,"GlobalID":"{DAAE7864-CD5C-4A07-BEA6-B72F207029D3}"}},{"type":"Feature","id":101,"geometry":{"type":"Point","coordinates":[197634.56359999999,1890296.9288999997]},"properties":{"OBJECTID":101,"Asset_ID":"TIL194","Name":"خياط ملابس","District_ID":"al Sada al Shamaliyya","Gov_ID":"Dohfar Governorate","Wlyt_ID":"Salalah","Road_ID":"102634","Latitude":17.077191630000002,"Longitude":54.159178130000001,"GlobalID":"{11DFA1A5-5D13-492D-9893-884FEE7C6235}"}},{"type":"Feature","id":102,"geometry":{"type":"Point","coordinates":[197732.72410000023,1890368.4188999999]},"properties":{"OBJECTID":102,"Asset_ID":"TIL195","Name":"خياط الملابس الرجالية","District_ID":"al Sada al Shamaliyya","Gov_ID":"Dohfar Governorate","Wlyt_ID":"Salalah","Road_ID":"102471","Latitude":17.07784998,"Longitude":54.16008978,"GlobalID":"{C00F5379-3658-45AD-8C5E-3DE2CB0CE4E8}"}},{"type":"Feature","id":103,"geometry":{"type":"Point","coordinates":[197676.1185999997,1890380.7017000001]},"properties":{"OBJECTID":103,"Asset_ID":"TIL196","Name":"خياطة الملابس الرجالية","District_ID":"al Sada al Shamaliyya","Gov_ID":"Dohfar Governorate","Wlyt_ID":"Salalah","Road_ID":"102472","Latitude":17.077953430000001,"Longitude":54.15955675,"GlobalID":"{EADBBB43-8255-4A44-B476-14CEADFDA0AB}"}},{"type":"Feature","id":104,"geometry":{"type":"Point","coordinates":[197693.29279999994,1890364.6784000006]},"properties":{"OBJECTID":104,"Asset_ID":"TIL197","Name":"خياطة الملابس الرجالية","District_ID":"al Sada al Shamaliyya","Gov_ID":"Dohfar Governorate","Wlyt_ID":"Salalah","Road_ID":"102472","Latitude":17.077811019999999,"Longitude":54.159720149999998,"GlobalID":"{A1CA1526-FEDC-4042-831C-7346EC8BF475}"}},{"type":"Feature","id":105,"geometry":{"type":"Point","coordinates":[197708.00310000032,1890395.0070999991]},"properties":{"OBJECTID":105,"Asset_ID":"TIL198","Name":"خياطة الملابس الرجالية","District_ID":"al Sada al Shamaliyya","Gov_ID":"Dohfar Governorate","Wlyt_ID":"Salalah","Road_ID":"102472","Latitude":17.07808678,"Longitude":54.159854090000003,"GlobalID":"{15661EDC-E510-4C64-956A-AACD04422795}"}},{"type":"Feature","id":106,"geometry":{"type":"Point","coordinates":[197703.09960000031,1890393.1909999996]},"properties":{"OBJECTID":106,"Asset_ID":"TIL199","Name":"خياطة الملابس الرجالية","District_ID":"al Sada al Shamaliyya","Gov_ID":"Dohfar Governorate","Wlyt_ID":"Salalah","Road_ID":"102472","Latitude":17.078069729999999,"Longitude":54.159808310000003,"GlobalID":"{1FEA05FE-83A6-4947-80CD-1E2972F1FFA5}"}},{"type":"Feature","id":107,"geometry":{"type":"Point","coordinates":[197722.89499999955,1890401.7267000005]},"properties":{"OBJECTID":107,"Asset_ID":"TIL200","Name":"تفصيل وخياطة الملابس الرجالية","District_ID":"al Sada al Shamaliyya","Gov_ID":"Dohfar Governorate","Wlyt_ID":"Salalah","Road_ID":"102472","Latitude":17.078149400000001,"Longitude":54.159992959999997,"GlobalID":"{ED5984EA-CD4D-4626-A7AD-F83AC8929C6D}"}},{"type":"Feature","id":108,"geometry":{"type":"Point","coordinates":[197703.82600000035,1890368.8553999998]},"properties":{"OBJECTID":108,"Asset_ID":"TIL201","Name":"تفصيل وخياطة الملابس الرجالية","District_ID":"al Sada al Shamaliyya","Gov_ID":"Dohfar Governorate","Wlyt_ID":"Salalah","Road_ID":"102472","Latitude":17.077850120000001,"Longitude":54.159818450000003,"GlobalID":"{AB27A9A3-C0B2-45D9-8E64-FA50B27820CD}"}},{"type":"Feature","id":109,"geometry":{"type":"Point","coordinates":[197706.18699999992,1890369.9451000001]},"properties":{"OBJECTID":109,"Asset_ID":"TIL202","Name":"خياطة الملابس الرجالية","District_ID":"al Sada al Shamaliyya","Gov_ID":"Dohfar Governorate","Wlyt_ID":"Salalah","Road_ID":"102472","Latitude":17.077860269999999,"Longitude":54.159840469999999,"GlobalID":"{AAB253D1-E1AD-49F6-B217-975283E97582}"}},{"type":"Feature","id":110,"geometry":{"type":"Point","coordinates":[197677.02869999968,1890400.9597999994]},"properties":{"OBJECTID":110,"Asset_ID":"TIL203","Name":"خياطة الملابس الرجالية","District_ID":"al Sada al Shamaliyya","Gov_ID":"Dohfar Governorate","Wlyt_ID":"Salalah","Road_ID":"102647","Latitude":17.078136440000002,"Longitude":54.159562520000001,"GlobalID":"{D22DB55B-74CE-415E-840D-4AC40098F125}"}},{"type":"Feature","id":111,"geometry":{"type":"Point","coordinates":[197698.66029999964,1890410.6457000002]},"properties":{"OBJECTID":111,"Asset_ID":"TIL204","Name":"خياطة الملابس النسائية","District_ID":"al Sada al Shamaliyya","Gov_ID":"Dohfar Governorate","Wlyt_ID":"Salalah","Road_ID":"102647","Latitude":17.078226740000002,"Longitude":54.159764250000002,"GlobalID":"{38AC10B1-F568-44FA-B6AE-5C383566D312}"}},{"type":"Feature","id":112,"geometry":{"type":"Point","coordinates":[197052.31439999957,1890848.5793999992]},"properties":{"OBJECTID":112,"Asset_ID":"TIL205","Name":"خياط ملابس نسائية","District_ID":"al Sada al Shamaliyya","Gov_ID":"Dohfar Governorate","Wlyt_ID":"Salalah","Road_ID":"102616","Latitude":17.0820954,"Longitude":54.153637000000003,"GlobalID":"{D01DF499-3749-4D3E-B66E-66C319E66249}"}},{"type":"Feature","id":113,"geometry":{"type":"Point","coordinates":[197267.46310000028,1891951.1811999995]},"properties":{"OBJECTID":113,"Asset_ID":"TIL206","Name":"خياط ملابس نسائية","District_ID":"al Sada al Shamaliyya","Gov_ID":"Dohfar Governorate","Wlyt_ID":"Salalah","Road_ID":"102547","Latitude":17.092078350000001,"Longitude":54.155505519999998,"GlobalID":"{CA88516D-8C8B-4EE9-B6AE-E8C2679FB9B8}"}}]
}