{
  "type" : "FeatureCollection",
  "crs" : {
    "type" : "name",
    "properties" : {
      "name" : "EPSG:32640"
    }
  },
  "features" : [{"type":"Feature","id":1,"geometry":{"type":"Point","coordinates":[190308.43149999995,1884016.1580999997]},"properties":{"OBJECTID":1,"Asset_ID":"TP1","Name":"Telecommunication Directorate General","District_ID":"Salalah al Jadida","Gov_ID":"2","Wlyt_ID":"Salalah","Road_ID":"104387","Latitude":17.019537939999999,"Longitude":54.091261340000003,"GlobalID_1":"{EED5FEBE-635F-4231-91B4-8D04A66425F0}"}},{"type":"Feature","id":2,"geometry":{"type":"Point","coordinates":[187160.17069999967,1883792.5743000004]},"properties":{"OBJECTID":2,"Asset_ID":"TP2","Name":"Omantel Outlet","District_ID":"al Wadi","Gov_ID":"2","Wlyt_ID":"Salalah","Road_ID":"105366","Latitude":17.01707141,"Longitude":54.061779059999999,"GlobalID_1":"{BFBCB34A-F92B-4A35-ACFC-E11195609A2C}"}},{"type":"Feature","id":3,"geometry":{"type":"Point","coordinates":[184719.00600000005,1882594.9399999995]},"properties":{"OBJECTID":3,"Asset_ID":"TP3","Name":"Omantel ","District_ID":"Auqad al Shamaliyya","Gov_ID":"2","Wlyt_ID":"Salalah","Road_ID":"105568","Latitude":17.00592756,"Longitude":54.039043650000004,"GlobalID_1":"{5E5D7F21-E3E4-4F30-ADFE-6D0FFB8E350C}"}}]
}