{
  "type" : "FeatureCollection",
  "crs" : {
    "type" : "name",
    "properties" : {
      "name" : "EPSG:32640"
    }
  },
  "features" : [{"type":"Feature","id":1,"geometry":{"type":"Point","coordinates":[198931.96719999984,1884466.227]},"properties":{"OBJECTID":1,"Asset_ID":"Tb1","Name":"ضريح قبر","District_ID":"Dahariz al Shamaliyya","Gov_ID":"2","Wlyt_ID":"Salalah","Road_ID":"100123","Latitude":17.024719869999998,"Longitude":54.172149580000003,"GlobalID_1":"{D982CD7C-9C19-4D1B-9C45-942BA7621980}"}},{"type":"Feature","id":2,"geometry":{"type":"Point","coordinates":[184037.39169999957,1880621.8640999999]},"properties":{"OBJECTID":2,"Asset_ID":"Tb2","Name":"Shrine of prophet Younus","District_ID":"Auqad al Janubiyya","Gov_ID":"2","Wlyt_ID":"Salalah","Road_ID":"105350","Latitude":16.988022699999998,"Longitude":54.032929009999997,"GlobalID_1":"{1A137FB6-B568-4626-88E7-3BE4DEEC169D}"}},{"type":"Feature","id":3,"geometry":{"type":"Point","coordinates":[190054.20419999957,1883213.4874000009]},"properties":{"OBJECTID":3,"Asset_ID":"Tb3","Name":"Tomb Of Sheikh Aboobakr bin Salem","District_ID":"Salalah al Gharbiyya","Gov_ID":"2","Wlyt_ID":"Salalah","Road_ID":"104474","Latitude":17.012234169999999,"Longitude":54.0890153,"GlobalID_1":"{B88EEFDF-3B4F-44A2-8612-8C943E4DB5A8}"}},{"type":"Feature","id":4,"geometry":{"type":"Point","coordinates":[190020.91480000038,1881951.8541000001]},"properties":{"OBJECTID":4,"Asset_ID":"Tb4","Name":"ضريح الشيخ باقرحان","District_ID":"Salalah al Gharbiyya","Gov_ID":"2","Wlyt_ID":"Salalah","Road_ID":"104449","Latitude":17.00083991,"Longitude":54.08887902,"GlobalID_1":"{57C6C3F2-A618-4CD0-8F17-55963DA50F41}"}},{"type":"Feature","id":5,"geometry":{"type":"Point","coordinates":[194126.77219999954,1883147.1064999998]},"properties":{"OBJECTID":5,"Asset_ID":"Tb5","Name":"قبر الصحابي أبوبكر تاج الدين","District_ID":"al Baleed","Gov_ID":"2","Wlyt_ID":"Salalah","Road_ID":"103785","Latitude":17.012178290000001,"Longitude":54.12723845,"GlobalID_1":"{45BD3F6A-9F78-4B3E-8416-745518F23CD6}"}},{"type":"Feature","id":6,"geometry":{"type":"Point","coordinates":[201981.00179999974,1884739.3633999992]},"properties":{"OBJECTID":6,"Asset_ID":"Tb6","Name":"ضريح شاطيء الدهاريز","District_ID":"Razat","Gov_ID":"Dhofar Governorate","Wlyt_ID":"Salalah","Road_ID":" ","Latitude":17.027582049999999,"Longitude":54.200726639999999,"GlobalID_1":"{C6DC98EF-B8AC-42D1-8AFF-077BA9583C59}"}}]
}