{
  "type" : "FeatureCollection",
  "crs" : {
    "type" : "name",
    "properties" : {
      "name" : "EPSG:32640"
    }
  },
  "features" : [{"type":"Feature","id":1,"geometry":{"type":"Point","coordinates":[186787.67609999981,1883180.8077000007]},"properties":{"OBJECTID":1,"Asset_ID":"TS1","Name":null,"District_ID":"Mustashfa al Sultan Qboos","Gov_ID":"Dhofar Governorate","Wlyt_ID":"Salalah","Road_ID":"105338","Latitude":17.011498110000002,"Longitude":54.05837022,"GlobalID":"{035B393B-3DFB-4C4A-A9CE-F5061F7957D5}"}},{"type":"Feature","id":2,"geometry":{"type":"Point","coordinates":[186815.54079999961,1883198.0075000003]},"properties":{"OBJECTID":2,"Asset_ID":"TS2","Name":null,"District_ID":"al Wadi","Gov_ID":"Dhofar Governorate","Wlyt_ID":"Salalah","Road_ID":"105338","Latitude":17.011657159999999,"Longitude":54.058629240000002,"GlobalID":"{F3F7BD50-CF0A-4CA5-A310-35391540277C}"}},{"type":"Feature","id":3,"geometry":{"type":"Point","coordinates":[189255.87390000001,1883191.4464999996]},"properties":{"OBJECTID":3,"Asset_ID":"TS3","Name":null,"District_ID":"Salalah al Jadida","Gov_ID":"Dhofar Governorate","Wlyt_ID":"Salalah","Road_ID":"104210","Latitude":17.01192782,"Longitude":54.081527600000001,"GlobalID":"{152F88E6-A173-447E-809F-FF07D9827A3A}"}},{"type":"Feature","id":4,"geometry":{"type":"Point","coordinates":[189280.86330000032,1883198.1905000005]},"properties":{"OBJECTID":4,"Asset_ID":"TS4","Name":null,"District_ID":"Salalah al Jadida","Gov_ID":"Dhofar Governorate","Wlyt_ID":"Salalah","Road_ID":"104210","Latitude":17.011992070000002,"Longitude":54.081761139999998,"GlobalID":"{5DA64C82-3304-4E8E-A8E2-46CC8DDFC165}"}},{"type":"Feature","id":5,"geometry":{"type":"Point","coordinates":[189278.61529999971,1883167.8164000008]},"properties":{"OBJECTID":5,"Asset_ID":"TS5","Name":null,"District_ID":"Salalah al Gharbiyya","Gov_ID":"Dhofar Governorate","Wlyt_ID":"Salalah","Road_ID":"104465","Latitude":17.011717560000001,"Longitude":54.081744290000003,"GlobalID":"{CEC3A433-0A8A-49A9-BA27-DFC2C6DA4EA4}"}},{"type":"Feature","id":6,"geometry":{"type":"Point","coordinates":[189284.62729999982,1883176.8083999995]},"properties":{"OBJECTID":6,"Asset_ID":"TS6","Name":null,"District_ID":"Salalah al Gharbiyya","Gov_ID":"Dhofar Governorate","Wlyt_ID":"Salalah","Road_ID":"104465","Latitude":17.011799539999998,"Longitude":54.081799449999998,"GlobalID":"{75F5B8A8-7F7A-441D-B612-137279A8AAF7}"}},{"type":"Feature","id":7,"geometry":{"type":"Point","coordinates":[189695.40990000032,1883327.4243000001]},"properties":{"OBJECTID":7,"Asset_ID":"TS7","Name":null,"District_ID":"Salalah al Jadida","Gov_ID":"Dhofar Governorate","Wlyt_ID":"Salalah","Road_ID":"104189","Latitude":17.01321454,"Longitude":54.085632779999997,"GlobalID":"{A57A666B-76CB-45F0-A764-E2B9D2B34EAE}"}},{"type":"Feature","id":8,"geometry":{"type":"Point","coordinates":[189711.35500000045,1883332.2862]},"properties":{"OBJECTID":8,"Asset_ID":"TS8","Name":null,"District_ID":"Salalah al Jadida","Gov_ID":"Dhofar Governorate","Wlyt_ID":"Salalah","Road_ID":"103812","Latitude":17.013260580000001,"Longitude":54.08578172,"GlobalID":"{A430FDE3-5963-4D36-82F3-8CF5209F5476}"}},{"type":"Feature","id":9,"geometry":{"type":"Point","coordinates":[189698.96480000019,1883307.6105000004]},"properties":{"OBJECTID":9,"Asset_ID":"TS9","Name":null,"District_ID":"Salalah al Gharbiyya","Gov_ID":"Dhofar Governorate","Wlyt_ID":"Salalah","Road_ID":"104561","Latitude":17.013036150000001,"Longitude":54.085668910000003,"GlobalID":"{0FBEACEE-4E70-438E-9D16-A7FE2CCE0AA9}"}},{"type":"Feature","id":10,"geometry":{"type":"Point","coordinates":[189715.24980000034,1883312.943]},"properties":{"OBJECTID":10,"Asset_ID":"TS10","Name":null,"District_ID":"Salalah al Gharbiyya","Gov_ID":"Dhofar Governorate","Wlyt_ID":"Salalah","Road_ID":"104561","Latitude":17.013086479999998,"Longitude":54.08582097,"GlobalID":"{9F10F32F-6DDF-4567-AED1-DC5604BCBCEC}"}},{"type":"Feature","id":11,"geometry":{"type":"Point","coordinates":[190455.61239999998,1883592.7272999994]},"properties":{"OBJECTID":11,"Asset_ID":"TS11","Name":null,"District_ID":"Salalah al Jadida","Gov_ID":"Dhofar Governorate","Wlyt_ID":"Salalah","Road_ID":"103812","Latitude":17.015711759999999,"Longitude":54.092728880000003,"GlobalID":"{26DF0AC4-B0EE-4839-BDC2-63BBED34749C}"}},{"type":"Feature","id":12,"geometry":{"type":"Point","coordinates":[190486.03880000021,1883603.2354000006]},"properties":{"OBJECTID":12,"Asset_ID":"TS12","Name":null,"District_ID":"Markaz al Madena","Gov_ID":"Dhofar Governorate","Wlyt_ID":"Salalah","Road_ID":"104387","Latitude":17.01581071,"Longitude":54.09301292,"GlobalID":"{CE64191D-D5A8-4C55-BDD7-818A3904E59D}"}},{"type":"Feature","id":13,"geometry":{"type":"Point","coordinates":[190488.28679999989,1883579.2916000001]},"properties":{"OBJECTID":13,"Asset_ID":"TS13","Name":null,"District_ID":"Salalah al Wousta","Gov_ID":"Dhofar Governorate","Wlyt_ID":"Salalah","Road_ID":"103812","Latitude":17.015594849999999,"Longitude":54.093037350000003,"GlobalID":"{96C150C0-7AE0-4BDB-9FC5-11DEA82AA4AE}"}},{"type":"Feature","id":14,"geometry":{"type":"Point","coordinates":[190458.69680000003,1883569.7115000002]},"properties":{"OBJECTID":14,"Asset_ID":"TS14","Name":null,"District_ID":"Salalah al Wousta","Gov_ID":"Dhofar Governorate","Wlyt_ID":"Salalah","Road_ID":"103812","Latitude":17.01550439,"Longitude":54.092761029999998,"GlobalID":"{F3EB5BBE-00A3-4108-BF92-82088DAA50E9}"}},{"type":"Feature","id":15,"geometry":{"type":"Point","coordinates":[189628.80640000012,1883804.7057000007]},"properties":{"OBJECTID":15,"Asset_ID":"TS15","Name":null,"District_ID":"Salalah al Jadida","Gov_ID":"Dhofar Governorate","Wlyt_ID":"Salalah","Road_ID":"104187","Latitude":17.017514370000001,"Longitude":54.084941100000002,"GlobalID":"{5D3CBB7B-AE82-4DDD-84A0-12FAAD71F827}"}},{"type":"Feature","id":16,"geometry":{"type":"Point","coordinates":[189626.45380000025,1883822.0100999996]},"properties":{"OBJECTID":16,"Asset_ID":"TS16","Name":null,"District_ID":"Salalah al Jadida","Gov_ID":"Dhofar Governorate","Wlyt_ID":"Salalah","Road_ID":"104187","Latitude":17.017670280000001,"Longitude":54.0849166,"GlobalID":"{8F0C6384-C066-4843-83D1-D9CDBB1201C6}"}},{"type":"Feature","id":17,"geometry":{"type":"Point","coordinates":[189608.79000000004,1883820.3894999996]},"properties":{"OBJECTID":17,"Asset_ID":"TS17","Name":null,"District_ID":"Salalah al Jadida","Gov_ID":"Dhofar Governorate","Wlyt_ID":"Salalah","Road_ID":"104187","Latitude":17.01765327,"Longitude":54.084751089999997,"GlobalID":"{3C1CF791-7777-41C4-ADFF-806B096E815F}"}},{"type":"Feature","id":18,"geometry":{"type":"Point","coordinates":[189611.71769999992,1883804.4050999992]},"properties":{"OBJECTID":18,"Asset_ID":"TS18","Name":null,"District_ID":"Salalah al Jadida","Gov_ID":"Dhofar Governorate","Wlyt_ID":"Salalah","Road_ID":"104187","Latitude":17.017509359999998,"Longitude":54.084780790000003,"GlobalID":"{4B7F9545-6CBC-42BD-BE79-453BCFA5672D}"}},{"type":"Feature","id":19,"geometry":{"type":"Point","coordinates":[188934.32510000002,1883723.9737999998]},"properties":{"OBJECTID":19,"Asset_ID":"TS19","Name":null,"District_ID":"Salalah al Jadida","Gov_ID":"Dhofar Governorate","Wlyt_ID":"Salalah","Road_ID":"104246","Latitude":17.01669201,"Longitude":54.078435890000002,"GlobalID":"{7FCACF41-99EF-49BF-8CAB-915CE135E67F}"}},{"type":"Feature","id":20,"geometry":{"type":"Point","coordinates":[188351.83210000023,1882891.1557]},"properties":{"OBJECTID":20,"Asset_ID":"TS20","Name":null,"District_ID":null,"Gov_ID":"Dhofar Governorate","Wlyt_ID":"Salalah","Road_ID":"100583","Latitude":17.00909498,"Longitude":54.073087139999998,"GlobalID":"{5789BA47-A76C-4D01-9730-E03139AE1D5C}"}},{"type":"Feature","id":21,"geometry":{"type":"Point","coordinates":[188367.88179999962,1882896.6449999996]},"properties":{"OBJECTID":21,"Asset_ID":"TS21","Name":null,"District_ID":null,"Gov_ID":"Dhofar Governorate","Wlyt_ID":"Salalah","Road_ID":"100583","Latitude":17.009146699999999,"Longitude":54.073236960000003,"GlobalID":"{3C480159-B815-456F-82C3-10B7ACFCFBE4}"}},{"type":"Feature","id":22,"geometry":{"type":"Point","coordinates":[188369.71160000004,1882873.4331999999]},"properties":{"OBJECTID":22,"Asset_ID":"TS22","Name":null,"District_ID":"Salalah al Gharbiyya","Gov_ID":"Dhofar Governorate","Wlyt_ID":"Salalah","Road_ID":"104567","Latitude":17.008937400000001,"Longitude":54.073257390000002,"GlobalID":"{8D24C097-2534-41E0-876B-580024331252}"}},{"type":"Feature","id":23,"geometry":{"type":"Point","coordinates":[188352.66860000044,1882867.4733000007]},"properties":{"OBJECTID":23,"Asset_ID":"TS23","Name":null,"District_ID":"Salalah al Gharbiyya","Gov_ID":"Dhofar Governorate","Wlyt_ID":"Salalah","Road_ID":"104567","Latitude":17.008881299999999,"Longitude":54.073098309999999,"GlobalID":"{A1C06165-3910-436B-93D7-7B75BE214E5C}"}},{"type":"Feature","id":24,"geometry":{"type":"Point","coordinates":[188923.21779999975,1883722.1810999997]},"properties":{"OBJECTID":24,"Asset_ID":"TS24","Name":null,"District_ID":"Salalah al Jadida","Gov_ID":"Dhofar Governorate","Wlyt_ID":"Salalah","Road_ID":"104246","Latitude":17.016674330000001,"Longitude":54.078331919999997,"GlobalID":"{6A9E53C9-5D45-4A0A-A137-7165B7D088C9}"}},{"type":"Feature","id":25,"geometry":{"type":"Point","coordinates":[188925.28340000007,1883706.2799999993]},"properties":{"OBJECTID":25,"Asset_ID":"TS25","Name":null,"District_ID":"Salalah al Jadida","Gov_ID":"Dhofar Governorate","Wlyt_ID":"Salalah","Road_ID":"104246","Latitude":17.016531059999998,"Longitude":54.078353530000001,"GlobalID":"{838EF651-3E32-4C9C-9720-DBFE0D4F3472}"}},{"type":"Feature","id":26,"geometry":{"type":"Point","coordinates":[188935.92300000042,1883706.5139000006]},"properties":{"OBJECTID":26,"Asset_ID":"TS26","Name":null,"District_ID":"Salalah al Jadida","Gov_ID":"Dhofar Governorate","Wlyt_ID":"Salalah","Road_ID":"104246","Latitude":17.0165346,"Longitude":54.078453330000002,"GlobalID":"{BAEA8094-5A28-4174-AB84-0FF79CD1A64A}"}},{"type":"Feature","id":27,"geometry":{"type":"Point","coordinates":[188920.0867999997,1883718.3741999995]},"properties":{"OBJECTID":27,"Asset_ID":"TS27","Name":null,"District_ID":"Salalah al Jadida","Gov_ID":"Dhofar Governorate","Wlyt_ID":"Salalah","Road_ID":"104246","Latitude":17.01663954,"Longitude":54.078303069999997,"GlobalID":"{CF1CBFD3-5BDE-4DF7-BC07-0DCFE4DA0B20}"}},{"type":"Feature","id":28,"geometry":{"type":"Point","coordinates":[188923.09839999955,1883707.9197000004]},"properties":{"OBJECTID":28,"Asset_ID":"TS28","Name":null,"District_ID":"Salalah al Jadida","Gov_ID":"Dhofar Governorate","Wlyt_ID":"Salalah","Road_ID":"104246","Latitude":17.016545560000001,"Longitude":54.078332799999998,"GlobalID":"{05D550A8-A61C-4B15-9A21-96AC315C7F2B}"}},{"type":"Feature","id":29,"geometry":{"type":"Point","coordinates":[188937.81209999975,1883709.1242999993]},"properties":{"OBJECTID":29,"Asset_ID":"TS29","Name":null,"District_ID":"Salalah al Jadida","Gov_ID":"Dhofar Governorate","Wlyt_ID":"Salalah","Road_ID":"104187","Latitude":17.016558419999999,"Longitude":54.078470690000003,"GlobalID":"{30616AE8-51BE-4E42-849B-ACF538F7F683}"}},{"type":"Feature","id":30,"geometry":{"type":"Point","coordinates":[188939.31790000014,1883720.2241999991]},"properties":{"OBJECTID":30,"Asset_ID":"TS30","Name":null,"District_ID":"Salalah al Jadida","Gov_ID":"Dhofar Governorate","Wlyt_ID":"Salalah","Road_ID":"104246","Latitude":17.016658830000001,"Longitude":54.078483259999999,"GlobalID":"{4144EB39-CEBF-4E09-940A-2B3A019AEF65}"}},{"type":"Feature","id":31,"geometry":{"type":"Point","coordinates":[198915.49650000036,1885686.6272999998]},"properties":{"OBJECTID":31,"Asset_ID":"TS31","Name":null,"District_ID":"Dahariz al Shamaliyya","Gov_ID":"Dhofar Governorate","Wlyt_ID":"Salalah","Road_ID":"100003","Latitude":17.03573604,"Longitude":54.17182931,"GlobalID":"{7FBB2F67-3123-45D6-8EE0-16998B9A45F7}"}},{"type":"Feature","id":32,"geometry":{"type":"Point","coordinates":[198939.94560000021,1885685.7422000002]},"properties":{"OBJECTID":32,"Asset_ID":"TS32","Name":null,"District_ID":"Dahariz al Shamaliyya","Gov_ID":"Dhofar Governorate","Wlyt_ID":"Salalah","Road_ID":"100003","Latitude":17.035731250000001,"Longitude":54.172058880000002,"GlobalID":"{72BBBE28-8992-4536-A8EB-C8B80489BEA5}"}},{"type":"Feature","id":33,"geometry":{"type":"Point","coordinates":[198912.73080000002,1885721.1436000001]},"properties":{"OBJECTID":33,"Asset_ID":"TS33","Name":null,"District_ID":"al Sada al Janubiyya","Gov_ID":"Dhofar Governorate","Wlyt_ID":"Salalah","Road_ID":"100003","Latitude":17.036047310000001,"Longitude":54.17179866,"GlobalID":"{9A72C262-6D08-4611-8E4E-E69376FC45F6}"}},{"type":"Feature","id":34,"geometry":{"type":"Point","coordinates":[198937.62229999993,1885719.8159999996]},"properties":{"OBJECTID":34,"Asset_ID":"TS34","Name":null,"District_ID":"al Sada al Janubiyya","Gov_ID":"Dhofar Governorate","Wlyt_ID":"Salalah","Road_ID":"100003","Latitude":17.03603858,"Longitude":54.172032450000003,"GlobalID":"{9844D51B-CC16-4174-8880-CF84651B238E}"}},{"type":"Feature","id":35,"geometry":{"type":"Point","coordinates":[197717.09069999959,1885743.2971000001]},"properties":{"OBJECTID":35,"Asset_ID":"TS35","Name":null,"District_ID":"Dahariz al Shamaliyya","Gov_ID":"Dhofar Governorate","Wlyt_ID":"Salalah","Road_ID":"100418","Latitude":17.036090770000001,"Longitude":54.160574660000002,"GlobalID":"{BC14EE32-E91E-4CF4-984E-1D9E99F99C7B}"}},{"type":"Feature","id":36,"geometry":{"type":"Point","coordinates":[197697.37100000028,1885777.6475000009]},"properties":{"OBJECTID":36,"Asset_ID":"TS36","Name":null,"District_ID":"al Sada al Janubiyya","Gov_ID":"Dhofar Governorate","Wlyt_ID":"Salalah","Road_ID":"100251","Latitude":17.036398309999999,"Longitude":54.160384909999998,"GlobalID":"{9E61E738-5789-473D-9B4A-357D6D8701B6}"}},{"type":"Feature","id":37,"geometry":{"type":"Point","coordinates":[197718.72250000015,1885776.3200000003]},"properties":{"OBJECTID":37,"Asset_ID":"TS37","Name":null,"District_ID":"al Sada al Janubiyya","Gov_ID":"Dhofar Governorate","Wlyt_ID":"Salalah","Road_ID":"100251","Latitude":17.03638913,"Longitude":54.160585470000001,"GlobalID":"{DF289742-4283-4EC6-87A7-0C451446DA47}"}},{"type":"Feature","id":38,"geometry":{"type":"Point","coordinates":[197696.15409999993,1885744.1268000007]},"properties":{"OBJECTID":38,"Asset_ID":"TS38","Name":null,"District_ID":"Dahariz al Shamaliyya","Gov_ID":"Dhofar Governorate","Wlyt_ID":"Salalah","Road_ID":"100418","Latitude":17.03609552,"Longitude":54.160378059999999,"GlobalID":"{A0C1734E-791A-48C5-8DE6-59F1410550A2}"}},{"type":"Feature","id":39,"geometry":{"type":"Point","coordinates":[197425.11230000015,1884641.8164000008]},"properties":{"OBJECTID":39,"Asset_ID":"TS39","Name":null,"District_ID":"Dahariz al Shamaliyya","Gov_ID":"Dhofar Governorate","Wlyt_ID":"Salalah","Road_ID":"100001","Latitude":17.02610791,"Longitude":54.15798479,"GlobalID":"{80D33C26-C278-40BA-A993-58FAFD0FBAB2}"}},{"type":"Feature","id":40,"geometry":{"type":"Point","coordinates":[197405.80750000011,1884641.9824000001]},"properties":{"OBJECTID":40,"Asset_ID":"TS40","Name":null,"District_ID":"Dahariz al Shamaliyya","Gov_ID":"Dhofar Governorate","Wlyt_ID":"Salalah","Road_ID":"100001","Latitude":17.02610687,"Longitude":54.157803600000001,"GlobalID":"{25362182-F673-4833-B1E1-8A93F07D155E}"}},{"type":"Feature","id":41,"geometry":{"type":"Point","coordinates":[197404.72890000045,1884674.4520999994]},"properties":{"OBJECTID":41,"Asset_ID":"TS41","Name":null,"District_ID":"Dahariz al Shamaliyya","Gov_ID":"Dhofar Governorate","Wlyt_ID":"Salalah","Road_ID":"100006","Latitude":17.02639988,"Longitude":54.157789049999998,"GlobalID":"{5D4888C9-507E-411D-B156-807D37612F09}"}},{"type":"Feature","id":42,"geometry":{"type":"Point","coordinates":[197426.30159999989,1884675.1159000006]},"properties":{"OBJECTID":42,"Asset_ID":"TS42","Name":null,"District_ID":"Dahariz al Shamaliyya","Gov_ID":"Dhofar Governorate","Wlyt_ID":"Salalah","Road_ID":"100006","Latitude":17.026408700000001,"Longitude":54.157991410000001,"GlobalID":"{26DC6567-542A-4570-9814-CF996B112D97}"}},{"type":"Feature","id":43,"geometry":{"type":"Point","coordinates":[189277.67329999991,1883172.6089999992]},"properties":{"OBJECTID":43,"Asset_ID":"TS43","Name":null,"District_ID":"Salalah al Gharbiyya","Gov_ID":"2","Wlyt_ID":"Salalah","Road_ID":null,"Latitude":null,"Longitude":null,"GlobalID":"{132D8102-2E81-4EAD-9D63-C2398567A263}"}},{"type":"Feature","id":44,"geometry":{"type":"Point","coordinates":[189284.42229999974,1883174.9606999997]},"properties":{"OBJECTID":44,"Asset_ID":"TS44","Name":null,"District_ID":"Salalah al Gharbiyya","Gov_ID":"2","Wlyt_ID":"Salalah","Road_ID":null,"Latitude":null,"Longitude":null,"GlobalID":"{16138AEF-AA04-40B0-B610-11E1AB1B67B7}"}},{"type":"Feature","id":45,"geometry":{"type":"Point","coordinates":[189285.69639999978,1883186.5535000004]},"properties":{"OBJECTID":45,"Asset_ID":"TS45","Name":null,"District_ID":"Salalah al Jadida","Gov_ID":"2","Wlyt_ID":"Salalah","Road_ID":null,"Latitude":null,"Longitude":null,"GlobalID":"{3DA643EC-F6C2-42FE-9167-4227A3D79CC3}"}},{"type":"Feature","id":46,"geometry":{"type":"Point","coordinates":[189262.14290000033,1883182.4852000009]},"properties":{"OBJECTID":46,"Asset_ID":"TS46","Name":null,"District_ID":"Salalah al Jadida","Gov_ID":"2","Wlyt_ID":"Salalah","Road_ID":null,"Latitude":null,"Longitude":null,"GlobalID":"{1B9BC6BA-2C1E-4FBD-AEC5-F7E8D0B5E23C}"}},{"type":"Feature","id":47,"geometry":{"type":"Point","coordinates":[181736.50879999995,1880622.6194000002]},"properties":{"OBJECTID":47,"Asset_ID":"TS47","Name":null,"District_ID":"Wadi Adhan","Gov_ID":"2","Wlyt_ID":"Salalah","Road_ID":null,"Latitude":null,"Longitude":null,"GlobalID":"{AD372E2B-3593-48CA-978C-A4988C658E07}"}},{"type":"Feature","id":48,"geometry":{"type":"Point","coordinates":[181783.10280000046,1880628.2409000006]},"properties":{"OBJECTID":48,"Asset_ID":"TS48","Name":null,"District_ID":"Wadi Adhan","Gov_ID":"2","Wlyt_ID":"Salalah","Road_ID":null,"Latitude":null,"Longitude":null,"GlobalID":"{587E3A07-3780-45FA-A36E-B655D8741A0A}"}},{"type":"Feature","id":49,"geometry":{"type":"Point","coordinates":[181762.74490000028,1880613.8387000002]},"properties":{"OBJECTID":49,"Asset_ID":"TS49","Name":null,"District_ID":"Wadi Adhan","Gov_ID":"2","Wlyt_ID":"Salalah","Road_ID":null,"Latitude":null,"Longitude":null,"GlobalID":"{6854C66D-0B2C-4703-9EA8-A2E59F0103EE}"}},{"type":"Feature","id":50,"geometry":{"type":"Point","coordinates":[181770.01860000007,1880648.7720999997]},"properties":{"OBJECTID":50,"Asset_ID":"TS50","Name":null,"District_ID":"Wadi Adhan","Gov_ID":"2","Wlyt_ID":"Salalah","Road_ID":null,"Latitude":null,"Longitude":null,"GlobalID":"{7A108679-D261-41AC-AA38-2D467ED08DC9}"}},{"type":"Feature","id":51,"geometry":{"type":"Point","coordinates":[181776.43250000011,1880639.8753999993]},"properties":{"OBJECTID":51,"Asset_ID":"TS51","Name":null,"District_ID":"Wadi Adhan","Gov_ID":"2","Wlyt_ID":"Salalah","Road_ID":null,"Latitude":null,"Longitude":null,"GlobalID":"{D46996C8-8D24-4A11-B796-FED40A8A7883}"}},{"type":"Feature","id":52,"geometry":{"type":"Point","coordinates":[181784.2034,1880629.5385999996]},"properties":{"OBJECTID":52,"Asset_ID":"TS52","Name":null,"District_ID":"Wadi Adhan","Gov_ID":"2","Wlyt_ID":"Salalah","Road_ID":null,"Latitude":null,"Longitude":null,"GlobalID":"{69C7FEFF-BFFE-4A10-A3FE-AEC6FA1ED720}"}},{"type":"Feature","id":53,"geometry":{"type":"Point","coordinates":[181746.08139999956,1880602.8706999999]},"properties":{"OBJECTID":53,"Asset_ID":"TS53","Name":null,"District_ID":"Wadi Adhan","Gov_ID":"2","Wlyt_ID":"Salalah","Road_ID":null,"Latitude":null,"Longitude":null,"GlobalID":"{E2D482AC-22EC-4E94-B515-5177B2902DC4}"}},{"type":"Feature","id":54,"geometry":{"type":"Point","coordinates":[181738.32859999966,1880614.1302000005]},"properties":{"OBJECTID":54,"Asset_ID":"TS54","Name":null,"District_ID":"Wadi Adhan","Gov_ID":"2","Wlyt_ID":"Salalah","Road_ID":null,"Latitude":null,"Longitude":null,"GlobalID":"{E9C49A8A-9E58-4F3C-8506-BA7BC2146FDC}"}},{"type":"Feature","id":55,"geometry":{"type":"Point","coordinates":[181732.03789999988,1880622.5055999998]},"properties":{"OBJECTID":55,"Asset_ID":"TS55","Name":null,"District_ID":"Wadi Adhan","Gov_ID":"2","Wlyt_ID":"Salalah","Road_ID":null,"Latitude":null,"Longitude":null,"GlobalID":"{5112E2B1-2193-4DB8-8333-EBF7C7B6D294}"}},{"type":"Feature","id":56,"geometry":{"type":"Point","coordinates":[181351.63260000013,1880373.0225000009]},"properties":{"OBJECTID":56,"Asset_ID":"TS56","Name":null,"District_ID":"Wadi Adhan","Gov_ID":"2","Wlyt_ID":"Salalah","Road_ID":null,"Latitude":null,"Longitude":null,"GlobalID":"{AAFF2A29-FB26-47EC-A48E-8BFFF8B1AC83}"}},{"type":"Feature","id":57,"geometry":{"type":"Point","coordinates":[181348.57149999961,1880374.2997999992]},"properties":{"OBJECTID":57,"Asset_ID":"TS57","Name":null,"District_ID":"Wadi Adhan","Gov_ID":"2","Wlyt_ID":"Salalah","Road_ID":null,"Latitude":null,"Longitude":null,"GlobalID":"{0299D2B0-1886-4A61-B1E6-D25CD4B3EC06}"}},{"type":"Feature","id":58,"geometry":{"type":"Point","coordinates":[181361.86510000005,1880366.2598999999]},"properties":{"OBJECTID":58,"Asset_ID":"TS58","Name":null,"District_ID":"Wadi Adhan","Gov_ID":"2","Wlyt_ID":"Salalah","Road_ID":null,"Latitude":null,"Longitude":null,"GlobalID":"{D495E061-55F5-483D-B765-6988B899367F}"}},{"type":"Feature","id":59,"geometry":{"type":"Point","coordinates":[181371.02240000013,1880358.9180999994]},"properties":{"OBJECTID":59,"Asset_ID":"TS59","Name":null,"District_ID":"Wadi Adhan","Gov_ID":"2","Wlyt_ID":"Salalah","Road_ID":null,"Latitude":null,"Longitude":null,"GlobalID":"{225CA70F-FE38-423F-BD9F-211334A4E814}"}},{"type":"Feature","id":60,"geometry":{"type":"Point","coordinates":[181378.61419999972,1880347.8355999999]},"properties":{"OBJECTID":60,"Asset_ID":"TS60","Name":null,"District_ID":"Wadi Adhan","Gov_ID":"2","Wlyt_ID":"Salalah","Road_ID":null,"Latitude":null,"Longitude":null,"GlobalID":"{13021C87-F9EF-4F58-855A-1D8A0660E8CA}"}},{"type":"Feature","id":61,"geometry":{"type":"Point","coordinates":[181372.64240000024,1880343.0485999994]},"properties":{"OBJECTID":61,"Asset_ID":"TS61","Name":null,"District_ID":"Wadi Adhan","Gov_ID":"2","Wlyt_ID":"Salalah","Road_ID":null,"Latitude":null,"Longitude":null,"GlobalID":"{E155D140-4F95-40E9-8998-5464B802C64E}"}},{"type":"Feature","id":62,"geometry":{"type":"Point","coordinates":[181356.69979999959,1880332.2021999992]},"properties":{"OBJECTID":62,"Asset_ID":"TS62","Name":null,"District_ID":"Wadi Adhan","Gov_ID":"2","Wlyt_ID":"Salalah","Road_ID":null,"Latitude":null,"Longitude":null,"GlobalID":"{98799EBD-A831-460F-A274-CD9480DE6D62}"}},{"type":"Feature","id":63,"geometry":{"type":"Point","coordinates":[181340.92009999976,1880321.5684999991]},"properties":{"OBJECTID":63,"Asset_ID":"TS63","Name":null,"District_ID":"Wadi Adhan","Gov_ID":"2","Wlyt_ID":"Salalah","Road_ID":null,"Latitude":null,"Longitude":null,"GlobalID":"{F4BEF96B-233F-4683-8572-23F8D79900BF}"}},{"type":"Feature","id":64,"geometry":{"type":"Point","coordinates":[181333.26750000007,1880332.1899999995]},"properties":{"OBJECTID":64,"Asset_ID":"TS64","Name":null,"District_ID":"Wadi Adhan","Gov_ID":"2","Wlyt_ID":"Salalah","Road_ID":null,"Latitude":null,"Longitude":null,"GlobalID":"{C4A7168B-EB8D-46DA-8868-EDD100B7C543}"}},{"type":"Feature","id":65,"geometry":{"type":"Point","coordinates":[181331.27630000003,1880341.7447999995]},"properties":{"OBJECTID":65,"Asset_ID":"TS65","Name":null,"District_ID":"Wadi Adhan","Gov_ID":"2","Wlyt_ID":"Salalah","Road_ID":null,"Latitude":null,"Longitude":null,"GlobalID":"{61BD7594-6868-4353-8B24-1A8DAED3A9B2}"}},{"type":"Feature","id":66,"geometry":{"type":"Point","coordinates":[181326.93580000009,1880341.5474999994]},"properties":{"OBJECTID":66,"Asset_ID":"TS66","Name":null,"District_ID":"Wadi Adhan","Gov_ID":"2","Wlyt_ID":"Salalah","Road_ID":null,"Latitude":null,"Longitude":null,"GlobalID":"{ACB8D1FB-18FC-43CC-9EDE-8FC70392D2E9}"}},{"type":"Feature","id":67,"geometry":{"type":"Point","coordinates":[181325.2106999997,1880358.9273000006]},"properties":{"OBJECTID":67,"Asset_ID":"TS67","Name":null,"District_ID":"Wadi Adhan","Gov_ID":"2","Wlyt_ID":"Salalah","Road_ID":null,"Latitude":null,"Longitude":null,"GlobalID":"{3CDBF6D6-A3BE-4A81-B617-7DEC58A89606}"}},{"type":"Feature","id":68,"geometry":{"type":"Point","coordinates":[181335.98510000017,1880366.3146000002]},"properties":{"OBJECTID":68,"Asset_ID":"TS68","Name":null,"District_ID":"Wadi Adhan","Gov_ID":"2","Wlyt_ID":"Salalah","Road_ID":null,"Latitude":null,"Longitude":null,"GlobalID":"{B51C3ADC-3E20-4AF3-9DFB-166E43FC3FC3}"}},{"type":"Feature","id":69,"geometry":{"type":"Point","coordinates":[181048.57390000019,1880163.9197000004]},"properties":{"OBJECTID":69,"Asset_ID":"TS69","Name":null,"District_ID":"Wadi Adhan","Gov_ID":"2","Wlyt_ID":"Salalah","Road_ID":null,"Latitude":null,"Longitude":null,"GlobalID":"{17F50148-CA2C-4DAD-BE6D-5A6107E62505}"}},{"type":"Feature","id":70,"geometry":{"type":"Point","coordinates":[181056.2723000003,1880154.0187999997]},"properties":{"OBJECTID":70,"Asset_ID":"TS70","Name":null,"District_ID":"Wadi Adhan","Gov_ID":"2","Wlyt_ID":"Salalah","Road_ID":null,"Latitude":null,"Longitude":null,"GlobalID":"{FCE9AD7D-3A9B-4F72-AA1D-AC786A131EEF}"}},{"type":"Feature","id":71,"geometry":{"type":"Point","coordinates":[181062.56329999957,1880144.2905999999]},"properties":{"OBJECTID":71,"Asset_ID":"TS71","Name":null,"District_ID":"Wadi Adhan","Gov_ID":"2","Wlyt_ID":"Salalah","Road_ID":null,"Latitude":null,"Longitude":null,"GlobalID":"{5DFB46FE-0BF7-4648-BF44-EE1B0AB20DBE}"}},{"type":"Feature","id":72,"geometry":{"type":"Point","coordinates":[181070.0513000004,1880133.7435999997]},"properties":{"OBJECTID":72,"Asset_ID":"TS72","Name":null,"District_ID":"Wadi Adhan","Gov_ID":"2","Wlyt_ID":"Salalah","Road_ID":null,"Latitude":null,"Longitude":null,"GlobalID":"{D9F60AC9-3CF6-47B9-A9E8-BA2D3BA51896}"}},{"type":"Feature","id":73,"geometry":{"type":"Point","coordinates":[181061.2703999998,1880126.5883000009]},"properties":{"OBJECTID":73,"Asset_ID":"TS73","Name":null,"District_ID":"Wadi Adhan","Gov_ID":"2","Wlyt_ID":"Salalah","Road_ID":null,"Latitude":null,"Longitude":null,"GlobalID":"{BD2233EE-A854-4032-A600-4F92047E71CB}"}},{"type":"Feature","id":74,"geometry":{"type":"Point","coordinates":[181046.75339999981,1880116.1502999999]},"properties":{"OBJECTID":74,"Asset_ID":"TS74","Name":null,"District_ID":"Wadi Adhan","Gov_ID":"2","Wlyt_ID":"Salalah","Road_ID":null,"Latitude":null,"Longitude":null,"GlobalID":"{474DF3DE-1766-423E-8644-F8380AFEDD98}"}},{"type":"Feature","id":75,"geometry":{"type":"Point","coordinates":[181029.45600000024,1880103.8783]},"properties":{"OBJECTID":75,"Asset_ID":"TS75","Name":null,"District_ID":"Wadi Adhan","Gov_ID":"2","Wlyt_ID":"Salalah","Road_ID":null,"Latitude":null,"Longitude":null,"GlobalID":"{C182BF39-4574-489B-BCB4-36C7F3D63D82}"}},{"type":"Feature","id":76,"geometry":{"type":"Point","coordinates":[181021.6623999998,1880114.5634000003]},"properties":{"OBJECTID":76,"Asset_ID":"TS76","Name":null,"District_ID":"Wadi Adhan","Gov_ID":"2","Wlyt_ID":"Salalah","Road_ID":null,"Latitude":null,"Longitude":null,"GlobalID":"{DCD10723-D902-4B54-A4E7-A425E5833609}"}},{"type":"Feature","id":77,"geometry":{"type":"Point","coordinates":[181014.84480000008,1880123.4031000007]},"properties":{"OBJECTID":77,"Asset_ID":"TS77","Name":null,"District_ID":"Wadi Adhan","Gov_ID":"2","Wlyt_ID":"Salalah","Road_ID":null,"Latitude":null,"Longitude":null,"GlobalID":"{EFDE036C-2F0A-4B8C-B277-CBE019B767F0}"}},{"type":"Feature","id":78,"geometry":{"type":"Point","coordinates":[181006.92009999976,1880134.0440999996]},"properties":{"OBJECTID":78,"Asset_ID":"TS78","Name":null,"District_ID":"Wadi Adhan","Gov_ID":"2","Wlyt_ID":"Salalah","Road_ID":null,"Latitude":null,"Longitude":null,"GlobalID":"{ACC78A03-BC61-4C40-9511-D0FBAF9C3F66}"}},{"type":"Feature","id":79,"geometry":{"type":"Point","coordinates":[181012.21609999985,1880140.1094000004]},"properties":{"OBJECTID":79,"Asset_ID":"TS79","Name":null,"District_ID":"Wadi Adhan","Gov_ID":"2","Wlyt_ID":"Salalah","Road_ID":null,"Latitude":null,"Longitude":null,"GlobalID":"{75E03826-0A02-4C15-BCE4-40233AB31840}"}},{"type":"Feature","id":80,"geometry":{"type":"Point","coordinates":[181023.28000000026,1880147.9313999992]},"properties":{"OBJECTID":80,"Asset_ID":"TS80","Name":null,"District_ID":"Wadi Adhan","Gov_ID":"2","Wlyt_ID":"Salalah","Road_ID":null,"Latitude":null,"Longitude":null,"GlobalID":"{872FE01D-066D-4DF9-B91C-7832B5E94B1D}"}},{"type":"Feature","id":81,"geometry":{"type":"Point","coordinates":[181030.88970000017,1880153.4310999997]},"properties":{"OBJECTID":81,"Asset_ID":"TS81","Name":null,"District_ID":"Wadi Adhan","Gov_ID":"2","Wlyt_ID":"Salalah","Road_ID":null,"Latitude":null,"Longitude":null,"GlobalID":"{3F3AE0E8-ADED-45EE-B3DF-93C286142755}"}},{"type":"Feature","id":82,"geometry":{"type":"Point","coordinates":[181019.79999999981,1880124.7807999998]},"properties":{"OBJECTID":82,"Asset_ID":"TS82","Name":null,"District_ID":"Wadi Adhan","Gov_ID":"2","Wlyt_ID":"Salalah","Road_ID":null,"Latitude":null,"Longitude":null,"GlobalID":"{E8F6ABA4-0944-4373-B1B3-2E758D87F7C8}"}}]
}