{
  "type" : "FeatureCollection",
  "crs" : {
    "type" : "name",
    "properties" : {
      "name" : "EPSG:32640"
    }
  },
  "features" : [{"type":"Feature","id":1,"geometry":{"type":"Point","coordinates":[189748.25609999988,1883314.2335999999]},"properties":{"OBJECTID":1,"Asset_ID":"TA1","Name":"TRANS WAYS","District_ID":"Salalah al Gharbiyya","Gov_ID":"2","Wlyt_ID":"Salalah","Road_ID":"103812","Latitude":17.013102570000001,"Longitude":54.086130490000002,"GlobalID":"{EECA39F7-7A25-4EF4-A207-E1183EEC1950}"}},{"type":"Feature","id":2,"geometry":{"type":"Point","coordinates":[190222.32230000012,1883445.8971999995]},"properties":{"OBJECTID":2,"Asset_ID":"TA2","Name":"الجوف للسفريات","District_ID":"Salalah al Wousta","Gov_ID":"2","Wlyt_ID":"Salalah","Road_ID":"104459","Latitude":17.01435489,"Longitude":54.090560340000003,"GlobalID":"{5BE870D4-24A6-4A12-B79E-69BBE03AF0F1}"}},{"type":"Feature","id":3,"geometry":{"type":"Point","coordinates":[189424.26819999982,1883212.1185999997]},"properties":{"OBJECTID":3,"Asset_ID":"TA3","Name":"التكامل للسفر و السياحة و تأجير السيارات","District_ID":"Salalah al Gharbiyya","Gov_ID":"2","Wlyt_ID":"Salalah","Road_ID":"103812","Latitude":17.012137110000001,"Longitude":54.083104759999998,"GlobalID":"{20B72627-12D9-4947-8F11-65B3035FFAC4}"}},{"type":"Feature","id":4,"geometry":{"type":"Point","coordinates":[190227.05879999977,1883447.8574000001]},"properties":{"OBJECTID":4,"Asset_ID":"TA4","Name":"Noble Travel & Tourism","District_ID":"Salalah al Wousta","Gov_ID":"2","Wlyt_ID":"Salalah","Road_ID":"104459","Latitude":17.014358179999999,"Longitude":54.090607779999999,"GlobalID":"{541AF3EE-CC56-44D6-A95C-30360D96F1D3}"}},{"type":"Feature","id":5,"geometry":{"type":"Point","coordinates":[189016.54399999976,1883156.1011999995]},"properties":{"OBJECTID":5,"Asset_ID":"TA5","Name":"abu RESWA agency","District_ID":"Salalah al Jadida","Gov_ID":"2","Wlyt_ID":"Salalah","Road_ID":"104246","Latitude":17.011576489999999,"Longitude":54.079286920000001,"GlobalID":"{CAA5287C-08D4-4BF5-ABA9-3FA2F96ADF9A}"}},{"type":"Feature","id":6,"geometry":{"type":"Point","coordinates":[190234.57230000012,1883446.1495999992]},"properties":{"OBJECTID":6,"Asset_ID":"TA6","Name":"Line Trave","District_ID":"Salalah al Wousta","Gov_ID":"2","Wlyt_ID":"Salalah","Road_ID":"104459","Latitude":17.014352720000002,"Longitude":54.090657640000003,"GlobalID":"{1CBDAB4C-3124-4E77-9E33-E5A34CF81746}"}},{"type":"Feature","id":7,"geometry":{"type":"Point","coordinates":[189454.25739999954,1883284.1422000006]},"properties":{"OBJECTID":7,"Asset_ID":"TA7","Name":"Marhaba Dhofar Tours","District_ID":"Salalah al Jadida","Gov_ID":"2","Wlyt_ID":"Salalah","Road_ID":"104212","Latitude":17.012791360000001,"Longitude":54.083376080000001,"GlobalID":"{5FC45347-C8C1-4F75-9CCA-3368E281D1CB}"}},{"type":"Feature","id":9,"geometry":{"type":"Point","coordinates":[190485.58650000021,1883421.6910999995]},"properties":{"OBJECTID":9,"Asset_ID":"TA9","Name":"Hormoz Travel","District_ID":"Salalah al Wousta","Gov_ID":"2","Wlyt_ID":"Salalah","Road_ID":"104387","Latitude":17.014172779999999,"Longitude":54.093041560000003,"GlobalID":"{5A4D04F8-8017-4E79-AD32-3F73DA727A85}"}},{"type":"Feature","id":10,"geometry":{"type":"Point","coordinates":[190486.80030000024,1883417.2910999991]},"properties":{"OBJECTID":10,"Asset_ID":"TA10","Name":"Air Arabia العربيه للطيران","District_ID":"Salalah al Wousta","Gov_ID":"2","Wlyt_ID":"Salalah","Road_ID":"104387","Latitude":17.014133220000002,"Longitude":54.093053560000001,"GlobalID":"{898593A9-E8D8-4901-A7E1-360D7DC322C9}"}},{"type":"Feature","id":11,"geometry":{"type":"Point","coordinates":[190460.7237999998,1883406.5405999999]},"properties":{"OBJECTID":11,"Asset_ID":"TA11","Name":"Olivia Tours and Travels salalah","District_ID":"Salalah al Wousta","Gov_ID":"2","Wlyt_ID":"Salalah","Road_ID":"104549","Latitude":17.014014620000001,"Longitude":54.092807620000002,"GlobalID":"{E175211D-2AE3-496D-8E52-537389154E3C}"}},{"type":"Feature","id":12,"geometry":{"type":"Point","coordinates":[190503.25430000015,1883365.4253000002]},"properties":{"OBJECTID":12,"Asset_ID":"TA12","Name":"Sky World Travels","District_ID":"Salalah al Wousta","Gov_ID":"2","Wlyt_ID":"Salalah","Road_ID":"104387","Latitude":17.013667049999999,"Longitude":54.093220240000001,"GlobalID":"{D9146482-2D06-4ECB-8BE9-EC0BCC9208D9}"}},{"type":"Feature","id":13,"geometry":{"type":"Point","coordinates":[190515.68039999995,1883277.8823000006]},"properties":{"OBJECTID":13,"Asset_ID":"TA13","Name":"Air India Express","District_ID":"Salalah al Wousta","Gov_ID":"2","Wlyt_ID":"Salalah","Road_ID":"103824","Latitude":17.012880020000001,"Longitude":54.09334922,"GlobalID":"{91D86EF0-2AFA-4A4B-8915-1E904A8D70B8}"}},{"type":"Feature","id":14,"geometry":{"type":"Point","coordinates":[190516.70380000025,1883315.0196000002]},"properties":{"OBJECTID":14,"Asset_ID":"TA14","Name":"Alhind Tours & Travel LLC - Salalah","District_ID":"Salalah al Wousta","Gov_ID":"2","Wlyt_ID":"Salalah","Road_ID":"103824","Latitude":17.01321548,"Longitude":54.093353950000001,"GlobalID":"{E416F5FB-0A2E-42E9-A495-17B5263AE73B}"}},{"type":"Feature","id":15,"geometry":{"type":"Point","coordinates":[190588.89039999992,1883101.8072999995]},"properties":{"OBJECTID":15,"Asset_ID":"TA15","Name":"الحبيب للسفر","District_ID":"Salalah al Wousta","Gov_ID":"2","Wlyt_ID":"Salalah","Road_ID":"104387","Latitude":17.0113007,"Longitude":54.094062739999998,"GlobalID":"{BBA5ED58-6193-4D98-AC05-651FA153392D}"}},{"type":"Feature","id":16,"geometry":{"type":"Point","coordinates":[190588.64919999987,1883094.1108999997]},"properties":{"OBJECTID":16,"Asset_ID":"TA16","Name":"وحيد لسفر و السياحة و الشحن","District_ID":"Salalah al Wousta","Gov_ID":"2","Wlyt_ID":"Salalah","Road_ID":"104387","Latitude":17.01122801,"Longitude":54.094056739999999,"GlobalID":"{8076D2FC-C1DE-4E7A-9228-2E0737C90F9C}"}},{"type":"Feature","id":17,"geometry":{"type":"Point","coordinates":[190589.32510000002,1883088.1659999993]},"properties":{"OBJECTID":17,"Asset_ID":"TA17","Name":"سماء الجنوب للسفر و السياحة","District_ID":"Salalah al Wousta","Gov_ID":"2","Wlyt_ID":"Salalah","Road_ID":"104387","Latitude":17.011178780000002,"Longitude":54.09406319,"GlobalID":"{1C5D6E9A-AA73-4D35-9EE9-6EF83410C75B}"}},{"type":"Feature","id":18,"geometry":{"type":"Point","coordinates":[190596.04920000024,1883083.8420000002]},"properties":{"OBJECTID":18,"Asset_ID":"TA18","Name":"فهد للسفر و السياحة","District_ID":"Salalah al Wousta","Gov_ID":"2","Wlyt_ID":"Salalah","Road_ID":"104387","Latitude":17.011137229999999,"Longitude":54.094127909999997,"GlobalID":"{1CBBAB08-47A7-42F8-974F-4213A25C4D2F}"}},{"type":"Feature","id":19,"geometry":{"type":"Point","coordinates":[190170.64109999966,1883124.8576999996]},"properties":{"OBJECTID":19,"Asset_ID":"TA19","Name":"وكالة سفر","District_ID":"Salalah al Gharbiyya","Gov_ID":"2","Wlyt_ID":"Salalah","Road_ID":"104491","Latitude":17.01145829,"Longitude":54.09012525,"GlobalID":"{93A290E9-FED2-4142-90CE-EC2F1F7A03CD}"}},{"type":"Feature","id":20,"geometry":{"type":"Point","coordinates":[190199.04330000002,1883443.8961999994]},"properties":{"OBJECTID":20,"Asset_ID":"TA20","Name":"Line Travel(هنا الريان)","District_ID":"Salalah al Wousta","Gov_ID":"2","Wlyt_ID":"Salalah","Road_ID":"104459","Latitude":17.01434209,"Longitude":54.090340759999997,"GlobalID":"{C8B74929-8551-472A-884C-4C68BCD8AF96}"}},{"type":"Feature","id":21,"geometry":{"type":"Point","coordinates":[197536.96789999958,1884155.6723999996]},"properties":{"OBJECTID":21,"Asset_ID":"TA21","Name":"البيت الذهبي للسفر","District_ID":"Dahariz al Shamaliyya","Gov_ID":"2","Wlyt_ID":"Salalah","Road_ID":"100022","Latitude":17.021731920000001,"Longitude":54.159092190000003,"GlobalID":"{35CFEBF2-A691-47A6-BF06-AF266BC8A395}"}},{"type":"Feature","id":22,"geometry":{"type":"Point","coordinates":[190551.76669999957,1883235.7175999992]},"properties":{"OBJECTID":22,"Asset_ID":"TA22","Name":"One World Travels, Tours & Cargo","District_ID":"Salalah al Wousta","Gov_ID":"2","Wlyt_ID":"Salalah","Road_ID":"103824","Latitude":17.012508480000001,"Longitude":54.093680790000001,"GlobalID":"{E7366226-0727-4358-8C77-64DEA19F904B}"}},{"type":"Feature","id":23,"geometry":{"type":"Point","coordinates":[192895.34410000034,1884486.8507000003]},"properties":{"OBJECTID":23,"Asset_ID":"TA23","Name":"Bin Samooda International","District_ID":"al Huseela","Gov_ID":"2","Wlyt_ID":"Salalah","Road_ID":"103813","Latitude":17.024125860000002,"Longitude":54.115498530000004,"GlobalID":"{EF038786-42AD-4BE3-8EDC-D68E876FC67A}"}},{"type":"Feature","id":24,"geometry":{"type":"Point","coordinates":[182885.50069999974,1882985.4354999997]},"properties":{"OBJECTID":24,"Asset_ID":"TA24","Name":"وكلاء السفر","District_ID":"Auqad al Shamaliyya","Gov_ID":"2","Wlyt_ID":"Salalah","Road_ID":"105800","Latitude":17.00915534,"Longitude":54.021799680000001,"GlobalID":"{F450C513-8011-48E5-82EE-E4E5A96D2F3A}"}}]
}