{
  "type" : "FeatureCollection",
  "crs" : {
    "type" : "name",
    "properties" : {
      "name" : "EPSG:32640"
    }
  },
  "features" : [{"type":"Feature","id":1,"geometry":{"type":"Point","coordinates":[198195.61959999986,1884224.7530000005]},"properties":{"OBJECTID":1,"Asset_ID":"VP1","Name":"Dr Abotaha Vet","District_ID":"Dahariz al Shamaliyya","Gov_ID":"2","Wlyt_ID":"Salalah","Road_ID":"100140","Latitude":17.02244348,"Longitude":54.165272270000003,"GlobalID":"{64001085-B63D-4037-9EE1-7BEF8CD7A90A}"}},{"type":"Feature","id":2,"geometry":{"type":"Point","coordinates":[196789.13370000012,1892762.307]},"properties":{"OBJECTID":2,"Asset_ID":"VP2","Name":"صيدلية بيطرية","District_ID":null,"Gov_ID":"2","Wlyt_ID":"Salalah","Road_ID":"101857","Latitude":17.099338270000001,"Longitude":54.150903749999998,"GlobalID":"{F6ACBE35-DE91-4CA8-84D0-AEAE48596EFA}"}},{"type":"Feature","id":3,"geometry":{"type":"Point","coordinates":[196327.68329999968,1892668.5875000004]},"properties":{"OBJECTID":3,"Asset_ID":"VP3","Name":"صيدلية الشام البيطرية","District_ID":null,"Gov_ID":"2","Wlyt_ID":"Salalah","Road_ID":"102167","Latitude":17.098431139999999,"Longitude":54.146584570000002,"GlobalID":"{374D6FDE-7AD6-4E40-9F01-F2F7A2C63D7B}"}},{"type":"Feature","id":4,"geometry":{"type":"Point","coordinates":[187840.42040000018,1882488.9005999994]},"properties":{"OBJECTID":4,"Asset_ID":"VP4","Name":"العيادة البيطرية","District_ID":"Salalah al Gharbiyya","Gov_ID":"2","Wlyt_ID":"Salalah","Road_ID":"104447","Latitude":17.005394460000002,"Longitude":54.068345209999997,"GlobalID":"{88E8991D-5A06-4624-9694-A1A4FCA118B2}"}},{"type":"Feature","id":5,"geometry":{"type":"Point","coordinates":[197246.43539999984,1884110.8598999996]},"properties":{"OBJECTID":5,"Asset_ID":"VP5","Name":"صيدلية بيطرية","District_ID":"Dahariz al Shamaliyya","Gov_ID":"2","Wlyt_ID":"Salalah","Road_ID":"100007","Latitude":17.021287269999998,"Longitude":54.156394069999997,"GlobalID":"{95422A3E-2160-4796-A4D3-EC28A13E6691}"}},{"type":"Feature","id":6,"geometry":{"type":"Point","coordinates":[197338.21250000037,1883920.5436000004]},"properties":{"OBJECTID":6,"Asset_ID":"VP6","Name":"صيدلية الفارس البيطرية","District_ID":"Dahariz al Shamaliyya","Gov_ID":"2","Wlyt_ID":"Salalah","Road_ID":"100007","Latitude":17.019588469999999,"Longitude":54.15727794,"GlobalID":"{E2FBC58C-55DC-43F4-B5EF-F40BBE606C09}"}},{"type":"Feature","id":7,"geometry":{"type":"Point","coordinates":[183971.88069999963,1885354.5483999997]},"properties":{"OBJECTID":7,"Asset_ID":"VP7","Name":"عيادة الرافدين البيطري","District_ID":"New Industrial Area","Gov_ID":"2","Wlyt_ID":"Salalah","Road_ID":"105280","Latitude":17.03073732,"Longitude":54.031640930000002,"GlobalID":"{0ECBEC0E-B557-4BDD-9447-57F2A664137E}"}},{"type":"Feature","id":8,"geometry":{"type":"Point","coordinates":[184152.09740000032,1885184.2689999994]},"properties":{"OBJECTID":8,"Asset_ID":"VP8","Name":"مركز الشام البيطري","District_ID":"New Industrial Area","Gov_ID":"2","Wlyt_ID":"Salalah","Road_ID":"105234","Latitude":17.029224849999999,"Longitude":54.033356249999997,"GlobalID":"{0340410E-206F-4E52-AB3F-35A8EC09E1C6}"}}]
}